id,pool,sid,name,postal,province,address,city
a2t5o00000001F6AAI,Sobeys_Covid_Pool?,8883,Safeway Cornerstone - COVID - PFIZER,T4V 4T1,Alberta,"200, 6800 - 48 Avenue",Camrose
a2t5o00000001F8AAI,Sobeys_Covid_Pool?,8886,Safeway Callingwood - COVID - PFIZER,T5T 4J5,Alberta,"600, 6655 - 178 Street NW",Edmonton
a2t5o000000088lAAA,Sobeys_Covid_Pool?,8991,Safeway Chestermere Station - COVID - MODERNA,T1X 1V2,Alberta,"100, 135 Chestermere Station Way",Chestermere
a2t5o0000000879AAA,Sobeys_Covid_Pool?,8886,Safeway Callingwood - COVID - MODERNA,T5T 4J5,Alberta,"600, 6655 - 178 Street NW",Edmonton
a2t5o000000084PAAQ,Sobeys_Covid_Pool?,5386,Sobeys Mahogany - COVID - MODERNA,T3M 2P8,Alberta,"1200, 7 Mahogany Plaza SE",Calgary
a2t5o000000087OAAQ,Sobeys_Covid_Pool?,8891,Safeway Westmount Centre - COVID - MODERNA,T5M 3L7,Alberta,"601, 111 Ave and Groat Road",Edmonton
a2t5o00000002DuAAI,Sobeys_Covid_Pool?,8989,Safeway South Trail Crossing - COVID - MODERNA,T2Z 3V8,Alberta,"#100, 4915 - 130 Avenue SE",Calgary
a2t5o000000087xAAA,Sobeys_Covid_Pool?,8913,Safeway North Hill Center - COVID - MODERNA,T2N 1M7,Alberta,"#1846,1632 - 14 Avenue NW",Calgary
a2t5o000000083gAAA,Sobeys_Covid_Pool?,8898,Safeway Bonnie Doon - COVID - MODERNA,T6C 0Y6,Alberta,"#185, 8330 - 82 Avenue NW",Edmonton
a2t5o0000000861AAA,Sobeys_Covid_Pool?,5172,Sobeys Airdrie - COVID - MODERNA,T4B 0V7,Alberta,"100, 65 MacKenzie Way SW",Airdrie
a2t5o000000087dAAA,Sobeys_Covid_Pool?,8904,Safeway Southgate - COVID - MODERNA,T6H 4M6,Alberta,"100A, 5015 - 111 Street NW",Edmonton
a2t5o000000087ZAAQ,Sobeys_Covid_Pool?,8920,Safeway West Lethbridge - COVID - MODERNA,T1J 4T3,Alberta,"1, 550 University Drive W.",Lethbridge
a2t5o0000003herAAA,Sobeys_Covid_Pool?,8991,Safeway Chestermere Station - COVID - ASTRAZENECA,T1X 1V2,Alberta,"100, 135 Chestermere Station Way",Chestermere
a2t5o0000003i1mAAA,Sobeys_Covid_Pool?,8891,Safeway Westmount Centre - COVID - ASTRAZENECA,T5M 3L7,Alberta,"601, 111 Ave and Groat Road",Edmonton
a2t5o0000003htoAAA,Sobeys_Covid_Pool?,8823,Safeway Beacon Heights - COVID - ASTRAZENECA,T2E 2S6,Alberta,"#20, 1818 Centre Street NE",Calgary
a2t5o0000003i2GAAQ,Sobeys_Covid_Pool?,8913,Safeway North Hill Center - COVID - ASTRAZENECA,T2N 1M7,Alberta,"#1846,1632 - 14 Avenue NW",Calgary
a2t5o000000087TAAQ,Sobeys_Covid_Pool?,8892,Safeway Northgate Centre - COVID - MODERNA,T5E 5R8,Alberta,"200, 9499 - 137 Avenue NW",Edmonton
a2t5o000000083vAAA,Sobeys_Covid_Pool?,1130,Sobeys Okotoks - COVID - MODERNA,T1S 2E1,Alberta,"700 Cornerstone, 201 Southridge Drive",Okotoks
a2t5o0000000853AAA,Sobeys_Covid_Pool?,8823,Safeway Beacon Heights - COVID - MODERNA,T2E 2S6,Alberta,"#20, 1818 Centre Street NE",Calgary
a2t5o0000003hqVAAQ,Sobeys_Covid_Pool?,8898,Safeway Bonnie Doon - COVID - ASTRAZENECA,T6C 0Y6,Alberta,"#185, 8330 - 82 Avenue NW",Edmonton
a2t5o0000003i2fAAA,Sobeys_Covid_Pool?,8989,Safeway South Trail Crossing - COVID - ASTRAZENECA,T2Z 3V8,Alberta,"#100, 4915 - 130 Avenue SE",Calgary
a2t5o0000003hm0AAA,Sobeys_Covid_Pool?,8892,Safeway Northgate Centre - COVID - ASTRAZENECA,T5E 5R8,Alberta,"200, 9499 - 137 Avenue NW",Edmonton
a2t5o0000003hilAAA,Sobeys_Covid_Pool?,1130,Sobeys Okotoks - COVID - ASTRAZENECA,T1S 2E1,Alberta,"700 Cornerstone, 201 Southridge Drive",Okotoks
a2t5o0000003hhZAAQ,Sobeys_Covid_Pool?,5172,Sobeys Airdrie - COVID - ASTRAZENECA,T4B 0V7,Alberta,"100, 65 MacKenzie Way SW",Airdrie
a2t5o0000003hvgAAA,Sobeys_Covid_Pool?,5386,Sobeys Mahogany - COVID - ASTRAZENECA,T3M 2P8,Alberta,"1200, 7 Mahogany Plaza SE",Calgary
a2t5o0000003hzmAAA,Sobeys_Covid_Pool?,8886,Safeway Callingwood - COVID - ASTRAZENECA,T5T 4J5,Alberta,"600, 6655 - 178 Street NW",Edmonton
a2t5o0000003i1cAAA,Sobeys_Covid_Pool?,8883,Safeway Cornerstone - COVID - ASTRAZENECA,T4V 4T1,Alberta,"200, 6800 - 48 Avenue",Camrose
a2t5o0000003hqkAAA,Sobeys_Covid_Pool?,8904,Safeway Southgate - COVID - ASTRAZENECA,T6H 4M6,Alberta,"100A, 5015 - 111 Street NW",Edmonton
a2t5o00000001E3AAI,Sobeys_Covid_Pool?,1104,Sobeys Uplands - COVID - PFIZER,T1H 6T3,Alberta,327 Bluefox Boulevard N,Lethbridge
a2t5o00000001E4AAI,Sobeys_Covid_Pool?,1110,Sobeys Tuscany Boulevard - COVID - PFIZER,T3L 2V7,Alberta,2020-11300 Tuscany Boulevard NW,Calgary
a2t5o00000001E5AAI,Sobeys_Covid_Pool?,1117,Sobeys Bridlewood - COVID - PFIZER,T2Y 4S6,Alberta,100-2335 162 Avenue SW,Calgary
a2t5o00000001E7AAI,Sobeys_Covid_Pool?,8847,Safeway Shawnessey - COVID - PFIZER,T2Y 2Z3,Alberta,70 Shawville Boulevard SE,Calgary
a2t5o00000001E8AAI,Sobeys_Covid_Pool?,8849,Safeway Beddington - COVID - PFIZER,T3K 2A8,Alberta,8120 Beddington Blvd NW,Calgary
a2t5o00000001E9AAI,Sobeys_Covid_Pool?,8852,Safeway West Hills Towne Centre - COVID - PFIZER,T3H 3C8,Alberta,200 Stewart Green SW,Calgary
a2t5o00000001EAAAY,Sobeys_Covid_Pool?,8854,Safeway Fairway Plaza - COVID - PFIZER,T1K 6Z3,Alberta,2750 Fairway Plaza Road S.,Lethbridge
a2t5o00000001EBAAY,Sobeys_Covid_Pool?,8898,Safeway Bonnie Doon - COVID - PFIZER,T6C 0Y6,Alberta,#185 8330 - 82 Avenue NW,Edmonton
a2t5o00000001ECAAY,Sobeys_Covid_Pool?,8899,Safeway Wetaskiwin - COVID - PFIZER,T9A 2B1,Alberta,3901 - 56 Street,Wetaskiwin
a2t5o00000001EDAAY,Sobeys_Covid_Pool?,8900,Safeway The Grange - COVID - PFIZER,T5T 1K8,Alberta,2534 Guardian Road,Edmonton
a2t5o00000001EEAAY,Sobeys_Covid_Pool?,8903,Safeway Aspen Landing - COVID - PFIZER,T3H 0N6,Alberta,375 Aspen Glen Landing SW,Calgary
a2t5o00000001EFAAY,Sobeys_Covid_Pool?,1129,Sobeys Royal Oak - COVID - PFIZER,T3G 5T4,Alberta,125-8888 Country Hills Boulevard NW,Calgary
a2t5o00000001EGAAY,Sobeys_Covid_Pool?,1130,Sobeys Okotoks - COVID - PFIZER,T1S 2E1,Alberta,700 Cornerstone 201 Southridge Drive,Okotoks
a2t5o00000001EHAAY,Sobeys_Covid_Pool?,1139,Sobeys Country Hills - COVID - PFIZER,T3K 5H2,Alberta,200-500 Country Hills Boulevard NE,Calgary
a2t5o00000001EIAAY,Sobeys_Covid_Pool?,1145,Sobeys Millrise - COVID - PFIZER,T2Y 5G7,Alberta,2000-150 Millrise  Boulevard SW,Calgary
a2t5o00000001EJAAY,Sobeys_Covid_Pool?,1147,Sobeys Village Mall - COVID - PFIZER,T4N 4C6,Alberta,200-6380 50 Ave,Red Deer
a2t5o00000001EKAAY,Sobeys_Covid_Pool?,3132,Sobeys Beaumaris - COVID - PFIZER,T5X 6C3,Alberta,15367 Castledowns Road NW,Edmonton
a2t5o00000001ELAAY,Sobeys_Covid_Pool?,3143,Sobeys Mill Woods - COVID - PFIZER,T6L 7G5,Alberta,5011 23 Avenue NW,Edmonton
a2t5o00000001EMAAY,Sobeys_Covid_Pool?,3153,Sobeys Nottingham - COVID - PFIZER,T8A 6G3,Alberta,688 Wye Road,Sherwood Park
a2t5o00000001ENAAY,Sobeys_Covid_Pool?,3184,Sobeys Beaumont - COVID - PFIZER,T4X 1T8,Alberta,5802 - 50th Street,Beaumont
a2t5o00000001EOAAY,Sobeys_Covid_Pool?,5191,Sobeys Nolan Hill - COVID - PFIZER,T3R 0J3,Alberta,700 Nolan Hill Blvd NW,Calgary
a2t5o00000001EPAAY,Sobeys_Covid_Pool?,5386,Sobeys Mahogany - COVID - PFIZER,T3M 2P8,Alberta,1200 7 Mahogany Plaza SE,Calgary
a2t5o00000001EQAAY,Sobeys_Covid_Pool?,8801,Safeway Medicine Hat Mall - COVID - PFIZER,T1B 2R4,Alberta,3292 Dunmore Road SE,Medicine Hat
a2t5o00000001ERAAY,Sobeys_Covid_Pool?,8803,Safeway Northgate - COVID - PFIZER,T2A 7R4,Alberta,399 - 36 Street NE,Calgary
a2t5o00000001ESAAY,Sobeys_Covid_Pool?,8805,IGA Banff - COVID - PFIZER,T1L 1B4,Alberta,318 Marten Street (BOX 1450),Banff
a2t5o00000001ETAAY,Sobeys_Covid_Pool?,8809,Safeway Westbrook Mall - COVID - PFIZER,T3C 1S2,Alberta,1200 - 37 Street SW,Calgary
a2t5o00000001EUAAY,Sobeys_Covid_Pool?,8812,Safeway Downtown - COVID - PFIZER,T2R 0E6,Alberta,813 - 11 Avenue SW,Calgary
a2t5o00000001EVAAY,Sobeys_Covid_Pool?,8816,Safeway Market Mall - COVID - PFIZER,T3A 0E2,Alberta,3625 Shaganappi Trail NW,Calgary
a2t5o00000001EWAAY,Sobeys_Covid_Pool?,8820,Safeway Mission - COVID - PFIZER,T2S 2H6,Alberta,524 Elbow Drive SW,Calgary
a2t5o00000001EXAAY,Sobeys_Covid_Pool?,8823,Safeway Beacon Heights - COVID - PFIZER,T2E 2S6,Alberta,1818 Centre Street NE,Calgary
a2t5o00000001EZAAY,Sobeys_Covid_Pool?,8826,Safeway Ogden - COVID - PFIZER,T2C 2N5,Alberta,7740 - 18 Street SE,Calgary
a2t5o00000001EaAAI,Sobeys_Covid_Pool?,8827,Safeway Woodbine Square - COVID - PFIZER,T2W 4N7,Alberta,2525 Woodview Drive SW,Calgary
a2t5o00000001EbAAI,Sobeys_Covid_Pool?,8830,Safeway Tower Lane Mall - COVID - PFIZER,T4B 1E1,Alberta,505 Main Street,Airdrie
a2t5o00000001EcAAI,Sobeys_Covid_Pool?,8831,Safeway Castleridge - COVID - PFIZER,T3J 3J8,Alberta,33 Castleridge Boulevard NE,Calgary
a2t5o00000001EdAAI,Sobeys_Covid_Pool?,8833,Safeway Crowfoot - COVID - PFIZER,T3G 2L5,Alberta,99 Crowfoot Crescent NW,Calgary
a2t5o00000001EeAAI,Sobeys_Covid_Pool?,8855,Safeway Meadowlark - COVID - PFIZER,T5R 5W9,Alberta,8720 - 156 Street,Edmonton
a2t5o00000001EfAAI,Sobeys_Covid_Pool?,1713,Sobeys Forest Lawn - COVID - PFIZER,T2A 0V7,Alberta,5101 17th Avenue SE,Calgary
a2t5o00000001EgAAI,Sobeys_Covid_Pool?,3035,Sobeys Namao Center - COVID - PFIZER,T5Z 3L1,Alberta,9611-167 Ave NW,Edmonton
a2t5o00000001EhAAI,Sobeys_Covid_Pool?,3101,Sobeys St. Albert - COVID - PFIZER,T8N 5J9,Alberta,392 St. Albert Road,St. Albert
a2t5o00000001EiAAI,Sobeys_Covid_Pool?,3105,Sobeys Gaetz South - COVID - PFIZER,T4R 2K1,Alberta,2110 50 Avenue,Red Deer
a2t5o00000001EjAAI,Sobeys_Covid_Pool?,3194,Sobeys Lewis Estates - COVID - MODERNA,T5T 4K5,Alberta,1030 Webber Greens Drive NW,Edmonton
a2t5o00000001EkAAI,Sobeys_Covid_Pool?,4292,FreshCo Tamarack - COVID - PFIZER,T6T 0Y2,Alberta,2355 - 17 Street NW,Edmonton
a2t5o00000001ElAAI,Sobeys_Covid_Pool?,5020,Sobeys Cranston - COVID - PFIZER,T3M 0S9,Alberta,356 Cranston Rd SE Unit 3000,Calgary
a2t5o00000001EmAAI,Sobeys_Covid_Pool?,5028,Sobeys Silverado - COVID - PFIZER,T2X 0T9,Alberta,704 - 19369 Sheriff King St. S.W.,Calgary
a2t5o00000001EnAAI,Sobeys_Covid_Pool?,5169,Sobeys Southbrook - COVID - PFIZER,T6W 1S4,Alberta,1109 James Mowatt Trail  ,Edmonton
a2t5o00000001EoAAI,Sobeys_Covid_Pool?,5172,Sobeys Airdrie - COVID - PFIZER,T4B 0V7,Alberta,100 65 MacKenzie Way SW,Airdrie
a2t5o00000001EpAAI,Sobeys_Covid_Pool?,5173,Sobeys Hollick Kenyon - COVID - PFIZER,T5Y 0L2,Alberta,5119-167 Avenue NW,Edmonton
a2t5o00000001EqAAI,Sobeys_Covid_Pool?,5190,Sobeys Walker - COVID - PFIZER,T6X 1X2,Alberta,5309 Ellerslie Road S.W.,Edmonton
a2t5o00000001ErAAI,Sobeys_Covid_Pool?,8835,Safeway Whitehorn - COVID - PFIZER,T1Y 6J2,Alberta,3550 32 Avenue NE,Calgary
a2t5o00000001EsAAI,Sobeys_Covid_Pool?,8841,Safeway SouthCentre - COVID - PFIZER,T2J 6S1,Alberta,11011 Bonaventure Drive SE,Calgary
a2t5o00000001EtAAI,Sobeys_Covid_Pool?,8842,Safeway Glenmore Landing - COVID - PFIZER,T2V 5A8,Alberta,1600 - 90 Avenue SW,Calgary
a2t5o00000001EuAAI,Sobeys_Covid_Pool?,8844,Safeway Dalhousie Station - COVID - PFIZER,T3A 5R8,Alberta,5005 Dalhousie Drive NW,Calgary
a2t5o00000001EvAAI,Sobeys_Covid_Pool?,8857,Safeway Leduc - COVID - PFIZER,T9E 6N7,Alberta,6112 - 50 Street,Leduc
a2t5o00000001EwAAI,Sobeys_Covid_Pool?,8858,Safeway Riverbend Square - COVID - PFIZER,T6R 2E3,Alberta,576 Riverbend Square NW,Edmonton
a2t5o00000001ExAAI,Sobeys_Covid_Pool?,8859,Safeway Gateway - COVID - PFIZER,T8N 5T8,Alberta,300 - 2 Hebert Road,St. Albert
a2t5o00000001EyAAI,Sobeys_Covid_Pool?,8863,Safeway Inglewood - COVID - PFIZER,T8N 5Z9,Alberta,395 St. Albert Trail,St. Albert
a2t5o00000001EzAAI,Sobeys_Covid_Pool?,8866,Safeway Coliseum - COVID - PFIZER,T5B 0S1,Alberta,8118 - 118 Avenue NW,Edmonton
a2t5o00000001F0AAI,Sobeys_Covid_Pool?,8867,Safeway Oliver - COVID - PFIZER,T5K 2S5,Alberta,11410 - 104 Avenue NW,Edmonton
a2t5o00000001F2AAI,Sobeys_Covid_Pool?,8874,Safeway Wye Road - COVID - PFIZER,T8A 4N5,Alberta,985 Fir Street,Sherwood Park
a2t5o00000001F3AAI,Sobeys_Covid_Pool?,8877,Safeway Port O'Call Mall - COVID - PFIZER,T4N 3Z6,Alberta,4408 50th Avenue,Red Deer
a2t5o00000001F4AAI,Sobeys_Covid_Pool?,8879,Safeway Manning Crossing - COVID - PFIZER,T5A 5A1,Alberta,500 Manning Crossing NW,Edmonton
a2t5o00000001F5AAI,Sobeys_Covid_Pool?,8880,Safeway Terra Losa - COVID - PFIZER,T5T 5L5,Alberta,9710 - 170 Street NW,Edmonton
a2t5o00000001F7AAI,Sobeys_Covid_Pool?,8885,Safeway Stony Plain - COVID - PFIZER,T7Z 1L1,Alberta,4202 South Park Drive,Stony Plain
a2t5o00000001F9AAI,Sobeys_Covid_Pool?,8888,Safeway South View - COVID - PFIZER,T8V 6H7,Alberta,8100 - 100 Street,Grande Prairie
a2t5o00000001FAAAY,Sobeys_Covid_Pool?,8889,Safeway Pallisades Square - COVID - PFIZER,T5L 4Y8,Alberta,12950 - 137 Avenue NW,Edmonton
a2t5o00000001FBAAY,Sobeys_Covid_Pool?,8891,Safeway Westmount Centre - COVID - PFIZER,T5M 3L7,Alberta,601- 111 Ave and Groat Road,Edmonton
a2t5o00000001FCAAY,Sobeys_Covid_Pool?,8892,Safeway Northgate Centre - COVID - PFIZER,T5E 5R8,Alberta,200- 9499 - 137 Avenue NW,Edmonton
a2t5o00000001FDAAY,Sobeys_Covid_Pool?,8893,Safeway Capilano Shopping Centre - COVID - PFIZER,T6A 0A1,Alberta,5821 Terrace Road NW,Edmonton
a2t5o00000001FEAAY,Sobeys_Covid_Pool?,8904,Safeway Southgate - COVID - PFIZER,T6H 4M6,Alberta,100A; 5015 - 111 Street NW,Edmonton
a2t5o00000001FFAAY,Sobeys_Covid_Pool?,8905,Safeway Jasper Gates - COVID - PFIZER,T5P 4W1,Alberta,15007 Stony Plain Road NW,Edmonton
a2t5o00000001FGAAY,Sobeys_Covid_Pool?,8906,Safeway Windermere Safeway - COVID - PFIZER,T6W 0L9,Alberta,5110 Windermere Blvd,Edmonton
a2t5o00000001FIAAY,Sobeys_Covid_Pool?,8908,Safeway Millbourne Mall - COVID - PFIZER,T6K 3L6,Alberta,38 Ave. & Millwoods Road,Edmonton
a2t5o00000001FJAAY,Sobeys_Covid_Pool?,8909,Safeway Saddle Ridge - COVID - PFIZER,T3J 0H5,Alberta,850 Saddletowne Circle NE,Calgary
a2t5o00000001FKAAY,Sobeys_Covid_Pool?,8912,Safeway Garrison Woods - COVID - PFIZER,T2T 6E3,Alberta,2425 - 34 Avenue SW,Calgary
a2t5o00000001FLAAY,Sobeys_Covid_Pool?,8913,Safeway North Hill Center - COVID - PFIZER,T2N 1M7,Alberta,#1846; 1632 - 14 Avenue NW,Calgary
a2t5o00000001FMAAY,Sobeys_Covid_Pool?,8914,Safeway Cochrane - COVID - PFIZER,T4C 2A5,Alberta,304 - 5 Avenue West,Cochrane
a2t5o00000001FNAAY,Sobeys_Covid_Pool?,8915,Safeway Division Avenue - COVID - PFIZER,T1A 2J9,Alberta,615 Division Avenue South,Medicine Hat
a2t5o00000001FOAAY,Sobeys_Covid_Pool?,8916,Safeway Montgomery - COVID - PFIZER,T3B 0N3,Alberta,5048 16 Avenue NW,Calgary
a2t5o00000001FPAAY,Sobeys_Covid_Pool?,8917,Safeway Okotoks - COVID - PFIZER,T1S 1B3,Alberta,610 Big Rock Lane (Box 1380),Okotoks
a2t5o00000001FQAAY,Sobeys_Covid_Pool?,8894,Safeway Fort Saskatchewan - COVID - PFIZER,T8L 4P4,Alberta,9450 - 86 Avenue,Fort Saskatchewan
a2t5o00000001FRAAY,Sobeys_Covid_Pool?,8895,Safeway Garneau - COVID - PFIZER,T6G 0S8,Alberta,10930 - 82 Avenue NW,Edmonton
a2t5o00000001FSAAY,Sobeys_Covid_Pool?,8896,Safeway Brooks - COVID - PFIZER,T1R 0W3,Alberta,550 Cassils Road West,Brooks
a2t5o00000001FTAAY,Sobeys_Covid_Pool?,8897,Safeway Spruce Grove - COVID - PFIZER,T7X 1R2,Alberta,94 Mcleod Avenue,Spruce Grove
a2t5o00000001FUAAY,Sobeys_Covid_Pool?,8918,Safeway Thorncliffe - COVID - PFIZER,T2K 1B3,Alberta,5607 - 4 Street NW,Calgary
a2t5o00000001FVAAY,Sobeys_Covid_Pool?,8919,Safeway Canmore - COVID - PFIZER,T1W 1P4,Alberta,1200 Railway Avenue,Canmore
a2t5o00000001FWAAY,Sobeys_Covid_Pool?,8920,Safeway West Lethbridge - COVID - PFIZER,T1J 4T3,Alberta,550 University Drive W.,Lethbridge
a2t5o00000001FXAAY,Sobeys_Covid_Pool?,8921,Safeway Heritage - COVID - PFIZER,T6J 5E5,Alberta,2304 - 109 Street NW,Edmonton
a2t5o00000001FYAAY,Sobeys_Covid_Pool?,8922,Safeway Lloydminster Mall - COVID - PFIZER,T9V 0A7,Alberta,5211 - 44 Street,Lloydminster
a2t5o00000001FZAAY,Sobeys_Covid_Pool?,8924,Safeway Sherwood Park Mall - COVID - PFIZER,T8A 3H9,Alberta,2020 Sherwood Drive,Sherwood Park
a2t5o00000001FaAAI,Sobeys_Covid_Pool?,8928,Safeway Abbotsfield Mall - COVID - PFIZER,T5W 0Z3,Alberta,3210 - 118 Avenue NW,Edmonton
a2t5o00000001FbAAI,Sobeys_Covid_Pool?,8989,Safeway South Trail Crossing - COVID - PFIZER,T2Z 3V8,Alberta,#100; 4915 - 130 Avenue SE,Calgary
a2t5o00000001FcAAI,Sobeys_Covid_Pool?,8990,Safeway Glamorgan - COVID - PFIZER,T3E 6L6,Alberta,3737 - 37 Street SW,Calgary
a2t5o00000001FdAAI,Sobeys_Covid_Pool?,8991,Safeway Chestermere Station - COVID - PFIZER,T1X 1V2,Alberta,100; 135 Chestermere Station Way,Chestermere
a2t5o00000001K4AAI,Sobeys_Covid_Pool?,8824,Safeway Kensington - COVID - PFIZER,T2N 1V9,Alberta,410 - 10 Street NW,Calgary
a2t5o00000001K5AAI,Sobeys_Covid_Pool?,8871,Safeway Northgate - COVID - PFIZER,T8V 4A9,Alberta,9925 - 114 Avenue,Grande Prairie
a2t5o00000001K6AAI,Sobeys_Covid_Pool?,8907,Safeway Downtown - COVID - PFIZER,T9H 2J8,Alberta,9601 Franklin Avenue,Fort McMurray
a2t5o000000023ZAAQ,Sobeys_Covid_Pool?,8830,Safeway Tower Lane Mall - COVID - MODERNA,T4B 1E1,Alberta,505 Main Street,Airdrie
a2t5o000000023aAAA,Sobeys_Covid_Pool?,1713,Sobeys Forest Lawn - COVID - ASTRAZENECA,T2A 0V7,Alberta,5101 17th Avenue SE,Calgary
a2t5o000000023bAAA,Sobeys_Covid_Pool?,3101,Sobeys St. Albert - COVID - MODERNA,T8N 5J9,Alberta,392 St. Albert Road,St. Albert
a2t5o000000023cAAA,Sobeys_Covid_Pool?,3194,Sobeys Lewis Estates - COVID - PFIZER,T5T 4K5,Alberta,1030 Webber Greens Drive NW,Edmonton
a2t5o000000023dAAA,Sobeys_Covid_Pool?,8899,Safeway Wetaskiwin - COVID - MODERNA,T9A 2B1,Alberta,3901 - 56 Street,Wetaskiwin
a2t5o000000023eAAA,Sobeys_Covid_Pool?,1129,Sobeys Royal Oak - COVID - MODERNA,T3G 5T4,Alberta,125-8888 Country Hills Boulevard NW,Calgary
a2t5o000000023fAAA,Sobeys_Covid_Pool?,1147,Sobeys Village Mall - COVID - ASTRAZENECA,T4N 4C6,Alberta,200-6380 50 Ave,Red Deer
a2t5o000000023gAAA,Sobeys_Covid_Pool?,3143,Sobeys Mill Woods - COVID - MODERNA,T6L 7G5,Alberta,5011 23 Avenue NW,Edmonton
a2t5o000000023hAAA,Sobeys_Covid_Pool?,3153,Sobeys Nottingham - COVID - MODERNA,T8A 6G3,Alberta,688 Wye Road,Sherwood Park
a2t5o000000023iAAA,Sobeys_Covid_Pool?,3184,Sobeys Beaumont - COVID - MODERNA,T4X 1T8,Alberta,5802 - 50th Street,Beaumont
a2t5o000000023jAAA,Sobeys_Covid_Pool?,8863,Safeway Inglewood - COVID - MODERNA,T8N 5Z9,Alberta,395 St. Albert Trail,St. Albert
a2t5o000000023kAAA,Sobeys_Covid_Pool?,8883,Safeway Cornerstone - COVID - MODERNA,T4V 4T1,Alberta,200; 6800 - 48 Avenue,Camrose
a2t5o000000023lAAA,Sobeys_Covid_Pool?,8912,Safeway Garrison Woods - COVID - MODERNA,T2T 6E3,Alberta,2425 - 34 Avenue SW,Calgary
a2t5o000000023mAAA,Sobeys_Covid_Pool?,8917,Safeway Okotoks - COVID - MODERNA,T1S 1B3,Alberta,610 Big Rock Lane (Box 1380),Okotoks
a2t5o000000023nAAA,Sobeys_Covid_Pool?,8894,Safeway Fort Saskatchewan - COVID - MODERNA,T8L 4P4,Alberta,9450 - 86 Avenue,Fort Saskatchewan
a2t5o000000023oAAA,Sobeys_Covid_Pool?,8897,Safeway Spruce Grove - COVID - MODERNA,T7X 1R2,Alberta,94 Mcleod Avenue,Spruce Grove
a2t5o000000023pAAA,Sobeys_Covid_Pool?,8920,Safeway West Lethbridge - COVID - ASTRAZENECA,T1J 4T3,Alberta,1; 550 University Drive W.,Lethbridge
a2t5o000000023qAAA,Sobeys_Covid_Pool?,8924,Safeway Sherwood Park Mall - COVID - MODERNA,T8A 3H9,Alberta,2020 Sherwood Drive,Sherwood Park
a2t5o00000002DkAAI,Sobeys_Covid_Pool?,8858,Safeway Riverbend Square - COVID - MODERNA,T6R 2E3,Alberta,576 Riverbend Square NW,Edmonton
a2t5o0000000858AAA,Sobeys_Covid_Pool?,8826,Safeway Ogden - COVID - MODERNA,T2C 2N5,Alberta,7740 - 18 Street SE,Calgary
a2t5o000000084oAAA,Sobeys_Covid_Pool?,8812,Safeway Downtown - COVID - MODERNA,T2R 0E6,Alberta,813 - 11 Avenue SW,Calgary
a2t5o0000000845AAA,Sobeys_Covid_Pool?,1145,Sobeys Millrise - COVID - MODERNA,T2Y 5G7,Alberta,2000-150 Millrise  Boulevard SW,Calgary
a2t5o000000084FAAQ,Sobeys_Covid_Pool?,3132,Sobeys Beaumaris - COVID - MODERNA,T5X 6C3,Alberta,15367 Castledowns Road NW,Edmonton
a2t5o000000087JAAQ,Sobeys_Covid_Pool?,8889,Safeway Pallisades Square - COVID - MODERNA,T5L 4Y8,Alberta,12950 - 137 Avenue NW,Edmonton
a2t5o000000084KAAQ,Sobeys_Covid_Pool?,5191,Sobeys Nolan Hill - COVID - MODERNA,T3R 0J3,Alberta,700 Nolan Hill Blvd NW,Calgary
a2t5o000000088RAAQ,Sobeys_Covid_Pool?,8919,Safeway Canmore - COVID - MODERNA,T1W 1P4,Alberta,1200 Railway Avenue,Canmore
a2t5o000000088MAAQ,Sobeys_Covid_Pool?,8896,Safeway Brooks - COVID - MODERNA,T1R 0W3,Alberta,550 Cassils Road West,Brooks
a2t5o000000087EAAQ,Sobeys_Covid_Pool?,8888,Safeway South View - COVID - MODERNA,T8V 6H7,Alberta,8100 - 100 Street,Grande Prairie
a2t5o000000083MAAQ,Sobeys_Covid_Pool?,8847,Safeway Shawnessey - COVID - MODERNA,T2Y 2Z3,Alberta,70 Shawville Boulevard SE,Calgary
a2t5o00000002DzAAI,Sobeys_Covid_Pool?,8907,Safeway Downtown - COVID - MODERNA,T9H 2J8,Alberta,9601 Franklin Avenue,Fort McMurray
a2t5o0000000887AAA,Sobeys_Covid_Pool?,8915,Safeway Division Avenue - COVID - MODERNA,T1A 2J9,Alberta,615 Division Avenue South,Medicine Hat
a2t5o000000086fAAA,Sobeys_Covid_Pool?,8866,Safeway Coliseum - COVID - MODERNA,T5B 0S1,Alberta,8118 - 118 Avenue NW,Edmonton
a2t5o00000002DaAAI,Sobeys_Covid_Pool?,1117,Sobeys Bridlewood - COVID - MODERNA,T2Y 4S6,Alberta,100-2335 162 Avenue SW,Calgary
a2t5o000000085XAAQ,Sobeys_Covid_Pool?,1713,Sobeys Forest Lawn - COVID - MODERNA,T2A 0V7,Alberta,5101 17th Avenue SE,Calgary
a2t5o000000088qAAA,Sobeys_Covid_Pool?,8824,Safeway Kensington - COVID - MODERNA,T2N 1V9,Alberta,410 - 10 Street NW,Calgary
a2t5o0000000840AAA,Sobeys_Covid_Pool?,1139,Sobeys Country Hills - COVID - MODERNA,T3K 5H2,Alberta,200-500 Country Hills Boulevard NE,Calgary
a2t5o000000084eAAA,Sobeys_Covid_Pool?,8805,IGA Banff - COVID - MODERNA,T1L 1B4,Alberta,318 Marten Street (BOX 1450),Banff
a2t5o00000002DfAAI,Sobeys_Covid_Pool?,8857,Safeway Leduc - COVID - MODERNA,T9E 6N7,Alberta,6112 - 50 Street,Leduc
a2t5o000000086BAAQ,Sobeys_Covid_Pool?,5190,Sobeys Walker - COVID - MODERNA,T6X 1X2,Alberta,5309 Ellerslie Road S.W.,Edmonton
a2t5o000000088vAAA,Sobeys_Covid_Pool?,8871,Safeway Northgate - COVID - MODERNA,T8V 4A9,Alberta,9925 - 114 Avenue,Grande Prairie
a2t5o000000085hAAA,Sobeys_Covid_Pool?,3105,Sobeys Gaetz South - COVID - MODERNA,T4R 2K1,Alberta,2110 50 Avenue,Red Deer
a2t5o000000084yAAA,Sobeys_Covid_Pool?,8820,Safeway Mission - COVID - MODERNA,T2S 2H6,Alberta,524 Elbow Drive SW,Calgary
a2t5o000000083bAAA,Sobeys_Covid_Pool?,8854,Safeway Fairway Plaza - COVID - MODERNA,T1K 6Z3,Alberta,2750 Fairway Plaza Road S.,Lethbridge
a2t5o000000085IAAQ,Sobeys_Covid_Pool?,8831,Safeway Castleridge - COVID - MODERNA,T3J 3J8,Alberta,33 Castleridge Boulevard NE,Calgary
a2t5o000000085wAAA,Sobeys_Covid_Pool?,5169,Sobeys Southbrook - COVID - MODERNA,T6W 1S4,Alberta,1109 James Mowatt Trail  ,Edmonton
a2t5o000000083lAAA,Sobeys_Covid_Pool?,8900,Safeway The Grange - COVID - MODERNA,T5T 1K8,Alberta,2534 Guardian Road,Edmonton
a2t5o000000086kAAA,Sobeys_Covid_Pool?,8867,Safeway Oliver - COVID - MODERNA,T5K 2S5,Alberta,11410 - 104 Avenue NW,Edmonton
a2t5o000000086QAAQ,Sobeys_Covid_Pool?,8842,Safeway Glenmore Landing - COVID - MODERNA,T2V 5A8,Alberta,1600 - 90 Avenue SW,Calgary
a2t5o000000083mAAA,Sobeys_Covid_Pool?,5020,Sobeys Cranston - COVID - MODERNA,T3M 0S9,Alberta,356 Cranston Rd SE Unit 3000,Calgary
a2t5o000000087YAAQ,Sobeys_Covid_Pool?,8893,Safeway Capilano Shopping Centre - COVID - MODERNA,T6A 0A1,Alberta,5821 Terrace Road NW,Edmonton
a2t5o000000086zAAA,Sobeys_Covid_Pool?,8880,Safeway Terra Losa - COVID - MODERNA,T5T 5L5,Alberta,9710 - 170 Street NW,Edmonton
a2t5o000000088bAAA,Sobeys_Covid_Pool?,8921,Safeway Heritage - COVID - MODERNA,T6J 5E5,Alberta,2304 - 109 Street NW,Edmonton
a2t5o0000000e9RAAQ,Sobeys_Covid_Pool?,8922,Safeway Lloydminster Mall - COVID - MODERNA,T9V 0A7,Alberta,5211 - 44 Street,Lloydminster
a2t5o0000003hs7AAA,Sobeys_Covid_Pool?,3194,Sobeys Lewis Estates - COVID - ASTRAZENECA,T5T 4K5,Alberta,1030 Webber Greens Drive NW,Edmonton
a2t5o0000003hyxAAA,Sobeys_Covid_Pool?,5028,Sobeys Silverado - COVID - ASTRAZENECA,T2X 0T9,Alberta,704 - 19369 Sheriff King St. S.W.,Calgary
a2t5o0000003hyyAAA,Sobeys_Covid_Pool?,8831,Safeway Castleridge - COVID - ASTRAZENECA,T3J 3J8,Alberta,33 Castleridge Boulevard NE,Calgary
a2t5o0000003heLAAQ,Sobeys_Covid_Pool?,1117,Sobeys Bridlewood - COVID - ASTRAZENECA,T2Y 4S6,Alberta,100-2335 162 Avenue SW,Calgary
a2t5o0000003hzRAAQ,Sobeys_Covid_Pool?,5190,Sobeys Walker - COVID - ASTRAZENECA,T6X 1X2,Alberta,5309 Ellerslie Road S.W.,Edmonton
a2t5o0000003hmEAAQ,Sobeys_Covid_Pool?,8803,Safeway Northgate - COVID - ASTRAZENECA,T2A 7R4,Alberta,399 - 36 Street NE,Calgary
a2t5o0000003hmFAAQ,Sobeys_Covid_Pool?,8885,Safeway Stony Plain - COVID - ASTRAZENECA,T7Z 1L1,Alberta,4202 South Park Drive,Stony Plain
a2t5o0000003hmGAAQ,Sobeys_Covid_Pool?,8914,Safeway Cochrane - COVID - ASTRAZENECA,T4C 2A5,Alberta,304 - 5 Avenue West,Cochrane
a2t5o0000003hfSAAQ,Sobeys_Covid_Pool?,4984,Sobeys Legacy - COVID - ASTRAZENECA,T2X 4K8,Alberta,#100  200 Hartell Way S.E,Calgary 
a2t5o0000003hlhAAA,Sobeys_Covid_Pool?,8857,Safeway Leduc - COVID - ASTRAZENECA,T9E 6N7,Alberta,6112 - 50 Street,Leduc
a2t5o0000003hgBAAQ,Sobeys_Covid_Pool?,8917,Safeway Okotoks - COVID - ASTRAZENECA,T1S 1B3,Alberta,610 Big Rock Lane (Box 1380),Okotoks
a2t5o0000003hwOAAQ,Sobeys_Covid_Pool?,5169,Sobeys Southbrook - COVID - ASTRAZENECA,T6W 1S4,Alberta,1109 James Mowatt Trail  ,Edmonton
a2t5o0000003hwPAAQ,Sobeys_Covid_Pool?,8921,Safeway Heritage - COVID - ASTRAZENECA,T6J 5E5,Alberta,2304 - 109 Street NW,Edmonton
a2t5o0000003i0jAAA,Sobeys_Covid_Pool?,8830,Safeway Tower Lane Mall - COVID - ASTRAZENECA,T4B 1E1,Alberta,505 Main Street,Airdrie
a2t5o0000003hysAAA,Sobeys_Covid_Pool?,5020,Sobeys Cranston - COVID - ASTRAZENECA,T3M 0S9,Alberta,356 Cranston Rd SE Unit 3000,Calgary
a2t5o0000003hxgAAA,Sobeys_Covid_Pool?,8888,Safeway South View - COVID - ASTRAZENECA,T8V 6H7,Alberta,8100 - 100 Street,Grande Prairie
a2t5o0000003hkwAAA,Sobeys_Covid_Pool?,8907,Safeway Downtown - COVID - ASTRAZENECA,T9H 2J8,Alberta,9601 Franklin Avenue,Fort McMurray
a2t5o0000003hp3AAA,Sobeys_Covid_Pool?,8895,Safeway Garneau - COVID - ASTRAZENECA,T6G 0S8,Alberta,10930 - 82 Avenue NW,Edmonton
a2t5o0000003hsLAAQ,Sobeys_Covid_Pool?,3105,Sobeys Gaetz South - COVID - ASTRAZENECA,T4R 2K1,Alberta,2110 50 Avenue,Red Deer
a2t5o0000003hsaAAA,Sobeys_Covid_Pool?,3143,Sobeys Mill Woods - COVID - ASTRAZENECA,T6L 7G5,Alberta,5011 23 Avenue NW,Edmonton
a2t5o0000003i0yAAA,Sobeys_Covid_Pool?,8847,Safeway Shawnessey - COVID - ASTRAZENECA,T2Y 2Z3,Alberta,70 Shawville Boulevard SE,Calgary
a2t5o0000003hvCAAQ,Sobeys_Covid_Pool?,8928,Safeway Abbotsfield Mall - COVID - ASTRAZENECA,T5W 0Z3,Alberta,3210 - 118 Avenue NW,Edmonton
a2t5o0000003hzHAAQ,Sobeys_Covid_Pool?,5173,Sobeys Hollick Kenyon - COVID - ASTRAZENECA,T5Y 0L2,Alberta,5119-167 Avenue NW,Edmonton
a2t5o0000003i26AAA,Sobeys_Covid_Pool?,8900,Safeway The Grange - COVID - ASTRAZENECA,T5T 1K8,Alberta,2534 Guardian Road,Edmonton
a2t5o0000003hoUAAQ,Sobeys_Covid_Pool?,8859,Safeway Gateway - COVID - ASTRAZENECA,T8N 5T8,Alberta,300 - 2 Hebert Road,St. Albert
a2t5o0000003i21AAA,Sobeys_Covid_Pool?,8896,Safeway Brooks - COVID - ASTRAZENECA,T1R 0W3,Alberta,550 Cassils Road West,Brooks
a2t5o0000003i22AAA,Sobeys_Covid_Pool?,8897,Safeway Spruce Grove - COVID - ASTRAZENECA,T7X 1R2,Alberta,94 Mcleod Avenue,Spruce Grove
a2t5o0000003i1rAAA,Sobeys_Covid_Pool?,8893,Safeway Capilano Shopping Centre - COVID - ASTRAZENECA,T6A 0A1,Alberta,5821 Terrace Road NW,Edmonton
a2t5o0000003i1sAAA,Sobeys_Covid_Pool?,8990,Safeway Glamorgan - COVID - ASTRAZENECA,T3E 6L6,Alberta,3737 - 37 Street SW,Calgary
a2t5o0000003hpqAAA,Sobeys_Covid_Pool?,1129,Sobeys Royal Oak - COVID - ASTRAZENECA,T3G 5T4,Alberta,125-8888 Country Hills Boulevard NW,Calgary
a2t5o0000003hoZAAQ,Sobeys_Covid_Pool?,1145,Sobeys Millrise - COVID - ASTRAZENECA,T2Y 5G7,Alberta,2000-150 Millrise  Boulevard SW,Calgary
a2t5o0000003i1IAAQ,Sobeys_Covid_Pool?,8871,Safeway Northgate - COVID - ASTRAZENECA,T8V 4A9,Alberta,9925 - 114 Avenue,Grande Prairie
a2t5o0000003hwUAAQ,Sobeys_Covid_Pool?,8801,Safeway Medicine Hat Mall - COVID - ASTRAZENECA,T1B 2R4,Alberta,3292 Dunmore Road SE,Medicine Hat
a2t5o0000003i2QAAQ,Sobeys_Covid_Pool?,8916,Safeway Montgomery - COVID - ASTRAZENECA,T3B 0N3,Alberta,5048 16 Avenue NW,Calgary
a2t5o0000003i0oAAA,Sobeys_Covid_Pool?,8835,Safeway Whitehorn - COVID - ASTRAZENECA,T1Y 6J2,Alberta,3550 32 Avenue NE,Calgary
a2t5o0000003hplAAA,Sobeys_Covid_Pool?,1110,Sobeys Tuscany Boulevard - COVID - ASTRAZENECA,T3L 2V7,Alberta,2020-11300 Tuscany Boulevard NW,Calgary
a2t5o0000003i0tAAA,Sobeys_Covid_Pool?,8844,Safeway Dalhousie Station - COVID - ASTRAZENECA,T3A 5R8,Alberta,5005 Dalhousie Drive NW,Calgary
a2t5o0000003i0uAAA,Sobeys_Covid_Pool?,8906,Safeway Windermere Safeway - COVID - ASTRAZENECA,T6W 0L9,Alberta,5110 Windermere Blvd,Edmonton
a2t5o0000003hjyAAA,Sobeys_Covid_Pool?,1104,Sobeys Uplands - COVID - ASTRAZENECA,T1H 6T3,Alberta,327 Bluefox Boulevard N,Lethbridge
a2t5o000000085SAAQ,Sobeys_Covid_Pool?,8855,Safeway Meadowlark - COVID - MODERNA,T5R 5W9,Alberta,8720 - 156 Street,Edmonton
a2t5o00000002DpAAI,Sobeys_Covid_Pool?,8874,Safeway Wye Road - COVID - MODERNA,T8A 4N5,Alberta,985 Fir Street,Sherwood Park
a2t5o000000087sAAA,Sobeys_Covid_Pool?,8909,Safeway Saddle Ridge - COVID - MODERNA,T3J 0H5,Alberta,850 Saddletowne Circle NE,Calgary
a2t5o000000055ZAAQ,Sobeys_Covid_Pool?,8908,Safeway Millbourne Mall - COVID - MODERNA,T6K 3L6,Alberta,38 Ave. & Millwoods Road,Edmonton
a2t5o0000000882AAA,Sobeys_Covid_Pool?,8914,Safeway Cochrane - COVID - MODERNA,T4C 2A5,Alberta,304 - 5 Avenue West,Cochrane
a2t5o000000083HAAQ,Sobeys_Covid_Pool?,1110,Sobeys Tuscany Boulevard - COVID - MODERNA,T3L 2V7,Alberta,2020-11300 Tuscany Boulevard NW,Calgary
a2t5o000000087iAAA,Sobeys_Covid_Pool?,8905,Safeway Jasper Gates - COVID - MODERNA,T5P 4W1,Alberta,15007 Stony Plain Road NW,Edmonton
a2t5o000000087nAAA,Sobeys_Covid_Pool?,8906,Safeway Windermere Safeway - COVID - MODERNA,T6W 0L9,Alberta,5110 Windermere Blvd,Edmonton
a2t5o000000085cAAA,Sobeys_Covid_Pool?,3035,Sobeys Namao Center - COVID - MODERNA,T5Z 3L1,Alberta,9611-167 Ave NW,Edmonton
a2t5o0000000874AAA,Sobeys_Covid_Pool?,8885,Safeway Stony Plain - COVID - MODERNA,T7Z 1L1,Alberta,4202 South Park Drive,Stony Plain
a2t5o000000083RAAQ,Sobeys_Covid_Pool?,8849,Safeway Beddington - COVID - MODERNA,T3K 2A8,Alberta,8120 Beddington Blvd NW,Calgary
a2t5o000000088CAAQ,Sobeys_Covid_Pool?,8916,Safeway Montgomery - COVID - MODERNA,T3B 0N3,Alberta,5048 16 Avenue NW,Calgary
a2t5o000000084ZAAQ,Sobeys_Covid_Pool?,8803,Safeway Northgate - COVID - MODERNA,T2A 7R4,Alberta,399 - 36 Street NE,Calgary
a2t5o000000086pAAA,Sobeys_Covid_Pool?,8877,Safeway Port O'Call Mall - COVID - MODERNA,T4N 3Z6,Alberta,4408 50th Avenue,Red Deer
a2t5o000000088HAAQ,Sobeys_Covid_Pool?,8895,Safeway Garneau - COVID - MODERNA,T6G 0S8,Alberta,10930 - 82 Avenue NW,Edmonton
a2t5o000000084UAAQ,Sobeys_Covid_Pool?,8801,Safeway Medicine Hat Mall - COVID - MODERNA,T1B 2R4,Alberta,3292 Dunmore Road SE,Medicine Hat
a2t5o000000089AAAQ,Sobeys_Covid_Pool?,4984,Sobeys Legacy - COVID - MODERNA,T2X 4K8,Alberta,"#100, 200 Hartell Way S.E ",Calgary 
a2t5o000000084tAAA,Sobeys_Covid_Pool?,8816,Safeway Market Mall - COVID - MODERNA,T3A 0E2,Alberta,3625 Shaganappi Trail NW,Calgary
a2t5o000000086GAAQ,Sobeys_Covid_Pool?,8835,Safeway Whitehorn - COVID - MODERNA,T1Y 6J2,Alberta,3550 32 Avenue NE,Calgary
a2t5o000000085mAAA,Sobeys_Covid_Pool?,4292,FreshCo Tamarack - COVID - MODERNA,T6T 0Y2,Alberta,2355 - 17 Street NW,Edmonton
a2t5o0000000895AAA,Sobeys_Covid_Pool?,1147,Sobeys Village Mall - COVID - MODERNA,T4N 4C6,Alberta,200-6380 50 Ave,Red Deer
a2t5o0000000866AAA,Sobeys_Covid_Pool?,5173,Sobeys Hollick Kenyon - COVID - MODERNA,T5Y 0L2,Alberta,5119-167 Avenue NW,Edmonton
a2t5o000000086uAAA,Sobeys_Covid_Pool?,8879,Safeway Manning Crossing - COVID - MODERNA,T5A 5A1,Alberta,500 Manning Crossing NW,Edmonton
a2t5o000000083CAAQ,Sobeys_Covid_Pool?,1104,Sobeys Uplands - COVID - MODERNA,T1H 6T3,Alberta,327 Bluefox Boulevard N,Lethbridge
a2t5o000000088gAAA,Sobeys_Covid_Pool?,8990,Safeway Glamorgan - COVID - MODERNA,T3E 6L6,Alberta,3737 - 37 Street SW,Calgary
a2t5o000000085DAAQ,Sobeys_Covid_Pool?,8827,Safeway Woodbine Square - COVID - MODERNA,T2W 4N7,Alberta,2525 Woodview Drive SW,Calgary
a2t5o000000083qAAA,Sobeys_Covid_Pool?,8903,Safeway Aspen Landing - COVID - MODERNA,T3H 0N6,Alberta,375 Aspen Glen Landing SW,Calgary
a2t5o000000084jAAA,Sobeys_Covid_Pool?,8809,Safeway Westbrook Mall - COVID - MODERNA,T3C 1S2,Alberta,1200 - 37 Street SW,Calgary
a2t5o000000083rAAA,Sobeys_Covid_Pool?,8918,Safeway Thorncliffe - COVID - MODERNA,T2K 1B3,Alberta,5607 - 4 Street NW,Calgary
a2t5o000000086LAAQ,Sobeys_Covid_Pool?,8841,Safeway SouthCentre - COVID - MODERNA,T2J 6S1,Alberta,11011 Bonaventure Drive SE,Calgary
a2t5o000000086VAAQ,Sobeys_Covid_Pool?,8844,Safeway Dalhousie Station - COVID - MODERNA,T3A 5R8,Alberta,5005 Dalhousie Drive NW,Calgary
a2t5o000000086aAAA,Sobeys_Covid_Pool?,8859,Safeway Gateway - COVID - MODERNA,T8N 5T8,Alberta,300 - 2 Hebert Road,St. Albert
a2t5o000000086bAAA,Sobeys_Covid_Pool?,8928,Safeway Abbotsfield Mall - COVID - MODERNA,T5W 0Z3,Alberta,3210 - 118 Avenue NW,Edmonton
a2t5o000000085NAAQ,Sobeys_Covid_Pool?,8833,Safeway Crowfoot - COVID - MODERNA,T3G 2L5,Alberta,99 Crowfoot Crescent NW,Calgary
a2t5o000000083WAAQ,Sobeys_Covid_Pool?,8852,Safeway West Hills Towne Centre - COVID - MODERNA,T3H 3C8,Alberta,200 Stewart Green SW,Calgary
a2t5o000000085rAAA,Sobeys_Covid_Pool?,5028,Sobeys Silverado - COVID - MODERNA,T2X 0T9,Alberta,704 - 19369 Sheriff King St. S.W.,Calgary
a2t5o0000003hpJAAQ,Sobeys_Covid_Pool?,5191,Sobeys Nolan Hill - COVID - ASTRAZENECA,T3R 0J3,Alberta,700 Nolan Hill Blvd NW,Calgary
a2t5o0000003hzNAAQ,Sobeys_Covid_Pool?,8809,Safeway Westbrook Mall - COVID - ASTRAZENECA,T3C 1S2,Alberta,1200 - 37 Street SW,Calgary
a2t5o0000003i0eAAA,Sobeys_Covid_Pool?,8827,Safeway Woodbine Square - COVID - ASTRAZENECA,T2W 4N7,Alberta,2525 Woodview Drive SW,Calgary
a2t5o0000003hnlAAA,Sobeys_Covid_Pool?,8855,Safeway Meadowlark - COVID - ASTRAZENECA,T5R 5W9,Alberta,8720 - 156 Street,Edmonton
a2t5o0000003hdYAAQ,Sobeys_Covid_Pool?,8863,Safeway Inglewood - COVID - ASTRAZENECA,T8N 5Z9,Alberta,395 St. Albert Trail,St. Albert
a2t5o0000003i1SAAQ,Sobeys_Covid_Pool?,8879,Safeway Manning Crossing - COVID - ASTRAZENECA,T5A 5A1,Alberta,500 Manning Crossing NW,Edmonton
a2t5o0000003i1hAAA,Sobeys_Covid_Pool?,8889,Safeway Pallisades Square - COVID - ASTRAZENECA,T5L 4Y8,Alberta,12950 - 137 Avenue NW,Edmonton
a2t5o0000003hkTAAQ,Sobeys_Covid_Pool?,8905,Safeway Jasper Gates - COVID - ASTRAZENECA,T5P 4W1,Alberta,15007 Stony Plain Road NW,Edmonton
a2t5o0000003hmJAAQ,Sobeys_Covid_Pool?,8918,Safeway Thorncliffe - COVID - ASTRAZENECA,T2K 1B3,Alberta,5607 - 4 Street NW,Calgary
a2t5o0000003hjCAAQ,Sobeys_Covid_Pool?,3184,Sobeys Beaumont - COVID - ASTRAZENECA,T4X 1T8,Alberta,5802 - 50th Street,Beaumont
a2t5o0000003hvqAAA,Sobeys_Covid_Pool?,8908,Safeway Millbourne Mall - COVID - ASTRAZENECA,T6K 3L6,Alberta,38 Ave. & Millwoods Road,Edmonton
a2t5o0000003i2aAAA,Sobeys_Covid_Pool?,8922,Safeway Lloydminster Mall - COVID - PFIZER PEDIATRIC 5-11 YEARS OLD,T9V 0A7,Alberta,5211 - 44 Street,Lloydminster
a2t5o0000003hoAAAQ,Sobeys_Covid_Pool?,1139,Sobeys Country Hills - COVID - ASTRAZENECA,T3K 5H2,Alberta,200-500 Country Hills Boulevard NE,Calgary
a2t5o0000003hlzAAA,Sobeys_Covid_Pool?,8833,Safeway Crowfoot - COVID - ASTRAZENECA,T3G 2L5,Alberta,99 Crowfoot Crescent NW,Calgary
a2t5o0000003hnvAAA,Sobeys_Covid_Pool?,3153,Sobeys Nottingham - COVID - ASTRAZENECA,T8A 6G3,Alberta,688 Wye Road,Sherwood Park
a2t5o0000003i13AAA,Sobeys_Covid_Pool?,8849,Safeway Beddington - COVID - ASTRAZENECA,T3K 2A8,Alberta,8120 Beddington Blvd NW,Calgary
a2t5o0000003i14AAA,Sobeys_Covid_Pool?,8852,Safeway West Hills Towne Centre - COVID - ASTRAZENECA,T3H 3C8,Alberta,200 Stewart Green SW,Calgary
a2t5o0000003i2BAAQ,Sobeys_Covid_Pool?,8909,Safeway Saddle Ridge - COVID - ASTRAZENECA,T3J 0H5,Alberta,850 Saddletowne Circle NE,Calgary
a2t5o0000003hsGAAQ,Sobeys_Covid_Pool?,3101,Sobeys St. Albert - COVID - ASTRAZENECA,T8N 5J9,Alberta,392 St. Albert Road,St. Albert
a2t5o0000003i0KAAQ,Sobeys_Covid_Pool?,8805,IGA Banff - COVID - ASTRAZENECA,T1L 1B4,Alberta,318 Marten Street (BOX 1450),Banff
a2t5o0000003hsBAAQ,Sobeys_Covid_Pool?,3035,Sobeys Namao Center - COVID - ASTRAZENECA,T5Z 3L1,Alberta,9611-167 Ave NW,Edmonton
a2t5o0000003hkIAAQ,Sobeys_Covid_Pool?,8841,Safeway SouthCentre - COVID - ASTRAZENECA,T2J 6S1,Alberta,11011 Bonaventure Drive SE,Calgary
a2t5o0000003i2LAAQ,Sobeys_Covid_Pool?,8915,Safeway Division Avenue - COVID - ASTRAZENECA,T1A 2J9,Alberta,615 Division Avenue South,Medicine Hat
a2t5o0000003i0ZAAQ,Sobeys_Covid_Pool?,8826,Safeway Ogden - COVID - ASTRAZENECA,T2C 2N5,Alberta,7740 - 18 Street SE,Calgary
a2t5o0000003i1DAAQ,Sobeys_Covid_Pool?,8867,Safeway Oliver - COVID - ASTRAZENECA,T5K 2S5,Alberta,11410 - 104 Avenue NW,Edmonton
a2t5o0000003i0UAAQ,Sobeys_Covid_Pool?,8824,Safeway Kensington - COVID - ASTRAZENECA,T2N 1V9,Alberta,410 - 10 Street NW,Calgary
a2t5o0000003hz3AAA,Sobeys_Covid_Pool?,8899,Safeway Wetaskiwin - COVID - ASTRAZENECA,T9A 2B1,Alberta,3901 - 56 Street,Wetaskiwin
a2t5o0000003i0GAAQ,Sobeys_Covid_Pool?,8812,Safeway Downtown - COVID - ASTRAZENECA,T2R 0E6,Alberta,813 - 11 Avenue SW,Calgary
a2t5o0000003i1NAAQ,Sobeys_Covid_Pool?,8877,Safeway Port O'Call Mall - COVID - ASTRAZENECA,T4N 3Z6,Alberta,4408 50th Avenue,Red Deer
a2t5o0000003hgzAAA,Sobeys_Covid_Pool?,8842,Safeway Glenmore Landing - COVID - ASTRAZENECA,T2V 5A8,Alberta,1600 - 90 Avenue SW,Calgary
a2t5o0000003hh0AAA,Sobeys_Covid_Pool?,8874,Safeway Wye Road - COVID - ASTRAZENECA,T8A 4N5,Alberta,985 Fir Street,Sherwood Park
a2t5o0000003hh1AAA,Sobeys_Covid_Pool?,8903,Safeway Aspen Landing - COVID - ASTRAZENECA,T3H 0N6,Alberta,375 Aspen Glen Landing SW,Calgary
a2t5o0000003hegAAA,Sobeys_Covid_Pool?,8820,Safeway Mission - COVID - ASTRAZENECA,T2S 2H6,Alberta,524 Elbow Drive SW,Calgary
a2t5o0000003i0PAAQ,Sobeys_Covid_Pool?,8816,Safeway Market Mall - COVID - ASTRAZENECA,T3A 0E2,Alberta,3625 Shaganappi Trail NW,Calgary
a2t5o0000003i1wAAA,Sobeys_Covid_Pool?,8894,Safeway Fort Saskatchewan - COVID - ASTRAZENECA,T8L 4P4,Alberta,9450 - 86 Avenue,Fort Saskatchewan
a2t5o0000003hwYAAQ,Sobeys_Covid_Pool?,8924,Safeway Sherwood Park Mall - COVID - ASTRAZENECA,T8A 3H9,Alberta,2020 Sherwood Drive,Sherwood Park
a2t5o0000003hriAAA,Sobeys_Covid_Pool?,8866,Safeway Coliseum - COVID - ASTRAZENECA,T5B 0S1,Alberta,8118 - 118 Avenue NW,Edmonton
a2t5o0000003i1XAAQ,Sobeys_Covid_Pool?,8880,Safeway Terra Losa - COVID - ASTRAZENECA,T5T 5L5,Alberta,9710 - 170 Street NW,Edmonton
a2t5o0000003hrjAAA,Sobeys_Covid_Pool?,8912,Safeway Garrison Woods - COVID - ASTRAZENECA,T2T 6E3,Alberta,2425 - 34 Avenue SW,Calgary
a2t5o0000003i2VAAQ,Sobeys_Covid_Pool?,8919,Safeway Canmore - COVID - ASTRAZENECA,T1W 1P4,Alberta,1200 Railway Avenue,Canmore
a2t5o0000003hsQAAQ,Sobeys_Covid_Pool?,3132,Sobeys Beaumaris - COVID - ASTRAZENECA,T5X 6C3,Alberta,15367 Castledowns Road NW,Edmonton
a2t5o0000003ho1AAA,Sobeys_Covid_Pool?,8858,Safeway Riverbend Square - COVID - ASTRAZENECA,T6R 2E3,Alberta,576 Riverbend Square NW,Edmonton
a2t5o0000003huHAAQ,Sobeys_Covid_Pool?,4292,FreshCo Tamarack - COVID - ASTRAZENECA,T6T 0Y2,Alberta,2355 - 17 Street NW,Edmonton
a2t5o0000003i18AAA,Sobeys_Covid_Pool?,8854,Safeway Fairway Plaza - COVID - ASTRAZENECA,T1K 6Z3,Alberta,2750 Fairway Plaza Road S.,Lethbridge
a2t5o00000001slAAA,Sobeys_Covid_Pool?,4984,Sobeys Legacy - COVID - PFIZER,T2X 4K8,Alberta,"#100, 200 Hartell Way S.E",Calgary 
a2t5o00000001MPAAY,Sobeys_Covid_Pool?,4905,Safeway Westview Mall - COVID - PFIZER,V7N 3X4,British Columbia,"#780, 2601 Westview Drive",North Vancouver
a2t5o00000001MRAAY,Sobeys_Covid_Pool?,4936,Safeway Shaughnessy Station - COVID - PFIZER,V3C 6K5,British Columbia,"1100, 2850 Shaughnessy Street",Port Coquitlam
a2t5o00000001MZAAY,Sobeys_Covid_Pool?,4955,Safeway Penticton Plaza - COVID - PFIZER,V2A 5E9,British Columbia,"801, 1301 Main Street",Penticton
a2t5o00000001MvAAI,Sobeys_Covid_Pool?,4999,Safeway Central Fill Facility and Compounding Centre - COVID - PFIZER,V3S 6K3,British Columbia,"105, 19515 - 56th Ave ",Surrey
a2t5o00000001N5AAI,Sobeys_Covid_Pool?,4270,FreshCo Maple Ridge - COVID - PFIZER,V2X 2P6,British Columbia,"300, 20201 Lougheed Hwy",Maple Ridge
a2t5o00000001N6AAI,Sobeys_Covid_Pool?,4272,FreshCo Clearbrook Town Square - COVID - PFIZER,V2T 4W1,British Columbia,"100, 32500 S. Fraser Way",Abbotsford
a2t5o00000001NAAAY,Sobeys_Covid_Pool?,4914,Safeway Penninsula Village - COVID - PFIZER,V4A 2H9,British Columbia,"700, 15355 - 24 Avenue",Surrey
a2t5o00000001NNAAY,Sobeys_Covid_Pool?,4277,FreshCo Dilworth Centre - COVID - PFIZER,V1X 4H9,British Columbia,"500, 2339 Hwy 97 North",Kelowna
a2t5o00000001NUAAY,Sobeys_Covid_Pool?,4972,Safeway Dawson Creek - COVID - ASTRAZENECA,V1G 3R4,British Columbia,"11200, 11216 - 8 Street",Dawson Creek
a2t5o00000001NyAAI,Sobeys_Covid_Pool?,4930,Safeway New Westminster Station - COVID - PFIZER,V3M 0G3,British Columbia,"220, 800 Carnarvon Street .",New Westminster
a2t5o0000003hxkAAA,Sobeys_Covid_Pool?,4955,Safeway Penticton Plaza - COVID - ASTRAZENECA,V2A 5E9,British Columbia,"801, 1301 Main Street",Penticton
a2t5o0000003hsZAAQ,Sobeys_Covid_Pool?,4999,Safeway Central Fill Facility and Compounding Centre - COVID - MODERNA,V3S 6K3,British Columbia,"105, 19515 - 56th Ave ",Surrey
a2t5o0000003heMAAQ,Sobeys_Covid_Pool?,4272,FreshCo Clearbrook Town Square - COVID - MODERNA,V2T 4W1,British Columbia,"100, 32500 S. Fraser Way",Abbotsford
a2t5o0000003ht6AAA,Sobeys_Covid_Pool?,4905,Safeway Westview Mall - COVID - MODERNA,V7N 3X4,British Columbia,"#780, 2601 Westview Drive",North Vancouver
a2t5o0000003hlgAAA,Sobeys_Covid_Pool?,4936,Safeway Shaughnessy Station - COVID - MODERNA,V3C 6K5,British Columbia,"1100, 2850 Shaughnessy Street",Port Coquitlam
a2t5o0000003hglAAA,Sobeys_Covid_Pool?,4270,FreshCo Maple Ridge - COVID - MODERNA,V2X 2P6,British Columbia,"300, 20201 Lougheed Hwy",Maple Ridge
a2t5o0000003htdAAA,Sobeys_Covid_Pool?,4277,FreshCo Dilworth Centre - COVID - ASTRAZENECA,V1X 4H9,British Columbia,"500, 2339 Hwy 97 North",Kelowna
a2t5o0000003hhTAAQ,Sobeys_Covid_Pool?,4955,Safeway Penticton Plaza - COVID - MODERNA,V2A 5E9,British Columbia,"801, 1301 Main Street",Penticton
a2t5o0000003hfKAAQ,Sobeys_Covid_Pool?,4905,Safeway Westview Mall - COVID - ASTRAZENECA,V7N 3X4,British Columbia,"#780, 2601 Westview Drive",North Vancouver
a2t5o0000003hxLAAQ,Sobeys_Covid_Pool?,4936,Safeway Shaughnessy Station - COVID - ASTRAZENECA,V3C 6K5,British Columbia,"1100, 2850 Shaughnessy Street",Port Coquitlam
a2t5o0000001EkYAAU,Sobeys_Covid_Pool?,4972,Safeway Dawson Creek - COVID - MODERNA,V1G 3R4,British Columbia,"11200, 11216 - 8 Street",Dawson Creek
a2t5o0000003hwcAAA,Sobeys_Covid_Pool?,4914,Safeway Penninsula Village - COVID - ASTRAZENECA,V4A 2H9,British Columbia,"700, 15355 - 24 Avenue",Surrey
a2t5o0000003htZAAQ,Sobeys_Covid_Pool?,4930,Safeway New Westminster Station - COVID - ASTRAZENECA,V3M 0G3,British Columbia,"220, 800 Carnarvon Street .",New Westminster
a2t5o0000003htJAAQ,Sobeys_Covid_Pool?,4270,FreshCo Maple Ridge - COVID - ASTRAZENECA,V2X 2P6,British Columbia,"300, 20201 Lougheed Hwy",Maple Ridge
a2t5o0000003htKAAQ,Sobeys_Covid_Pool?,4277,FreshCo Dilworth Centre - COVID - MODERNA,V1X 4H9,British Columbia,"500, 2339 Hwy 97 North",Kelowna
a2t5o0000003hynAAA,Sobeys_Covid_Pool?,4999,Safeway Central Fill Facility and Compounding Centre - COVID - ASTRAZENECA,V3S 6K3,British Columbia,"105, 19515 - 56th Ave ",Surrey
a2t5o0000003hrdAAA,Sobeys_Covid_Pool?,4272,FreshCo Clearbrook Town Square - COVID - ASTRAZENECA,V2T 4W1,British Columbia,"100, 32500 S. Fraser Way",Abbotsford
a2t5o0000003hwhAAA,Sobeys_Covid_Pool?,4914,Safeway Penninsula Village - COVID - MODERNA,V4A 2H9,British Columbia,"700, 15355 - 24 Avenue",Surrey
a2t5o0000003hlBAAQ,Sobeys_Covid_Pool?,4930,Safeway New Westminster Station - COVID - MODERNA,V3M 0G3,British Columbia,"220, 800 Carnarvon Street .",New Westminster
a2t5o0000003hyJAAQ,Sobeys_Covid_Pool?,4972,Safeway Dawson Creek - COVID - PFIZER,V1G 3R4,British Columbia,"11200, 11216 - 8 Street",Dawson Creek
a2t5o00000001EYAAY,Sobeys_Covid_Pool?,4913,Safeway Kensington - COVID - PFIZER,V5B 1S2,British Columbia,6564 East Hastings Street,Burnaby
a2t5o00000001FHAAY,Sobeys_Covid_Pool?,4960,Safeway Downtown - COVID - PFIZER,V1Y 6P4,British Columbia,697 Bernard Avenue,Kelowna
a2t5o00000001MDAAY,Sobeys_Covid_Pool?,4252,FreshCo Blundell & No 2 - COVID - PFIZER,V7C 1H8,British Columbia,6140 Blundell Road,Richmond
a2t5o00000001MEAAY,Sobeys_Covid_Pool?,4254,FreshCo No 3 & Williams - COVID - PFIZER,V7A 4R6,British Columbia,10151 No. 3 Road,Richmond
a2t5o00000001MFAAY,Sobeys_Covid_Pool?,4255,FreshCo Chalo 138 St & 72 Ave - COVID - PFIZER,V3W 7T9,British Columbia,7165 138 Street,Surrey
a2t5o00000001MGAAY,Sobeys_Covid_Pool?,4256,FreshCo Mission - COVID - PFIZER,V2V 1A5,British Columbia,32520 Lougheed Highway,Mission
a2t5o00000001MMAAY,Sobeys_Covid_Pool?,4900,Safeway Surrey Centre - COVID - PFIZER,V3T 2W6,British Columbia,10355 King George Hwy,Surrey
a2t5o00000001MNAAY,Sobeys_Covid_Pool?,4901,Safeway West Broadway - COVID - PFIZER,V6K 2G5,British Columbia,2733 West Broadway,Vancouver
a2t5o00000001MOAAY,Sobeys_Covid_Pool?,4903,Safeway Sunshine Hills - COVID - PFIZER,V4E 3G3,British Columbia,6401 - 120 Street,North Delta
a2t5o00000001MQAAY,Sobeys_Covid_Pool?,4908,Safeway Robson - COVID - PFIZER,V6G 1E2,British Columbia,1766 Robson Street,Vancouver
a2t5o00000001MSAAY,Sobeys_Covid_Pool?,4939,Safeway Ocean Park - COVID - PFIZER,V4A 1N5,British Columbia,12825 - 16 Avenue,Surrey
a2t5o00000001MTAAY,Sobeys_Covid_Pool?,4941,Safeway King Edward Mall - COVID - PFIZER,V5Z 2E2,British Columbia,990 King Edward Avenue West,Vancouver
a2t5o00000001MUAAY,Sobeys_Covid_Pool?,4942,Safeway West 4th & Vine - COVID - PFIZER,V6K 1P2,British Columbia,2315 West 4 Avenue,Vancouver
a2t5o00000001MVAAY,Sobeys_Covid_Pool?,4946,Safeway Terrace - COVID - PFIZER,V8G 1R3,British Columbia,4655 Lakelse Avenue,Terrace
a2t5o00000001MWAAY,Sobeys_Covid_Pool?,4948,Safeway Nelson - COVID - PFIZER,V1L 3X8,British Columbia,211 Anderson,Nelson
a2t5o00000001MXAAY,Sobeys_Covid_Pool?,4950,Safeway Lynn Valley - COVID - PFIZER,V7J 1S1,British Columbia,1170 East 27 Street,North Vancouver
a2t5o00000001MYAAY,Sobeys_Covid_Pool?,4952,Safeway Smithers - COVID - PFIZER,V0J 2N0,British Columbia,3664 Highway 16 (Box 459),Smithers
a2t5o00000001MaAAI,Sobeys_Covid_Pool?,4958,Safeway Parkgate Village - COVID - PFIZER,V7H 2Y4,British Columbia,1175 Mt. Seymour Road,North Vancouver
a2t5o00000001MsAAI,Sobeys_Covid_Pool?,4979,Safeway Arbutus - COVID - PFIZER,V6L 0B9,British Columbia,2101 Lahb Ave (Off Arbutus Street),Vancouver
a2t5o00000001MtAAI,Sobeys_Covid_Pool?,4980,Safeway Austin Heights - COVID - PFIZER,V3K 2P2,British Columbia,1033 Austin Ave,Coquitlam
a2t5o00000001MuAAI,Sobeys_Covid_Pool?,4998,Safeway Davie Street - COVID - PFIZER,V6G 1V9,British Columbia,1611 Davie Street,Vancouver
a2t5o00000001MwAAI,Sobeys_Covid_Pool?,9454,ThriftyFoods James Bay - COVID - PFIZER,V8V 4T4,British Columbia,475 Simcoe Street,Victoria
a2t5o00000001N2AAI,Sobeys_Covid_Pool?,4257,FreshCo Chalo 120 St & 72 Ave - COVID - PFIZER,V3W 3M9,British Columbia,7450 120 Street,Surrey
a2t5o00000001N3AAI,Sobeys_Covid_Pool?,4265,FreshCo Aldergrove - COVID - PFIZER,V4W 3N5,British Columbia,27566 Fraser Highway,Aldergrove
a2t5o00000001N4AAI,Sobeys_Covid_Pool?,4269,FreshCo Chilliwack - COVID - PFIZER,V2P 2N9,British Columbia,45858 Yale Road,Chilliwack
a2t5o00000001N7AAI,Sobeys_Covid_Pool?,4909,Safeway Caulfeild Village - COVID - PFIZER,V7W 3C7,British Columbia,5385 Headland Drive,West Vancouver
a2t5o00000001N8AAI,Sobeys_Covid_Pool?,4911,Safeway Burnaby Heights - COVID - PFIZER,V5C 2K2,British Columbia,4440 Hastings Street,Burnaby
a2t5o00000001N9AAI,Sobeys_Covid_Pool?,4912,Safeway Fraser Crossing - COVID - PFIZER,V3A 4G7,British Columbia,20871 Fraser Highway,Langley
a2t5o00000001NBAAY,Sobeys_Covid_Pool?,9471,ThriftyFoods Duncan - COVID - PFIZER,V9L 6X2,British Columbia,2755 Beverly Street,Duncan
a2t5o00000001NCAAY,Sobeys_Covid_Pool?,9472,ThriftyFoods Morgan Crossing - COVID - PFIZER,V3S 2L5,British Columbia,102-15745 Croydon Drive,Surrey
a2t5o00000001NDAAY,Sobeys_Covid_Pool?,9478,ThriftyFoods Crown Isle - COVID - PFIZER,V9N 0A9,British Columbia,123 - 444 Lerwick Road,Courtenay
a2t5o00000001NEAAY,Sobeys_Covid_Pool?,9480,ThriftyFoods Belmont - COVID - PFIZER,V9B 0W9,British Columbia,3011 Merchant Way,Langford
a2t5o00000001NFAAY,Sobeys_Covid_Pool?,9481,ThriftyFoods Courtenay - COVID - PFIZER,V9N 2K6,British Columbia,1551 Cliffe Avenue,Courtenay
a2t5o00000001NLAAY,Sobeys_Covid_Pool?,4274,FreshCo Williams Lake - COVID - PFIZER,V2G 1M5,British Columbia,451 Oliver Street,Williams Lake
a2t5o00000001NMAAY,Sobeys_Covid_Pool?,4276,FreshCo Sahali - COVID - PFIZER,V2C 1L5,British Columbia,945 West Columbia,Kamloops
a2t5o00000001NOAAY,Sobeys_Covid_Pool?,4278,FreshCo Downtown - COVID - PFIZER,V1T 2E3,British Columbia,3417 - 30 Avenue,Vernon
a2t5o00000001NPAAY,Sobeys_Covid_Pool?,4280,FreshCo Powell River - COVID - PFIZER,V8A 2A1,British Columbia,7040 Barnet Street,Powell River
a2t5o00000001NQAAY,Sobeys_Covid_Pool?,4966,Safeway Broadway & Commercial - COVID - PFIZER,V5N 1W3,British Columbia,1780 East Broadway,Vancouver
a2t5o00000001NRAAY,Sobeys_Covid_Pool?,4967,Safeway Seafair - COVID - PFIZER,V7C 1V2,British Columbia,8671 No. 1 Road,Richmond
a2t5o00000001NSAAY,Sobeys_Covid_Pool?,4968,Safeway Sardis - COVID - PFIZER,V2R 1A2,British Columbia,45610 Luckakuck Way,Chilliwack
a2t5o00000001NTAAY,Sobeys_Covid_Pool?,4970,Safeway Castlegar - COVID - PFIZER,V1N 2W6,British Columbia,1721 Columbia Avenue,Castlegar
a2t5o00000001NVAAY,Sobeys_Covid_Pool?,4973,Safeway Fort St. John - COVID - PFIZER,V1J 3X3,British Columbia,9123 - 100 Street,Fort St. John
a2t5o00000001NWAAY,Sobeys_Covid_Pool?,4974,Safeway Cranbrook Mall - COVID - PFIZER,V1C 1A8,British Columbia,1200 Baker Street,Cranbrook
a2t5o00000001NXAAY,Sobeys_Covid_Pool?,4976,Safeway Marpole - COVID - PFIZER,V6P 4Z9,British Columbia,8475 Granville St,Vancouver
a2t5o00000001NYAAY,Sobeys_Covid_Pool?,4977,Safeway Burquitlam - COVID - PFIZER,V3J 3X5,British Columbia,580 Clarke Road,Coquitlam
a2t5o00000001NgAAI,Sobeys_Covid_Pool?,4916,Safeway Fortune - COVID - PFIZER,V2B 2L2,British Columbia,750 Fortune Drive,Kamloops
a2t5o00000001NhAAI,Sobeys_Covid_Pool?,4917,Safeway McBride - COVID - PFIZER,V3L 2B8,British Columbia,800 McBride Boulevard,New Westminster
a2t5o00000001NiAAI,Sobeys_Covid_Pool?,4918,Safeway Willowbrook Mall - COVID - PFIZER,V2Y 1A2,British Columbia,6153 - 200 Street,Langley
a2t5o00000001NjAAI,Sobeys_Covid_Pool?,4919,Safeway Vernon Square Mall - COVID - PFIZER,V1T 9H1,British Columbia,4300 - 32 Street,Vernon
a2t5o00000001NkAAI,Sobeys_Covid_Pool?,4920,Safeway Fleetwood - COVID - PFIZER,V3R 4E4,British Columbia,8860 - 152 Street,Surrey
a2t5o00000001NlAAI,Sobeys_Covid_Pool?,9458,ThriftyFoods Parksville - COVID - PFIZER,V9P 2H1,British Columbia,280 East Island Highway,Parksville
a2t5o00000001NmAAI,Sobeys_Covid_Pool?,9461,ThriftyFoods Cloverdale - COVID - PFIZER,V8X 1G8,British Columbia,3475 Quadra Street,Victoria
a2t5o00000001NnAAI,Sobeys_Covid_Pool?,9464,ThriftyFoods Longwood Station - COVID - PFIZER,V9T 6L8,British Columbia,5801 Turner Road,Nanaimo
a2t5o00000001NoAAI,Sobeys_Covid_Pool?,9467,ThriftyFoods Campbell River - COVID - PFIZER,V9W 5T5,British Columbia,1400 Ironwood Road,Campbell River
a2t5o00000001NpAAI,Sobeys_Covid_Pool?,9470,ThriftyFoods Port Moody - COVID - PFIZER,V3H 0E7,British Columbia,170 Brew Street,Port Moody
a2t5o00000001NvAAI,Sobeys_Covid_Pool?,4924,Safeway Trail - COVID - PFIZER,V1R 1M3,British Columbia,1599 - 2 Avenue,Trail
a2t5o00000001NwAAI,Sobeys_Covid_Pool?,4925,Safeway Quesnel - COVID - PFIZER,V2J 2M7,British Columbia,445 Reid Street,Quesnel
a2t5o00000001NxAAI,Sobeys_Covid_Pool?,4928,Safeway Prince Rupert - COVID - PFIZER,V8J 1G5,British Columbia,200 - 2 Avenue West,Prince Rupert
a2t5o00000001NzAAI,Sobeys_Covid_Pool?,4931,Safeway Collingwood - COVID - PFIZER,V5R 5L4,British Columbia,3410 Kingsway Street,Vancouver
a2t5o0000003hdIAAQ,Sobeys_Covid_Pool?,4254,FreshCo No 3 & Williams - COVID - ASTRAZENECA,V7A 4R6,British Columbia,10151 No. 3 Road,Richmond
a2t5o0000003i3OAAQ,Sobeys_Covid_Pool?,9467,ThriftyFoods Campbell River - COVID - MODERNA,V9W 5T5,British Columbia,1400 Ironwood Road,Campbell River
a2t5o0000003hsXAAQ,Sobeys_Covid_Pool?,4942,Safeway West 4th & Vine - COVID - MODERNA,V6K 1P2,British Columbia,2315 West 4 Avenue,Vancouver
a2t5o0000003hsYAAQ,Sobeys_Covid_Pool?,4968,Safeway Sardis - COVID - ASTRAZENECA,V2R 1A2,British Columbia,45610 Luckakuck Way,Chilliwack
a2t5o0000003hvyAAA,Sobeys_Covid_Pool?,4908,Safeway Robson - COVID - ASTRAZENECA,V6G 1E2,British Columbia,1766 Robson Street,Vancouver
a2t5o0000003hvzAAA,Sobeys_Covid_Pool?,4966,Safeway Broadway & Commercial - COVID - MODERNA,V5N 1W3,British Columbia,1780 East Broadway,Vancouver
a2t5o0000003htOAAQ,Sobeys_Covid_Pool?,4274,FreshCo Williams Lake - COVID - ASTRAZENECA,V2G 1M5,British Columbia,451 Oliver Street,Williams Lake
a2t5o0000003hzrAAA,Sobeys_Covid_Pool?,9472,ThriftyFoods Morgan Crossing - COVID - ASTRAZENECA,V3S 2L5,British Columbia,102-15745 Croydon Drive,Surrey
a2t5o0000003hzsAAA,Sobeys_Covid_Pool?,9481,ThriftyFoods Courtenay - COVID - MODERNA,V9N 2K6,British Columbia,1551 Cliffe Avenue,Courtenay
a2t5o0000003hdqAAA,Sobeys_Covid_Pool?,9454,ThriftyFoods James Bay - COVID - ASTRAZENECA,V8V 4T4,British Columbia,475 Simcoe Street,Victoria
a2t5o0000003hqqAAA,Sobeys_Covid_Pool?,4924,Safeway Trail - COVID - ASTRAZENECA,V1R 1M3,British Columbia,1599 - 2 Avenue,Trail
a2t5o0000003hx1AAA,Sobeys_Covid_Pool?,4918,Safeway Willowbrook Mall - COVID - MODERNA,V2Y 1A2,British Columbia,6153 - 200 Street,Langley
a2t5o0000003hxQAAQ,Sobeys_Covid_Pool?,4941,Safeway King Edward Mall - COVID - MODERNA,V5Z 2E2,British Columbia,990 King Edward Avenue West,Vancouver
a2t5o0000003ht5AAA,Sobeys_Covid_Pool?,4901,Safeway West Broadway - COVID - ASTRAZENECA,V6K 2G5,British Columbia,2733 West Broadway,Vancouver
a2t5o0000003hsuAAA,Sobeys_Covid_Pool?,4255,FreshCo Chalo 138 St & 72 Ave - COVID - MODERNA,V3W 7T9,British Columbia,7165 138 Street,Surrey
a2t5o0000003hydAAA,Sobeys_Covid_Pool?,4980,Safeway Austin Heights - COVID - MODERNA,V3K 2P2,British Columbia,1033 Austin Ave,Coquitlam
a2t5o0000003i3TAAQ,Sobeys_Covid_Pool?,9470,ThriftyFoods Port Moody - COVID - MODERNA,V3H 0E7,British Columbia,170 Brew Street,Port Moody
a2t5o0000003hwNAAQ,Sobeys_Covid_Pool?,4912,Safeway Fraser Crossing - COVID - MODERNA,V3A 4G7,British Columbia,20871 Fraser Highway,Langley
a2t5o0000003hlpAAA,Sobeys_Covid_Pool?,4256,FreshCo Mission - COVID - ASTRAZENECA,V2V 1A5,British Columbia,32520 Lougheed Highway,Mission
a2t5o0000003hlqAAA,Sobeys_Covid_Pool?,4979,Safeway Arbutus - COVID - ASTRAZENECA,V6L 0B9,British Columbia,2101 Lahb Ave (Off Arbutus Street),Vancouver
a2t5o0000003hxuAAA,Sobeys_Covid_Pool?,4960,Safeway Downtown - COVID - ASTRAZENECA,V1Y 6P4,British Columbia,697 Bernard Avenue,Kelowna
a2t5o0000003i30AAA,Sobeys_Covid_Pool?,9478,ThriftyFoods Crown Isle - COVID - MODERNA,V9N 0A9,British Columbia,123 - 444 Lerwick Road,Courtenay
a2t5o0000003i2zAAA,Sobeys_Covid_Pool?,9454,ThriftyFoods James Bay - COVID - MODERNA,V8V 4T4,British Columbia,475 Simcoe Street,Victoria
a2t5o0000003i3YAAQ,Sobeys_Covid_Pool?,9471,ThriftyFoods Duncan - COVID - ASTRAZENECA,V9L 6X2,British Columbia,2755 Beverly Street,Duncan
a2t5o0000003ht9AAA,Sobeys_Covid_Pool?,4265,FreshCo Aldergrove - COVID - ASTRAZENECA,V4W 3N5,British Columbia,27566 Fraser Highway,Aldergrove
a2t5o0000003he0AAA,Sobeys_Covid_Pool?,9461,ThriftyFoods Cloverdale - COVID - ASTRAZENECA,V8X 1G8,British Columbia,3475 Quadra Street,Victoria
a2t5o0000003hwwAAA,Sobeys_Covid_Pool?,4918,Safeway Willowbrook Mall - COVID - ASTRAZENECA,V2Y 1A2,British Columbia,6153 - 200 Street,Langley
a2t5o0000003hwxAAA,Sobeys_Covid_Pool?,4948,Safeway Nelson - COVID - MODERNA,V1L 3X8,British Columbia,211 Anderson,Nelson
a2t5o0000003hwyAAA,Sobeys_Covid_Pool?,4977,Safeway Burquitlam - COVID - ASTRAZENECA,V3J 3X5,British Columbia,580 Clarke Road,Coquitlam
a2t5o0000003hxfAAA,Sobeys_Covid_Pool?,4948,Safeway Nelson - COVID - ASTRAZENECA,V1L 3X8,British Columbia,211 Anderson,Nelson
a2t5o0000003hxhAAA,Sobeys_Covid_Pool?,9471,ThriftyFoods Duncan - COVID - MODERNA,V9L 6X2,British Columbia,2755 Beverly Street,Duncan
a2t5o0000003hg1AAA,Sobeys_Covid_Pool?,4252,FreshCo Blundell & No 2 - COVID - ASTRAZENECA,V7C 1H8,British Columbia,6140 Blundell Road,Richmond
a2t5o0000003hhUAAQ,Sobeys_Covid_Pool?,4974,Safeway Cranbrook Mall - COVID - ASTRAZENECA,V1C 1A8,British Columbia,1200 Baker Street,Cranbrook
a2t5o0000003hyYAAQ,Sobeys_Covid_Pool?,4980,Safeway Austin Heights - COVID - ASTRAZENECA,V3K 2P2,British Columbia,1033 Austin Ave,Coquitlam
a2t5o0000003hqaAAA,Sobeys_Covid_Pool?,4900,Safeway Surrey Centre - COVID - ASTRAZENECA,V3T 2W6,British Columbia,10355 King George Hwy,Surrey
a2t5o0000003hqbAAA,Sobeys_Covid_Pool?,9467,ThriftyFoods Campbell River - COVID - ASTRAZENECA,V9W 5T5,British Columbia,1400 Ironwood Road,Campbell River
a2t5o0000003hwrAAA,Sobeys_Covid_Pool?,4917,Safeway McBride - COVID - ASTRAZENECA,V3L 2B8,British Columbia,800 McBride Boulevard,New Westminster
a2t5o0000003hkcAAA,Sobeys_Covid_Pool?,4278,FreshCo Downtown - COVID - MODERNA,V1T 2E3,British Columbia,3417 - 30 Avenue,Vernon
a2t5o0000003hkYAAQ,Sobeys_Covid_Pool?,4925,Safeway Quesnel - COVID - MODERNA,V2J 2M7,British Columbia,445 Reid Street,Quesnel
a2t5o0000003hxGAAQ,Sobeys_Covid_Pool?,4931,Safeway Collingwood - COVID - ASTRAZENECA,V5R 5L4,British Columbia,3410 Kingsway Street,Vancouver
a2t5o0000003hu3AAA,Sobeys_Covid_Pool?,4941,Safeway King Edward Mall - COVID - ASTRAZENECA,V5Z 2E2,British Columbia,990 King Edward Avenue West,Vancouver
a2t5o0000003hsMAAQ,Sobeys_Covid_Pool?,4967,Safeway Seafair - COVID - ASTRAZENECA,V7C 1V2,British Columbia,8671 No. 1 Road,Richmond
a2t5o0000003htiAAA,Sobeys_Covid_Pool?,4278,FreshCo Downtown - COVID - ASTRAZENECA,V1T 2E3,British Columbia,3417 - 30 Avenue,Vernon
a2t5o0000003hy4AAA,Sobeys_Covid_Pool?,4966,Safeway Broadway & Commercial - COVID - ASTRAZENECA,V5N 1W3,British Columbia,1780 East Broadway,Vancouver
a2t5o0000003hvBAAQ,Sobeys_Covid_Pool?,4977,Safeway Burquitlam - COVID - MODERNA,V3J 3X5,British Columbia,580 Clarke Road,Coquitlam
a2t5o0000003hyEAAQ,Sobeys_Covid_Pool?,4970,Safeway Castlegar - COVID - MODERNA,V1N 2W6,British Columbia,1721 Columbia Avenue,Castlegar
a2t5o0000003hyFAAQ,Sobeys_Covid_Pool?,4973,Safeway Fort St. John - COVID - ASTRAZENECA,V1J 3X3,British Columbia,9123 - 100 Street,Fort St. John
a2t5o0000003hmYAAQ,Sobeys_Covid_Pool?,4265,FreshCo Aldergrove - COVID - MODERNA,V4W 3N5,British Columbia,27566 Fraser Highway,Aldergrove
a2t5o0000003hw8AAA,Sobeys_Covid_Pool?,4911,Safeway Burnaby Heights - COVID - ASTRAZENECA,V5C 2K2,British Columbia,4440 Hastings Street,Burnaby
a2t5o0000003hwDAAQ,Sobeys_Covid_Pool?,4911,Safeway Burnaby Heights - COVID - MODERNA,V5C 2K2,British Columbia,4440 Hastings Street,Burnaby
a2t5o0000003hyOAAQ,Sobeys_Covid_Pool?,4974,Safeway Cranbrook Mall - COVID - MODERNA,V1C 1A8,British Columbia,1200 Baker Street,Cranbrook
a2t5o0000003i39AAA,Sobeys_Covid_Pool?,9458,ThriftyFoods Parksville - COVID - MODERNA,V9P 2H1,British Columbia,280 East Island Highway,Parksville
a2t5o0000003i3dAAA,Sobeys_Covid_Pool?,9472,ThriftyFoods Morgan Crossing - COVID - MODERNA,V3S 2L5,British Columbia,102-15745 Croydon Drive,Surrey
a2t5o0000003heoAAA,Sobeys_Covid_Pool?,4916,Safeway Fortune - COVID - MODERNA,V2B 2L2,British Columbia,750 Fortune Drive,Kamloops
a2t5o0000003hvtAAA,Sobeys_Covid_Pool?,4901,Safeway West Broadway - COVID - MODERNA,V6K 2G5,British Columbia,2733 West Broadway,Vancouver
a2t5o0000003hskAAA,Sobeys_Covid_Pool?,4252,FreshCo Blundell & No 2 - COVID - MODERNA,V7C 1H8,British Columbia,6140 Blundell Road,Richmond
a2t5o0000003hmnAAA,Sobeys_Covid_Pool?,4269,FreshCo Chilliwack - COVID - MODERNA,V2P 2N9,British Columbia,45858 Yale Road,Chilliwack
a2t5o0000003hszAAA,Sobeys_Covid_Pool?,4257,FreshCo Chalo 120 St & 72 Ave - COVID - MODERNA,V3W 3M9,British Columbia,7450 120 Street,Surrey
a2t5o0000003ht0AAA,Sobeys_Covid_Pool?,4952,Safeway Smithers - COVID - MODERNA,V0J 2N0,British Columbia,3664 Highway 16 (Box 459),Smithers
a2t5o0000003hy9AAA,Sobeys_Covid_Pool?,4970,Safeway Castlegar - COVID - ASTRAZENECA,V1N 2W6,British Columbia,1721 Columbia Avenue,Castlegar
a2t5o0000003hwSAAQ,Sobeys_Covid_Pool?,4913,Safeway Kensington - COVID - ASTRAZENECA,V5B 1S2,British Columbia,6564 East Hastings Street,Burnaby
a2t5o0000003htsAAA,Sobeys_Covid_Pool?,4280,FreshCo Powell River - COVID - MODERNA,V8A 2A1,British Columbia,7040 Barnet Street,Powell River
a2t5o0000003hoQAAQ,Sobeys_Covid_Pool?,4998,Safeway Davie Street - COVID - MODERNA,V6G 1V9,British Columbia,1611 Davie Street,Vancouver
a2t5o0000003htTAAQ,Sobeys_Covid_Pool?,4274,FreshCo Williams Lake - COVID - MODERNA,V2G 1M5,British Columbia,451 Oliver Street,Williams Lake
a2t5o0000003htnAAA,Sobeys_Covid_Pool?,4280,FreshCo Powell River - COVID - ASTRAZENECA,V8A 2A1,British Columbia,7040 Barnet Street,Powell River
a2t5o0000003hwmAAA,Sobeys_Covid_Pool?,4916,Safeway Fortune - COVID - ASTRAZENECA,V2B 2L2,British Columbia,750 Fortune Drive,Kamloops
a2t5o0000003i3nAAA,Sobeys_Covid_Pool?,9481,ThriftyFoods Courtenay - COVID - ASTRAZENECA,V9N 2K6,British Columbia,1551 Cliffe Avenue,Courtenay
a2t5o0000003hqfAAA,Sobeys_Covid_Pool?,4256,FreshCo Mission - COVID - MODERNA,V2V 1A5,British Columbia,32520 Lougheed Highway,Mission
a2t5o0000003hqgAAA,Sobeys_Covid_Pool?,4968,Safeway Sardis - COVID - MODERNA,V2R 1A2,British Columbia,45610 Luckakuck Way,Chilliwack
a2t5o0000003hxVAAQ,Sobeys_Covid_Pool?,4942,Safeway West 4th & Vine - COVID - ASTRAZENECA,V6K 1P2,British Columbia,2315 West 4 Avenue,Vancouver
a2t5o0000003hxWAAQ,Sobeys_Covid_Pool?,4950,Safeway Lynn Valley - COVID - MODERNA,V7J 1S1,British Columbia,1170 East 27 Street,North Vancouver
a2t5o0000003hdXAAQ,Sobeys_Covid_Pool?,4257,FreshCo Chalo 120 St & 72 Ave - COVID - ASTRAZENECA,V3W 3M9,British Columbia,7450 120 Street,Surrey
a2t5o0000003hw3AAA,Sobeys_Covid_Pool?,4909,Safeway Caulfeild Village - COVID - ASTRAZENECA,V7W 3C7,British Columbia,5385 Headland Drive,West Vancouver
a2t5o0000003hwIAAQ,Sobeys_Covid_Pool?,4912,Safeway Fraser Crossing - COVID - ASTRAZENECA,V3A 4G7,British Columbia,20871 Fraser Highway,Langley
a2t5o0000003hxBAAQ,Sobeys_Covid_Pool?,4925,Safeway Quesnel - COVID - ASTRAZENECA,V2J 2M7,British Columbia,445 Reid Street,Quesnel
a2t5o0000003hwdAAA,Sobeys_Covid_Pool?,4973,Safeway Fort St. John - COVID - MODERNA,V1J 3X3,British Columbia,9123 - 100 Street,Fort St. John
a2t5o0000003hqWAAQ,Sobeys_Covid_Pool?,9480,ThriftyFoods Belmont - COVID - MODERNA,V9B 0W9,British Columbia,3011 Merchant Way,Langford
a2t5o0000003hvoAAA,Sobeys_Covid_Pool?,4900,Safeway Surrey Centre - COVID - MODERNA,V3T 2W6,British Columbia,10355 King George Hwy,Surrey
a2t5o0000003hvpAAA,Sobeys_Covid_Pool?,4903,Safeway Sunshine Hills - COVID - ASTRAZENECA,V4E 3G3,British Columbia,6401 - 120 Street,North Delta
a2t5o0000003heQAAQ,Sobeys_Covid_Pool?,9470,ThriftyFoods Port Moody - COVID - ASTRAZENECA,V3H 0E7,British Columbia,170 Brew Street,Port Moody
a2t5o0000003i3iAAA,Sobeys_Covid_Pool?,9478,ThriftyFoods Crown Isle - COVID - ASTRAZENECA,V9N 0A9,British Columbia,123 - 444 Lerwick Road,Courtenay
a2t5o0000003hoBAAQ,Sobeys_Covid_Pool?,4931,Safeway Collingwood - COVID - MODERNA,V5R 5L4,British Columbia,3410 Kingsway Street,Vancouver
a2t5o0000003htYAAQ,Sobeys_Covid_Pool?,4276,FreshCo Sahali - COVID - ASTRAZENECA,V2C 1L5,British Columbia,945 West Columbia,Kamloops
a2t5o0000003htaAAA,Sobeys_Covid_Pool?,4976,Safeway Marpole - COVID - ASTRAZENECA,V6P 4Z9,British Columbia,8475 Granville St,Vancouver
a2t5o0000003hjaAAA,Sobeys_Covid_Pool?,4909,Safeway Caulfeild Village - COVID - MODERNA,V7W 3C7,British Columbia,5385 Headland Drive,West Vancouver
a2t5o0000003hjbAAA,Sobeys_Covid_Pool?,4952,Safeway Smithers - COVID - ASTRAZENECA,V0J 2N0,British Columbia,3664 Highway 16 (Box 459),Smithers
a2t5o0000003i34AAA,Sobeys_Covid_Pool?,9458,ThriftyFoods Parksville - COVID - ASTRAZENECA,V9P 2H1,British Columbia,280 East Island Highway,Parksville
a2t5o0000003hx6AAA,Sobeys_Covid_Pool?,4924,Safeway Trail - COVID - MODERNA,V1R 1M3,British Columbia,1599 - 2 Avenue,Trail
a2t5o0000003hhYAAQ,Sobeys_Covid_Pool?,4958,Safeway Parkgate Village - COVID - MODERNA,V7H 2Y4,British Columbia,1175 Mt. Seymour Road,North Vancouver
a2t5o0000003hk6AAA,Sobeys_Covid_Pool?,4928,Safeway Prince Rupert - COVID - MODERNA,V8J 1G5,British Columbia,200 - 2 Avenue West,Prince Rupert
a2t5o0000003hvfAAA,Sobeys_Covid_Pool?,4967,Safeway Seafair - COVID - MODERNA,V7C 1V2,British Columbia,8671 No. 1 Road,Richmond
a2t5o0000003hnMAAQ,Sobeys_Covid_Pool?,4276,FreshCo Sahali - COVID - MODERNA,V2C 1L5,British Columbia,945 West Columbia,Kamloops
a2t5o0000003hyiAAA,Sobeys_Covid_Pool?,4998,Safeway Davie Street - COVID - ASTRAZENECA,V6G 1V9,British Columbia,1611 Davie Street,Vancouver
a2t5o0000003hvGAAQ,Sobeys_Covid_Pool?,4917,Safeway McBride - COVID - MODERNA,V3L 2B8,British Columbia,800 McBride Boulevard,New Westminster
a2t5o0000003hvHAAQ,Sobeys_Covid_Pool?,4979,Safeway Arbutus - COVID - MODERNA,V6L 0B9,British Columbia,2101 Lahb Ave (Off Arbutus Street),Vancouver
a2t5o0000003hn2AAA,Sobeys_Covid_Pool?,4903,Safeway Sunshine Hills - COVID - MODERNA,V4E 3G3,British Columbia,6401 - 120 Street,North Delta
a2t5o0000003hn4AAA,Sobeys_Covid_Pool?,9480,ThriftyFoods Belmont - COVID - ASTRAZENECA,V9B 0W9,British Columbia,3011 Merchant Way,Langford
a2t5o0000003hxzAAA,Sobeys_Covid_Pool?,4960,Safeway Downtown - COVID - MODERNA,V1Y 6P4,British Columbia,697 Bernard Avenue,Kelowna
a2t5o0000003hsgAAA,Sobeys_Covid_Pool?,4919,Safeway Vernon Square Mall - COVID - ASTRAZENECA,V1T 9H1,British Columbia,4300 - 32 Street,Vernon
a2t5o0000003hshAAA,Sobeys_Covid_Pool?,4950,Safeway Lynn Valley - COVID - ASTRAZENECA,V7J 1S1,British Columbia,1170 East 27 Street,North Vancouver
a2t5o0000003hmdAAA,Sobeys_Covid_Pool?,4920,Safeway Fleetwood - COVID - MODERNA,V3R 4E4,British Columbia,8860 - 152 Street,Surrey
a2t5o0000003heeAAA,Sobeys_Covid_Pool?,4928,Safeway Prince Rupert - COVID - ASTRAZENECA,V8J 1G5,British Columbia,200 - 2 Avenue West,Prince Rupert
a2t5o0000003hefAAA,Sobeys_Covid_Pool?,4946,Safeway Terrace - COVID - ASTRAZENECA,V8G 1R3,British Columbia,4655 Lakelse Avenue,Terrace
a2t5o0000003i3EAAQ,Sobeys_Covid_Pool?,9464,ThriftyFoods Longwood Station - COVID - ASTRAZENECA,V9T 6L8,British Columbia,5801 Turner Road,Nanaimo
a2t5o0000003hxpAAA,Sobeys_Covid_Pool?,4958,Safeway Parkgate Village - COVID - ASTRAZENECA,V7H 2Y4,British Columbia,1175 Mt. Seymour Road,North Vancouver
a2t5o0000003htEAAQ,Sobeys_Covid_Pool?,4269,FreshCo Chilliwack - COVID - ASTRAZENECA,V2P 2N9,British Columbia,45858 Yale Road,Chilliwack
a2t5o0000003hwXAAQ,Sobeys_Covid_Pool?,4913,Safeway Kensington - COVID - MODERNA,V5B 1S2,British Columbia,6564 East Hastings Street,Burnaby
a2t5o0000003hfwAAA,Sobeys_Covid_Pool?,4920,Safeway Fleetwood - COVID - ASTRAZENECA,V3R 4E4,British Columbia,8860 - 152 Street,Surrey
a2t5o0000003hfxAAA,Sobeys_Covid_Pool?,4939,Safeway Ocean Park - COVID - ASTRAZENECA,V4A 1N5,British Columbia,12825 - 16 Avenue,Surrey
a2t5o0000003hpSAAQ,Sobeys_Covid_Pool?,4254,FreshCo No 3 & Williams - COVID - MODERNA,V7A 4R6,British Columbia,10151 No. 3 Road,Richmond
a2t5o0000003hg7AAA,Sobeys_Covid_Pool?,4939,Safeway Ocean Park - COVID - MODERNA,V4A 1N5,British Columbia,12825 - 16 Avenue,Surrey
a2t5o0000003hyTAAQ,Sobeys_Covid_Pool?,4976,Safeway Marpole - COVID - MODERNA,V6P 4Z9,British Columbia,8475 Granville St,Vancouver
a2t5o0000003hxaAAA,Sobeys_Covid_Pool?,4946,Safeway Terrace - COVID - MODERNA,V8G 1R3,British Columbia,4655 Lakelse Avenue,Terrace
a2t5o0000003hq1AAA,Sobeys_Covid_Pool?,4919,Safeway Vernon Square Mall - COVID - MODERNA,V1T 9H1,British Columbia,4300 - 32 Street,Vernon
a2t5o0000003hspAAA,Sobeys_Covid_Pool?,4255,FreshCo Chalo 138 St & 72 Ave - COVID - ASTRAZENECA,V3W 7T9,British Columbia,7165 138 Street,Surrey
a2t5o0000003hr9AAA,Sobeys_Covid_Pool?,4908,Safeway Robson - COVID - MODERNA,V6G 1E2,British Columbia,1766 Robson Street,Vancouver
a2t5o0000003i3JAAQ,Sobeys_Covid_Pool?,9464,ThriftyFoods Longwood Station - COVID - MODERNA,V9T 6L8,British Columbia,5801 Turner Road,Nanaimo
a2t5o0000003hpcAAA,Sobeys_Covid_Pool?,9461,ThriftyFoods Cloverdale - COVID - MODERNA,V8X 1G8,British Columbia,3475 Quadra Street,Victoria
a2t5o00000001MjAAI,Sobeys_Covid_Pool?,5180,Sobeys Birds Hill - COVID - MODERNA,R2E 1G9,Manitoba,"3156 Birds Hill Rd., PO Box 38108",East St. Paul
a2t5o0000000wYZAAY,Sobeys_Covid_Pool?,5180,Sobeys Birds Hill - COVID - PFIZER 12+ YEARS OLD,R2E 1G9,Manitoba,"3156 Birds Hill Rd., PO Box 38108",East St. Paul
a2t5o0000003hzMAAQ,Sobeys_Covid_Pool?,5180,Sobeys Birds Hill - COVID - PFIZER PEDIATRIC 5-11 YEARS OLD,R2E 1G9,Manitoba,"3156 Birds Hill Rd., PO Box 38108",East St. Paul
a2t5o00000001LoAAI,Sobeys_Covid_Pool?,4258,FreshCo Kildonan Crossing - COVID - MODERNA,R2C 5C6,Manitoba,500-1615 Regent Ave W,Winnipeg
a2t5o00000001LpAAI,Sobeys_Covid_Pool?,4259,FreshCo Jefferson - COVID - MODERNA,R2P 1W1,Manitoba,920 Jefferson Avenue,Winnipeg
a2t5o00000001LtAAI,Sobeys_Covid_Pool?,4821,Safeway River East Plaza - COVID - MODERNA,R2G 1N4,Manitoba,1441 Henderson Hwy.,Winnipeg
a2t5o00000001LuAAI,Sobeys_Covid_Pool?,4822,Safeway Ness & Madison - COVID - MODERNA,R3J 3X3,Manitoba,1612 Ness Avenue,Winnipeg
a2t5o00000001LvAAI,Sobeys_Covid_Pool?,4286,FreshCo Sargent - COVID - MODERNA,R3E 0A1,Manitoba,600 Sargent Ave.,Winnipeg
a2t5o00000001LwAAI,Sobeys_Covid_Pool?,4824,Safeway Mountain & McGregor - COVID - MODERNA,R2W 1L2,Manitoba,594 Mountain At McGregor,Winnipeg
a2t5o00000001MAAAY,Sobeys_Covid_Pool?,4288,FreshCo Pembina & McGillivray - COVID - MODERNA,R3T 2B6,Manitoba,1319 Pembina Highway,Winnipeg
a2t5o00000001MBAAY,Sobeys_Covid_Pool?,4828,Safeway Selkirk - COVID - MODERNA,R1A OY7,Manitoba,318 Manitoba Avenue,Selkirk
a2t5o00000001MHAAY,Sobeys_Covid_Pool?,5152,Sobeys St Anne's - COVID - MODERNA,R2M 5S1,Manitoba,1939 Bishop Grandin Boulevard,Winnipeg
a2t5o00000001MIAAY,Sobeys_Covid_Pool?,5155,Sobeys Reenders - COVID - MODERNA,R2C 5K5,Manitoba,#7 Reenders Drive,Winnipeg
a2t5o00000001MJAAY,Sobeys_Covid_Pool?,5157,Sobeys St. Vital - COVID - MODERNA,R2N 3Y7,Manitoba,1500 Dakota Street,Winnipeg
a2t5o00000001MKAAY,Sobeys_Covid_Pool?,5164,Sobeys Steinbach - COVID - MODERNA,R5G 1T7,Manitoba,1-178 PTH 12N ClearSpring Centre box 3089,Steinbach
a2t5o00000001MLAAY,Sobeys_Covid_Pool?,5166,Sobeys Kenaston - COVID - MODERNA,R3P 2M6,Manitoba,1660 Kenaston Boulevard,Winnipeg
a2t5o00000001MiAAI,Sobeys_Covid_Pool?,5167,Sobeys Northdale - COVID - MODERNA,R2K 2M2,Manitoba,965 Henderson Highway,Winnipeg
a2t5o00000001MkAAI,Sobeys_Covid_Pool?,5377,Sobeys Rivergrove - COVID - MODERNA,R2V 4W3,Manitoba,2575 Main Street,Winnipeg 
a2t5o00000001MlAAI,Sobeys_Covid_Pool?,5382,Sobeys Kildonan - COVID - MODERNA,R3W 0H1,Manitoba,50 Kildonan Green Drive,Winnipeg
a2t5o00000001MxAAI,Sobeys_Covid_Pool?,4867,Safeway River Avenue - COVID - MODERNA,R3L 0C9,Manitoba,499 River Avenue,Winnipeg
a2t5o00000001MyAAI,Sobeys_Covid_Pool?,5037,Sobeys Pembina - COVID - MODERNA,R3T 6E4,Manitoba,2850 Pembina Highway,Winnipeg
a2t5o00000001MzAAI,Sobeys_Covid_Pool?,5104,Sobeys Unicity - COVID - MODERNA,R3K 2G6,Manitoba,3635 Portage Avenue,Winnipeg
a2t5o00000001N0AAI,Sobeys_Covid_Pool?,5105,Sobeys Brandon South - COVID - MODERNA,R7A 5C5,Manitoba,1570 18th Street,Brandon
a2t5o00000001N1AAI,Sobeys_Covid_Pool?,5150,Sobeys Grant Park - COVID - MODERNA,R3M 3Z4,Manitoba,1150 Taylor Avenue,Winnipeg
a2t5o00000001NGAAY,Sobeys_Covid_Pool?,4842,Safeway Marion & Braemar - COVID - MODERNA,R2H OT8,Manitoba,285 Marion At Braemar,Winnipeg
a2t5o00000001NHAAY,Sobeys_Covid_Pool?,4844,Safeway Osborne & Kylemore - COVID - MODERNA,R3L 2B7,Manitoba,655 Osborne At Kylemore,Winnipeg
a2t5o00000001NIAAY,Sobeys_Covid_Pool?,4847,Safeway Pembina Village - COVID - MODERNA,R3T 5S9,Manitoba,2155 Pembina Highway,Winnipeg
a2t5o00000001NJAAY,Sobeys_Covid_Pool?,4848,Safeway Tyndall Square - COVID - MODERNA,R2R 0Z5,Manitoba,850 Keewatin Street,Winnipeg
a2t5o00000001NKAAY,Sobeys_Covid_Pool?,4849,Safeway Tuxedo - COVID - MODERNA,R3P 0N5,Manitoba,2025 Corydon At Edgeland,Winnipeg
a2t5o00000001NZAAY,Sobeys_Covid_Pool?,4851,Safeway Crestview - COVID - MODERNA,R3K 2G7,Manitoba,3393 Portage Avenue,Winnipeg
a2t5o00000001NaAAI,Sobeys_Covid_Pool?,4854,Safeway Charleswood Centre - COVID - MODERNA,R3R 3C2,Manitoba,3900 Grant Avenue,Winnipeg
a2t5o00000001NbAAI,Sobeys_Covid_Pool?,4287,FreshCo Niakwa Village - COVID - MODERNA,R2M 0Y5,Manitoba,2 Alpine Avenue,Winnipeg
a2t5o00000001NcAAI,Sobeys_Covid_Pool?,4857,Safeway Kildare - COVID - MODERNA,R2C 0P8,Manitoba,654 Kildare Avenue East,Winnipeg
a2t5o00000001NdAAI,Sobeys_Covid_Pool?,4859,Safeway Lindenridge - COVID - MODERNA,R3P 2M4,Manitoba,1625 Kenaston Boulevard,Winnipeg
a2t5o00000001NeAAI,Sobeys_Covid_Pool?,4829,Safeway Corral Centre - COVID - MODERNA,R7A 7S1,Manitoba,921 - 18 Street North,Brandon
a2t5o00000001NfAAI,Sobeys_Covid_Pool?,4832,Safeway City Centre Mall - COVID - MODERNA,R8N 0M2,Manitoba,300 Mystery Lake Road,Thompson
a2t5o00000007u0AAA,Sobeys_Covid_Pool?,4828,Safeway Selkirk - COVID - ASTRAZENECA,R1A OY7,Manitoba,318 Manitoba Avenue,Selkirk
a2t5o00000007u5AAA,Sobeys_Covid_Pool?,5164,Sobeys Steinbach - COVID - ASTRAZENECA,R5G 1T7,Manitoba,1-178 PTH 12N ClearSpring Centre box 3089,Steinbach
a2t5o00000007uAAAQ,Sobeys_Covid_Pool?,4851,Safeway Crestview - COVID - ASTRAZENECA,R3K 2G7,Manitoba,3393 Portage Avenue,Winnipeg
a2t5o0000000wZ8AAI,Sobeys_Covid_Pool?,4851,Safeway Crestview - COVID - PFIZER 12+ YEARS OLD,R3K 2G7,Manitoba,3393 Portage Avenue,Winnipeg
a2t5o0000000wYoAAI,Sobeys_Covid_Pool?,5104,Sobeys Unicity - COVID - PFIZER 12+ YEARS OLD,R3K 2G6,Manitoba,3635 Portage Avenue,Winnipeg
a2t5o00000012V7AAI,Sobeys_Covid_Pool?,4832,Safeway City Centre Mall - COVID - PFIZER 12+ YEARS OLD,R8N 0M2,Manitoba,300 Mystery Lake Road,Thompson
a2t5o00000012UOAAY,Sobeys_Covid_Pool?,5166,Sobeys Kenaston - COVID - PFIZER 12+ YEARS OLD,R3P 2M6,Manitoba,1660 Kenaston Boulevard,Winnipeg
a2t5o0000000wYUAAY,Sobeys_Covid_Pool?,4288,FreshCo Pembina & McGillivray - COVID - PFIZER 12+ YEARS OLD,R3T 2B6,Manitoba,1319 Pembina Highway,Winnipeg
a2t5o0000000wYyAAI,Sobeys_Covid_Pool?,4844,Safeway Osborne & Kylemore - COVID - PFIZER 12+ YEARS OLD,R3L 2B7,Manitoba,655 Osborne At Kylemore,Winnipeg
a2t5o00000012V2AAI,Sobeys_Covid_Pool?,4829,Safeway Corral Centre - COVID - PFIZER 12+ YEARS OLD,R7A 7S1,Manitoba,921 - 18 Street North,Brandon
a2t5o0000000XRTAA2,Sobeys_Covid_Pool?,5164,Sobeys Steinbach - COVID - PFIZER 12+ YEARS OLD,R5G 1T7,Manitoba,1-178 PTH 12N ClearSpring Centre box 3089,Steinbach
a2t5o00000012UJAAY,Sobeys_Covid_Pool?,5155,Sobeys Reenders - COVID - PFIZER 12+ YEARS OLD,R2C 5K5,Manitoba,#7 Reenders Drive,Winnipeg
a2t5o0000000wYeAAI,Sobeys_Covid_Pool?,4867,Safeway River Avenue - COVID - PFIZER 12+ YEARS OLD,R3L 0C9,Manitoba,499 River Avenue,Winnipeg
a2t5o0000000zeQAAQ,Sobeys_Covid_Pool?,4824,Safeway Mountain & McGregor - COVID - PFIZER 12+ YEARS OLD,R2W 1L2,Manitoba,594 Mountain At McGregor,Winnipeg
a2t5o00000012TzAAI,Sobeys_Covid_Pool?,4822,Safeway Ness & Madison - COVID - PFIZER 12+ YEARS OLD,R3J 3X3,Manitoba,1612 Ness Avenue,Winnipeg
a2t5o00000012UEAAY,Sobeys_Covid_Pool?,5152,Sobeys St Anne's - COVID - PFIZER 12+ YEARS OLD,R2M 5S1,Manitoba,1939 Bishop Grandin Boulevard,Winnipeg
a2t5o0000003hhxAAA,Sobeys_Covid_Pool?,4849,Safeway Tuxedo - COVID - PFIZER PEDIATRIC 5-11 YEARS OLD,R3P 0N5,Manitoba,2025 Corydon At Edgeland,Winnipeg
a2t5o0000003hs8AAA,Sobeys_Covid_Pool?,4867,Safeway River Avenue - COVID - PFIZER PEDIATRIC 5-11 YEARS OLD,R3L 0C9,Manitoba,499 River Avenue,Winnipeg
a2t5o0000003ht4AAA,Sobeys_Covid_Pool?,4259,FreshCo Jefferson - COVID - PFIZER PEDIATRIC 5-11 YEARS OLD,R2P 1W1,Manitoba,920 Jefferson Avenue,Winnipeg
a2t5o0000003huWAAQ,Sobeys_Covid_Pool?,4821,Safeway River East Plaza - COVID - PFIZER PEDIATRIC 5-11 YEARS OLD,R2G 1N4,Manitoba,1441 Henderson Hwy.,Winnipeg
a2t5o0000003hvAAAQ,Sobeys_Covid_Pool?,4854,Safeway Charleswood Centre - COVID - PFIZER PEDIATRIC 5-11 YEARS OLD,R3R 3C2,Manitoba,3900 Grant Avenue,Winnipeg
a2t5o0000003hugAAA,Sobeys_Covid_Pool?,4824,Safeway Mountain & McGregor - COVID - PFIZER PEDIATRIC 5-11 YEARS OLD,R2W 1L2,Manitoba,594 Mountain At McGregor,Winnipeg
a2t5o0000003hu7AAA,Sobeys_Covid_Pool?,4286,FreshCo Sargent - COVID - PFIZER PEDIATRIC 5-11 YEARS OLD,R3E 0A1,Manitoba,600 Sargent Ave.,Winnipeg
a2t5o0000003hiRAAQ,Sobeys_Covid_Pool?,4287,FreshCo Niakwa Village - COVID - PFIZER PEDIATRIC 5-11 YEARS OLD,R2M 0Y5,Manitoba,2 Alpine Avenue,Winnipeg
a2t5o0000003hulAAA,Sobeys_Covid_Pool?,4832,Safeway City Centre Mall - COVID - PFIZER PEDIATRIC 5-11 YEARS OLD,R8N 0M2,Manitoba,300 Mystery Lake Road,Thompson
a2t5o0000003heqAAA,Sobeys_Covid_Pool?,5155,Sobeys Reenders - COVID - PFIZER PEDIATRIC 5-11 YEARS OLD,R2C 5K5,Manitoba,#7 Reenders Drive,Winnipeg
a2t5o0000003hmoAAA,Sobeys_Covid_Pool?,5382,Sobeys Kildonan - COVID - PFIZER PEDIATRIC 5-11 YEARS OLD,R3W 0H1,Manitoba,50 Kildonan Green Drive,Winnipeg
a2t5o0000003hwTAAQ,Sobeys_Covid_Pool?,5150,Sobeys Grant Park - COVID - PFIZER PEDIATRIC 5-11 YEARS OLD,R3M 3Z4,Manitoba,1150 Taylor Avenue,Winnipeg
a2t5o0000003hpmAAA,Sobeys_Covid_Pool?,5104,Sobeys Unicity - COVID - PFIZER PEDIATRIC 5-11 YEARS OLD,R3K 2G6,Manitoba,3635 Portage Avenue,Winnipeg
a2t5o0000003hpnAAA,Sobeys_Covid_Pool?,5105,Sobeys Brandon South - COVID - PFIZER PEDIATRIC 5-11 YEARS OLD,R7A 5C5,Manitoba,1570 18th Street,Brandon
a2t5o0000000XRJAA2,Sobeys_Covid_Pool?,4259,FreshCo Jefferson - COVID - PFIZER 12+ YEARS OLD,R2P 1W1,Manitoba,920 Jefferson Avenue,Winnipeg
a2t5o0000000XROAA2,Sobeys_Covid_Pool?,5157,Sobeys St. Vital - COVID - PFIZER 12+ YEARS OLD,R2N 3Y7,Manitoba,1500 Dakota Street,Winnipeg
a2t5o0000000XRYAA2,Sobeys_Covid_Pool?,5105,Sobeys Brandon South - COVID - PFIZER 12+ YEARS OLD,R7A 5C5,Manitoba,1570 18th Street,Brandon
a2t5o0000000wZ3AAI,Sobeys_Covid_Pool?,4849,Safeway Tuxedo - COVID - PFIZER 12+ YEARS OLD,R3P 0N5,Manitoba,2025 Corydon At Edgeland,Winnipeg
a2t5o00000012TfAAI,Sobeys_Covid_Pool?,4258,FreshCo Kildonan Crossing - COVID - PFIZER 12+ YEARS OLD,R2C 5C6,Manitoba,500-1615 Regent Ave W,Winnipeg
a2t5o00000012U9AAI,Sobeys_Covid_Pool?,4828,Safeway Selkirk - COVID - PFIZER 12+ YEARS OLD,R1A OY7,Manitoba,318 Manitoba Avenue,Selkirk
a2t5o00000012UdAAI,Sobeys_Covid_Pool?,5382,Sobeys Kildonan - COVID - PFIZER 12+ YEARS OLD,R3W 0H1,Manitoba,50 Kildonan Green Drive,Winnipeg
a2t5o00000012UnAAI,Sobeys_Covid_Pool?,4848,Safeway Tyndall Square - COVID - PFIZER 12+ YEARS OLD,R2R 0Z5,Manitoba,850 Keewatin Street,Winnipeg
a2t5o0000000wZIAAY,Sobeys_Covid_Pool?,4859,Safeway Lindenridge - COVID - PFIZER 12+ YEARS OLD,R3P 2M4,Manitoba,1625 Kenaston Boulevard,Winnipeg
a2t5o0000000wZDAAY,Sobeys_Covid_Pool?,4854,Safeway Charleswood Centre - COVID - PFIZER 12+ YEARS OLD,R3R 3C2,Manitoba,3900 Grant Avenue,Winnipeg
a2t5o0000000wYtAAI,Sobeys_Covid_Pool?,5150,Sobeys Grant Park - COVID - PFIZER 12+ YEARS OLD,R3M 3Z4,Manitoba,1150 Taylor Avenue,Winnipeg
a2t5o00000012UsAAI,Sobeys_Covid_Pool?,4287,FreshCo Niakwa Village - COVID - PFIZER 12+ YEARS OLD,R2M 0Y5,Manitoba,2 Alpine Avenue,Winnipeg
a2t5o00000012UYAAY,Sobeys_Covid_Pool?,5377,Sobeys Rivergrove - COVID - PFIZER 12+ YEARS OLD,R2V 4W3,Manitoba,2575 Main Street,Winnipeg 
a2t5o0000000zOwAAI,Sobeys_Covid_Pool?,4842,Safeway Marion & Braemar - COVID - PFIZER 12+ YEARS OLD,R2H OT8,Manitoba,285 Marion At Braemar,Winnipeg
a2t5o0000000wYjAAI,Sobeys_Covid_Pool?,5037,Sobeys Pembina - COVID - PFIZER 12+ YEARS OLD,R3T 6E4,Manitoba,2850 Pembina Highway,Winnipeg
a2t5o00000012UTAAY,Sobeys_Covid_Pool?,5167,Sobeys Northdale - COVID - PFIZER 12+ YEARS OLD,R2K 2M2,Manitoba,965 Henderson Highway,Winnipeg
a2t5o00000012TuAAI,Sobeys_Covid_Pool?,4821,Safeway River East Plaza - COVID - PFIZER 12+ YEARS OLD,R2G 1N4,Manitoba,1441 Henderson Hwy.,Winnipeg
a2t5o00000012UxAAI,Sobeys_Covid_Pool?,4857,Safeway Kildare - COVID - PFIZER 12+ YEARS OLD,R2C 0P8,Manitoba,654 Kildare Avenue East,Winnipeg
a2t5o00000012UiAAI,Sobeys_Covid_Pool?,4847,Safeway Pembina Village - COVID - PFIZER 12+ YEARS OLD,R3T 5S9,Manitoba,2155 Pembina Highway,Winnipeg
a2t5o00000012U4AAI,Sobeys_Covid_Pool?,4286,FreshCo Sargent - COVID - PFIZER 12+ YEARS OLD,R3E 0A1,Manitoba,600 Sargent Ave.,Winnipeg
a2t5o0000003hjDAAQ,Sobeys_Covid_Pool?,4859,Safeway Lindenridge - COVID - PFIZER PEDIATRIC 5-11 YEARS OLD,R3P 2M4,Manitoba,1625 Kenaston Boulevard,Winnipeg
a2t5o0000003hzWAAQ,Sobeys_Covid_Pool?,5377,Sobeys Rivergrove - COVID - PFIZER PEDIATRIC 5-11 YEARS OLD,R2V 4W3,Manitoba,2575 Main Street,Winnipeg 
a2t5o0000003hv0AAA,Sobeys_Covid_Pool?,4847,Safeway Pembina Village - COVID - PFIZER PEDIATRIC 5-11 YEARS OLD,R3T 5S9,Manitoba,2155 Pembina Highway,Winnipeg
a2t5o0000003hsHAAQ,Sobeys_Covid_Pool?,5167,Sobeys Northdale - COVID - PFIZER PEDIATRIC 5-11 YEARS OLD,R2K 2M2,Manitoba,965 Henderson Highway,Winnipeg
a2t5o0000003hjZAAQ,Sobeys_Covid_Pool?,4258,FreshCo Kildonan Crossing - COVID - PFIZER PEDIATRIC 5-11 YEARS OLD,R2C 5C6,Manitoba,500-1615 Regent Ave W,Winnipeg
a2t5o0000003huqAAA,Sobeys_Covid_Pool?,4842,Safeway Marion & Braemar - COVID - PFIZER PEDIATRIC 5-11 YEARS OLD,R2H OT8,Manitoba,285 Marion At Braemar,Winnipeg
a2t5o0000003hvFAAQ,Sobeys_Covid_Pool?,4857,Safeway Kildare - COVID - PFIZER PEDIATRIC 5-11 YEARS OLD,R2C 0P8,Manitoba,654 Kildare Avenue East,Winnipeg
a2t5o0000003hubAAA,Sobeys_Covid_Pool?,4822,Safeway Ness & Madison - COVID - PFIZER PEDIATRIC 5-11 YEARS OLD,R3J 3X3,Manitoba,1612 Ness Avenue,Winnipeg
a2t5o0000003hv5AAA,Sobeys_Covid_Pool?,4848,Safeway Tyndall Square - COVID - PFIZER PEDIATRIC 5-11 YEARS OLD,R2R 0Z5,Manitoba,850 Keewatin Street,Winnipeg
a2t5o0000003hzCAAQ,Sobeys_Covid_Pool?,5166,Sobeys Kenaston - COVID - PFIZER PEDIATRIC 5-11 YEARS OLD,R3P 2M6,Manitoba,1660 Kenaston Boulevard,Winnipeg
a2t5o0000003hpTAAQ,Sobeys_Covid_Pool?,5037,Sobeys Pembina - COVID - PFIZER PEDIATRIC 5-11 YEARS OLD,R3T 6E4,Manitoba,2850 Pembina Highway,Winnipeg
a2t5o0000003hj6AAA,Sobeys_Covid_Pool?,5157,Sobeys St. Vital - COVID - PFIZER PEDIATRIC 5-11 YEARS OLD,R2N 3Y7,Manitoba,1500 Dakota Street,Winnipeg
a2t5o0000003huCAAQ,Sobeys_Covid_Pool?,4288,FreshCo Pembina & McGillivray - COVID - PFIZER PEDIATRIC 5-11 YEARS OLD,R3T 2B6,Manitoba,1319 Pembina Highway,Winnipeg
a2t5o0000003huvAAA,Sobeys_Covid_Pool?,4844,Safeway Osborne & Kylemore - COVID - PFIZER PEDIATRIC 5-11 YEARS OLD,R3L 2B7,Manitoba,655 Osborne At Kylemore,Winnipeg
a2t5o0000003ho0AAA,Sobeys_Covid_Pool?,4829,Safeway Corral Centre - COVID - PFIZER PEDIATRIC 5-11 YEARS OLD,R7A 7S1,Manitoba,921 - 18 Street North,Brandon
a2t5o0000003hz7AAA,Sobeys_Covid_Pool?,5152,Sobeys St Anne's - COVID - PFIZER PEDIATRIC 5-11 YEARS OLD,R2M 5S1,Manitoba,1939 Bishop Grandin Boulevard,Winnipeg
a2t5o0000005wRUAAY,Sobeys_Covid_Pool?,4828,Safeway Selkirk - COVID - PFIZER PEDIATRIC 5-11 YEARS OLD,R1A OY7,Manitoba,318 Manitoba Avenue, Selkirk
a2t5o0000005wRZAAY,Sobeys_Covid_Pool?,4851,Safeway Crestview - COVID - PFIZER PEDIATRIC 5-11 YEARS OLD, R3K 2G7,Manitoba,3393 Portage Avenue, Winnipeg
a2t5o00000001FzAAI,Sobeys_Covid_Pool?,2552,Lawtons Saint John Nursing Home Services - COVID - PFIZER 12+ YEARS OLD,E2M 5J7,New Brunswick,"107 Catherwood Street, Suite 212",Saint John
a2t5o00000001FfAAI,Sobeys_Covid_Pool?,117,Lawtons Brookside Mall - COVID - MODERNA,E3A 8V4,New Brunswick,"435 Brookside Drive, Unit 5",Fredericton
a2t5o00000001FgAAI,Sobeys_Covid_Pool?,137,Lawtons Sussex - COVID - PFIZER 12+ YEARS OLD,E4E 3E1,New Brunswick,"138 Main Street, Suite 8",Sussex
a2t5o00000001XSAAY,Sobeys_Covid_Pool?,2552,Lawtons Saint John Nursing Home Services - COVID - PFIZER PEDIATRIC 5-11 YEARS O,E2M 5J7,New Brunswick,"107 Catherwood Street, Suite 212",Saint John
a2t5o00000001XZAAY,Sobeys_Covid_Pool?,117,Lawtons Brookside Mall - COVID - PFIZER PEDIATRIC 5-11 YEARS OLD,E3A 8V4,New Brunswick,"435 Brookside Drive, Unit 5",Fredericton
a2t5o00000001XaAAI,Sobeys_Covid_Pool?,137,Lawtons Sussex - COVID - MODERNA,E4E 3E1,New Brunswick,"138 Main Street, Suite 8",Sussex
a2t5o0000003hjGAAQ,Sobeys_Covid_Pool?,2552,Lawtons Saint John Nursing Home Services - COVID - MODERNA,E2M 5J7,New Brunswick,"107 Catherwood Street, Suite 212",Saint John
a2t5o0000003hfgAAA,Sobeys_Covid_Pool?,137,Lawtons Sussex - COVID - PFIZER PEDIATRIC 5-11 YEARS OLD,E4E 3E1,New Brunswick,"138 Main Street, Suite 8",Sussex
a2t5o00000001vpAAA,Sobeys_Covid_Pool?,117,Lawtons Brookside Mall - COVID - PFIZER 12+ YEARS OLD,E3A 8V4,New Brunswick,"435 Brookside Drive, Unit 5",Fredericton
a2t5o00000001FtAAI,Sobeys_Covid_Pool?,756,Sobeys Vaughan Harvey - COVID - PFIZER 12+ YEARS OLD,E1C 0N3,New Brunswick,55 Vaughan Harvey Boulevard,Moncton
a2t5o00000001FuAAI,Sobeys_Covid_Pool?,778,Sobeys Saint John West - COVID - PFIZER 12+ YEARS OLD,E2M 0C2,New Brunswick,1 Plaza Avenue,Saint John
a2t5o00000001FvAAI,Sobeys_Covid_Pool?,783,Sobeys Elmwood Drive - COVID - PFIZER 12+ YEARS OLD,E1A 9G6,New Brunswick,77 Filles de Jesus Avenue,Moncton
a2t5o00000001FwAAI,Sobeys_Covid_Pool?,849,Sobeys Regent - COVID - MODERNA,E3B 3X6,New Brunswick,407 Regent Street,Fredericton
a2t5o00000001FxAAI,Sobeys_Covid_Pool?,860,Sobeys Miramichi Road - COVID - MODERNA,E2V 4T4,New Brunswick,375 Miramichi Road,Oromocto
a2t5o00000001FyAAI,Sobeys_Covid_Pool?,892,Sobeys Bathurst - COVID - MODERNA,E2A 3A1,New Brunswick,1125 St.  Peter Avenue,Bathurst
a2t5o00000001G0AAI,Sobeys_Covid_Pool?,2564,Lawtons Catherwood - COVID - MODERNA,E2M 5J7,New Brunswick,107 Catherwood Street,Saint John
a2t5o00000001G1AAI,Sobeys_Covid_Pool?,2572,Lawtons Elmwood Drive - COVID - MODERNA,E1A 2X4,New Brunswick,565 Elmwood Drive,Moncton
a2t5o00000001G2AAI,Sobeys_Covid_Pool?,2575,Lawtons Regent Mall - COVID - PFIZER 12+ YEARS OLD,E3C 1A2,New Brunswick,1381 Regent Street,Fredericton
a2t5o00000001G3AAI,Sobeys_Covid_Pool?,2748,Lawtons McAllister Place - COVID - MODERNA,E2J 3W9,New Brunswick,519 Westmorland Road,Saint John
a2t5o00000001G4AAI,Sobeys_Covid_Pool?,8262,Sobeys Caraquet - COVID - PFIZER 12+ YEARS OLD,E1W 1B6,New Brunswick,10 Boulevard St. Pierre East,Caraquet
a2t5o00000001FeAAI,Sobeys_Covid_Pool?,115,Lawtons Brunswick Square - COVID - PFIZER 12+ YEARS OLD,E2L 4W3,New Brunswick,39 King Street,Saint John
a2t5o00000001FhAAI,Sobeys_Covid_Pool?,141,Lawtons Moncton Nursing Home - COVID - PFIZER 12+ YEARS OLD,E1C 2R4,New Brunswick,800 Mountain Road,Moncton
a2t5o00000001FiAAI,Sobeys_Covid_Pool?,147,Lawtons Mapleton - COVID - PFIZER 12+ YEARS OLD,E1C 7W8,New Brunswick,40 Mapleton Road,Moncton
a2t5o00000001FjAAI,Sobeys_Covid_Pool?,233,Sobeys Saint John - COVID - MODERNA,E2K 2Z9,New Brunswick,149 Lansdowne Avenue,Saint John
a2t5o00000001FkAAI,Sobeys_Covid_Pool?,348,Sobeys Moncton Mall - COVID - PFIZER 12+ YEARS OLD,E1C 2T8,New Brunswick,1380 Mountain Road,Moncton
a2t5o00000001FlAAI,Sobeys_Covid_Pool?,349,Sobeys Brookside Mall - COVID - MODERNA,E3A 8V4,New Brunswick,463 Brookside Drive,Fredericton
a2t5o00000001FmAAI,Sobeys_Covid_Pool?,375,Sobeys Uptown - COVID - MODERNA,E3B 5C7,New Brunswick,1180 Prospect St,Fredericton
a2t5o00000001FnAAI,Sobeys_Covid_Pool?,495,Sobeys Rothesay - COVID - MODERNA,E2E 2R1,New Brunswick,140 Hampton Road,Rothesay
a2t5o00000001FoAAI,Sobeys_Covid_Pool?,548,Sobeys East Point - COVID - PFIZER 12+ YEARS OLD,E2J 0H4,New Brunswick,40 East Point Way,Saint John
a2t5o00000001FpAAI,Sobeys_Covid_Pool?,602,Sobeys Champlain Mall - COVID - PFIZER 12+ YEARS OLD,E1A 4X5,New Brunswick,477 Paul Street,Dieppe
a2t5o00000001FqAAI,Sobeys_Covid_Pool?,680,Sobeys Miramichi - COVID - PFIZER 12+ YEARS OLD,E1V 6W6,New Brunswick,2485 King George Highway,Miramichi
a2t5o00000001FrAAI,Sobeys_Covid_Pool?,736,Sobeys Riverview - COVID - PFIZER 12+ YEARS OLD,E1B 0J6,New Brunswick,1160 Findlay Blvd,Riverview
a2t5o00000001FsAAI,Sobeys_Covid_Pool?,738,Sobeys Shediac - COVID - MODERNA,E4P 2A5,New Brunswick,183 Main Street,Shediac
a2t5o00000001XMAAY,Sobeys_Covid_Pool?,756,Sobeys Vaughan Harvey - COVID - MODERNA,E1C 0N3,New Brunswick,55 Vaughan Harvey Boulevard,Moncton
a2t5o00000001XNAAY,Sobeys_Covid_Pool?,778,Sobeys Saint John West - COVID - PFIZER PEDIATRIC 5-11 YEARS OLD,E2M 0C2,New Brunswick,1 Plaza Avenue,Saint John
a2t5o00000001XOAAY,Sobeys_Covid_Pool?,783,Sobeys Elmwood Drive - COVID - PFIZER PEDIATRIC 5-11 YEARS OLD,E1A 9G6,New Brunswick,77 Filles de Jesus Avenue,Moncton
a2t5o00000001XPAAY,Sobeys_Covid_Pool?,849,Sobeys Regent - COVID - PFIZER 12+ YEARS OLD,E3B 3X6,New Brunswick,407 Regent Street,Fredericton
a2t5o00000001XQAAY,Sobeys_Covid_Pool?,860,Sobeys Miramichi Road - COVID - PFIZER PEDIATRIC 5-11 YEARS OLD,E2V 4T4,New Brunswick,375 Miramichi Road,Oromocto
a2t5o00000001XRAAY,Sobeys_Covid_Pool?,892,Sobeys Bathurst - COVID - PFIZER 12+ YEARS OLD,E2A 3A1,New Brunswick,1125 St.  Peter Avenue,Bathurst
a2t5o00000001XTAAY,Sobeys_Covid_Pool?,2564,Lawtons Catherwood - COVID - PFIZER PEDIATRIC 5-11 YEARS OLD,E2M 5J7,New Brunswick,107 Catherwood Street,Saint John
a2t5o00000001XUAAY,Sobeys_Covid_Pool?,2572,Lawtons Elmwood Drive - COVID - PFIZER 12+ YEARS OLD,E1A 2X4,New Brunswick,565 Elmwood Drive,Moncton
a2t5o00000001XVAAY,Sobeys_Covid_Pool?,2575,Lawtons Regent Mall - COVID - MODERNA,E3C 1A2,New Brunswick,1381 Regent Street,Fredericton
a2t5o00000001XWAAY,Sobeys_Covid_Pool?,2748,Lawtons McAllister Place - COVID - PFIZER 12+ YEARS OLD,E2J 3W9,New Brunswick,519 Westmorland Road,Saint John
a2t5o00000001XXAAY,Sobeys_Covid_Pool?,8262,Sobeys Caraquet - COVID - PFIZER PEDIATRIC 5-11 YEARS OLD,E1W 1B6,New Brunswick,10 Boulevard St. Pierre East,Caraquet
a2t5o00000001XYAAY,Sobeys_Covid_Pool?,115,Lawtons Brunswick Square - COVID - PFIZER PEDIATRIC 5-11 YEARS OLD,E2L 4W3,New Brunswick,39 King Street,Saint John
a2t5o00000001XbAAI,Sobeys_Covid_Pool?,141,Lawtons Moncton Nursing Home - COVID - PFIZER PEDIATRIC 5-11 YEARS OLD,E1C 2R4,New Brunswick,800 Mountain Road,Moncton
a2t5o00000001XcAAI,Sobeys_Covid_Pool?,147,Lawtons Mapleton - COVID - MODERNA,E1C 7W8,New Brunswick,40 Mapleton Road,Moncton
a2t5o00000001XdAAI,Sobeys_Covid_Pool?,233,Sobeys Saint John - COVID - PFIZER 12+ YEARS OLD,E2K 2Z9,New Brunswick,149 Lansdowne Avenue,Saint John
a2t5o00000001XeAAI,Sobeys_Covid_Pool?,348,Sobeys Moncton Mall - COVID - PFIZER PEDIATRIC 5-11 YEARS OLD,E1C 2T8,New Brunswick,1380 Mountain Road,Moncton
a2t5o00000001XfAAI,Sobeys_Covid_Pool?,349,Sobeys Brookside Mall - COVID - PFIZER PEDIATRIC 5-11 YEARS OLD,E3A 8V4,New Brunswick,463 Brookside Drive,Fredericton
a2t5o00000001XgAAI,Sobeys_Covid_Pool?,375,Sobeys Uptown - COVID - PFIZER PEDIATRIC 5-11 YEARS OLD,E3B 5C7,New Brunswick,1180 Prospect St,Fredericton
a2t5o00000001XhAAI,Sobeys_Covid_Pool?,495,Sobeys Rothesay - COVID - PFIZER PEDIATRIC 5-11 YEARS OLD,E2E 2R1,New Brunswick,140 Hampton Road,Rothesay
a2t5o00000001XiAAI,Sobeys_Covid_Pool?,548,Sobeys East Point - COVID - PFIZER PEDIATRIC 5-11 YEARS OLD,E2J 0H4,New Brunswick,40 East Point Way,Saint John
a2t5o00000001XjAAI,Sobeys_Covid_Pool?,602,Sobeys Champlain Mall - COVID - PFIZER PEDIATRIC 5-11 YEARS OLD,E1A 4X5,New Brunswick,477 Paul Street,Dieppe
a2t5o00000001XkAAI,Sobeys_Covid_Pool?,680,Sobeys Miramichi - COVID - PFIZER PEDIATRIC 5-11 YEARS OLD,E1V 6W6,New Brunswick,2485 King George Highway,Miramichi
a2t5o00000001XlAAI,Sobeys_Covid_Pool?,736,Sobeys Riverview - COVID - PFIZER PEDIATRIC 5-11 YEARS OLD,E1B 0J6,New Brunswick,1160 Findlay Blvd,Riverview
a2t5o00000001XmAAI,Sobeys_Covid_Pool?,738,Sobeys Shediac - COVID - PFIZER 12+ YEARS OLD,E4P 2A5,New Brunswick,183 Main Street,Shediac
a2t5o0000003hnBAAQ,Sobeys_Covid_Pool?,756,Sobeys Vaughan Harvey - COVID - PFIZER PEDIATRIC 5-11 YEARS OLD,E1C 0N3,New Brunswick,55 Vaughan Harvey Boulevard,Moncton
a2t5o0000003hgPAAQ,Sobeys_Covid_Pool?,147,Lawtons Mapleton - COVID - PFIZER PEDIATRIC 5-11 YEARS OLD,E1C 7W8,New Brunswick,40 Mapleton Road,Moncton
a2t5o0000003hpOAAQ,Sobeys_Covid_Pool?,892,Sobeys Bathurst - COVID - PFIZER PEDIATRIC 5-11 YEARS OLD,E2A 3A1,New Brunswick,1125 St.  Peter Avenue,Bathurst
a2t5o0000003hmSAAQ,Sobeys_Covid_Pool?,738,Sobeys Shediac - COVID - PFIZER PEDIATRIC 5-11 YEARS OLD,E4P 2A5,New Brunswick,183 Main Street,Shediac
a2t5o0000003hqyAAA,Sobeys_Covid_Pool?,2572,Lawtons Elmwood Drive - COVID - PFIZER PEDIATRIC 5-11 YEARS OLD,E1A 2X4,New Brunswick,565 Elmwood Drive,Moncton
a2t5o0000003hr3AAA,Sobeys_Covid_Pool?,2575,Lawtons Regent Mall - COVID - PFIZER PEDIATRIC 5-11 YEARS OLD,E3C 1A2,New Brunswick,1381 Regent Street,Fredericton
a2t5o0000003hrNAAQ,Sobeys_Covid_Pool?,2748,Lawtons McAllister Place - COVID - PFIZER PEDIATRIC 5-11 YEARS OLD,E2J 3W9,New Brunswick,519 Westmorland Road,Saint John
a2t5o0000003hodAAA,Sobeys_Covid_Pool?,849,Sobeys Regent - COVID - PFIZER PEDIATRIC 5-11 YEARS OLD,E3B 3X6,New Brunswick,407 Regent Street,Fredericton
a2t5o0000003hhmAAA,Sobeys_Covid_Pool?,233,Sobeys Saint John - COVID - PFIZER PEDIATRIC 5-11 YEARS OLD,E2K 2Z9,New Brunswick,149 Lansdowne Avenue,Saint John
a2t5o0000003hfvAAA,Sobeys_Covid_Pool?,141,Lawtons Moncton Nursing Home - COVID - MODERNA,E1C 2R4,New Brunswick,800 Mountain Road,Moncton
a2t5o00000001vzAAA,Sobeys_Covid_Pool?,375,Sobeys Uptown - COVID - PFIZER 12+ YEARS OLD,E3B 5C7,New Brunswick,1180 Prospect St,Fredericton
a2t5o00000001w9AAA,Sobeys_Covid_Pool?,495,Sobeys Rothesay - COVID - PFIZER 12+ YEARS OLD,E2E 2R1,New Brunswick,140 Hampton Road,Rothesay
a2t5o00000001wEAAQ,Sobeys_Covid_Pool?,2564,Lawtons Catherwood - COVID - PFIZER 12+ YEARS OLD,E2M 5J7,New Brunswick,107 Catherwood Street,Saint John
a2t5o00000001vuAAA,Sobeys_Covid_Pool?,349,Sobeys Brookside Mall - COVID - PFIZER 12+ YEARS OLD,E3A 8V4,New Brunswick,463 Brookside Drive,Fredericton
a2t5o00000001w4AAA,Sobeys_Covid_Pool?,860,Sobeys Miramichi Road - COVID - PFIZER 12+ YEARS OLD,E2V 4T4,New Brunswick,375 Miramichi Road,Oromocto
a2t5o00000001yKAAQ,Sobeys_Covid_Pool?,783,Sobeys Elmwood Drive - COVID - MODERNA,E1A 9G6,New Brunswick,77 Filles de Jesus Avenue,Moncton
a2t5o00000001xvAAA,Sobeys_Covid_Pool?,548,Sobeys East Point - COVID - MODERNA,E2J 0H4,New Brunswick,40 East Point Way,Saint John
a2t5o00000001y0AAA,Sobeys_Covid_Pool?,602,Sobeys Champlain Mall - COVID - MODERNA,E1A 4X5,New Brunswick,477 Paul Street,Dieppe
a2t5o00000001y5AAA,Sobeys_Covid_Pool?,680,Sobeys Miramichi - COVID - MODERNA,E1V 6W6,New Brunswick,2485 King George Highway,Miramichi
a2t5o00000001yAAAQ,Sobeys_Covid_Pool?,736,Sobeys Riverview - COVID - MODERNA,E1B 0J6,New Brunswick,1160 Findlay Blvd,Riverview
a2t5o00000001yFAAQ,Sobeys_Covid_Pool?,778,Sobeys Saint John West - COVID - MODERNA,E2M 0C2,New Brunswick,1 Plaza Avenue,Saint John
a2t5o00000001xlAAA,Sobeys_Covid_Pool?,348,Sobeys Moncton Mall - COVID - MODERNA,E1C 2T8,New Brunswick,1380 Mountain Road,Moncton
a2t5o00000001xgAAA,Sobeys_Covid_Pool?,115,Lawtons Brunswick Square - COVID - MODERNA,E2L 4W3,New Brunswick,39 King Street,Saint John
a2t5o00000001xqAAA,Sobeys_Covid_Pool?,8262,Sobeys Caraquet - COVID - MODERNA,E1W 1B6,New Brunswick,10 Boulevard St. Pierre East,Caraquet
a2t5o00000001L7AAI,Sobeys_Covid_Pool?,140,Lawtons Kelligrews - COVID - MODERNA,A1X 7L5,Newfoundland and Labrador,"645 Conception Bay Highway, Suite 102",Conception Bay South
a2t5o00000001LVAAY,Sobeys_Covid_Pool?,403,Lawtons Springdale - COVID - MODERNA,A0J 1T0,Newfoundland and Labrador,"190 Main Street, PO Box 640",Springdale
a2t5o00000001LZAAY,Sobeys_Covid_Pool?,822,Lawtons Clarke's Beach - COVID - MODERNA,A0A 1W0,Newfoundland and Labrador,"123 Conception Bay Highway, PO Box 550",Clarke's Beach
a2t5o00000001LdAAI,Sobeys_Covid_Pool?,9267,FoodLand Bay Roberts - COVID - MODERNA,AOA 1G0,Newfoundland and Labrador,"Beaver Plaza, PO Box 730",Bay Roberts
a2t5o00000001LkAAI,Sobeys_Covid_Pool?,2567,Lawtons Corner Brook - COVID - MODERNA,A2H 5M8,Newfoundland and Labrador,"P.O Box 130, 137 O'Connell Drive",Corner Brook
a2t5o00000001MbAAI,Sobeys_Covid_Pool?,80,Lawtons NL Wholesle Division - COVID - MODERNA,A1N 4T5,Newfoundland and Labrador,"1 Home Street, Donovan's Industrial Park",Mount Pearl
a2t5o0000003hdGAAQ,Sobeys_Covid_Pool?,80,Lawtons NL Wholesle Division - COVID - PFIZER PEDIATRIC 5-11 YEARS OLD,A1N 4T5,Newfoundland and Labrador,"1 Home Street, Donovan's Industrial Park",Mount Pearl
a2t5o0000003i2uAAA,Sobeys_Covid_Pool?,9267,FoodLand Bay Roberts - COVID - PFIZER 12+ YEARS OLD,AOA 1G0,Newfoundland and Labrador,"Beaver Plaza, PO Box 730",Bay Roberts
a2t5o0000003hqpAAA,Sobeys_Covid_Pool?,2567,Lawtons Corner Brook - COVID - PFIZER PEDIATRIC 5-11 YEARS OLD,A2H 5M8,Newfoundland and Labrador,"P.O Box 130, 137 O'Connell Drive",Corner Brook
a2t5o0000003hgkAAA,Sobeys_Covid_Pool?,2567,Lawtons Corner Brook - COVID - PFIZER 12+ YEARS OLD,A2H 5M8,Newfoundland and Labrador,"P.O Box 130, 137 O'Connell Drive",Corner Brook
a2t5o0000003hlrAAA,Sobeys_Covid_Pool?,9267,FoodLand Bay Roberts - COVID - PFIZER PEDIATRIC 5-11 YEARS OLD,AOA 1G0,Newfoundland and Labrador,"Beaver Plaza, PO Box 730",Bay Roberts
a2t5o0000003hjJAAQ,Sobeys_Covid_Pool?,403,Lawtons Springdale - COVID - PFIZER 12+ YEARS OLD,A0J 1T0,Newfoundland and Labrador,"190 Main Street, PO Box 640",Springdale
a2t5o0000003hjEAAQ,Sobeys_Covid_Pool?,403,Lawtons Springdale - COVID - PFIZER PEDIATRIC 5-11 YEARS OLD,A0J 1T0,Newfoundland and Labrador,"190 Main Street, PO Box 640",Springdale
a2t5o0000003hdLAAQ,Sobeys_Covid_Pool?,80,Lawtons NL Wholesle Division - COVID - PFIZER 12+ YEARS OLD,A1N 4T5,Newfoundland and Labrador,"1 Home Street, Donovan's Industrial Park",Mount Pearl
a2t5o0000003ho4AAA,Sobeys_Covid_Pool?,822,Lawtons Clarke's Beach - COVID - PFIZER 12+ YEARS OLD,A0A 1W0,Newfoundland and Labrador,"123 Conception Bay Highway, PO Box 550",Clarke's Beach
a2t5o0000003hflAAA,Sobeys_Covid_Pool?,140,Lawtons Kelligrews - COVID - PFIZER PEDIATRIC 5-11 YEARS OLD,A1X 7L5,Newfoundland and Labrador,"645 Conception Bay Highway, Suite 102",Conception Bay South
a2t5o0000003hfqAAA,Sobeys_Covid_Pool?,140,Lawtons Kelligrews - COVID - PFIZER 12+ YEARS OLD,A1X 7L5,Newfoundland and Labrador,"645 Conception Bay Highway, Suite 102",Conception Bay South
a2t5o0000003hnzAAA,Sobeys_Covid_Pool?,822,Lawtons Clarke's Beach - COVID - PFIZER PEDIATRIC 5-11 YEARS OLD,A0A 1W0,Newfoundland and Labrador,"123 Conception Bay Highway, PO Box 550",Clarke's Beach
a2t5o00000001L8AAI,Sobeys_Covid_Pool?,142,Lawtons Avalon Mall - COVID - MODERNA,A1B 1W3,Newfoundland and Labrador,48 Kenmount Road,St. John's
a2t5o00000001L9AAI,Sobeys_Covid_Pool?,154,Lawtons Campbell Avenue - COVID - MODERNA,A1E 2Z3,Newfoundland and Labrador,37 Campbell Avenue,St. John's
a2t5o00000001LAAAY,Sobeys_Covid_Pool?,173,Lawtons Wedgewood - COVID - MODERNA,A1A 2M7,Newfoundland and Labrador,12 Gleneyre Street,St. John's
a2t5o00000001LTAAY,Sobeys_Covid_Pool?,340,Sobeys Topsail Road - COVID - MODERNA,A1E 2C3,Newfoundland and Labrador,470 Topsail Road,St. John's
a2t5o00000001LUAAY,Sobeys_Covid_Pool?,369,Lawtons Deer Lake - COVID - MODERNA,A8A 1J4,Newfoundland and Labrador,4 Farm Road,Deer Lake
a2t5o00000001LWAAY,Sobeys_Covid_Pool?,549,Lawtons Gander - COVID - MODERNA,A1V 1H6,Newfoundland and Labrador,177 Elizabeth Drive,Gander
a2t5o00000001LXAAY,Sobeys_Covid_Pool?,590,Sobeys Conception Bay - COVID - MODERNA,A1X 7A3,Newfoundland and Labrador,350 Conception Bay Hwy,Conception Bay South
a2t5o00000001LYAAY,Sobeys_Covid_Pool?,810,Lawtons Topsail Road - COVID - MODERNA,A1E 2C2,Newfoundland and Labrador,496 Topsail Road,St. John's
a2t5o00000001LaAAI,Sobeys_Covid_Pool?,823,Lawtons Downtown Pharmacy - COVID - MODERNA,A2H 4B8,Newfoundland and Labrador,3 Herald Avenue,Corner Brook
a2t5o00000001LbAAI,Sobeys_Covid_Pool?,855,Sobeys Mt. Pearl - COVID - MODERNA,A1N 4Y1,Newfoundland and Labrador,50 Old Placentia Road,Mount Pearl
a2t5o00000001LcAAI,Sobeys_Covid_Pool?,857,Sobeys Merrymeeting Road - COVID - MODERNA,A1C 2V5,Newfoundland and Labrador,8 Merrymeeting Road,St. John's
a2t5o00000001LeAAI,Sobeys_Covid_Pool?,9272,FoodLand Grand Bank - COVID - MODERNA,A0E 1W0,Newfoundland and Labrador,Highway Route 220,Grand Bank
a2t5o00000001LhAAI,Sobeys_Covid_Pool?,861,Sobeys Mount Bernard Avenue - COVID - MODERNA,A2H 6Y5,Newfoundland and Labrador,1 Mount Bernard Avenue,Corner Brook
a2t5o00000001LiAAI,Sobeys_Covid_Pool?,887,Lawtons Paradise - COVID - MODERNA,A1L 1P6,Newfoundland and Labrador,1386 Topsail Road,Paradise
a2t5o00000001LjAAI,Sobeys_Covid_Pool?,2566,Lawtons Elizabeth Avenue - COVID - MODERNA,A1A 1W6,Newfoundland and Labrador,11 Elizabeth Avenue,St. John's
a2t5o00000001LlAAI,Sobeys_Covid_Pool?,2743,Lawtons Trepassey - COVID - MODERNA,A0A 4B0,Newfoundland and Labrador,80 Nurse Abernethy Clinic,Trepassey
a2t5o00000001M0AAI,Sobeys_Covid_Pool?,106,Lawtons Centennial Square - COVID - MODERNA,A1N 2C3,Newfoundland and Labrador,279 - 8 Centennial Square,Mount Pearl
a2t5o00000001M1AAI,Sobeys_Covid_Pool?,125,Lawtons Lewisporte - COVID - MODERNA,A0G 3A0,Newfoundland and Labrador,486 Main Street W.,Lewisporte
a2t5o00000001M2AAI,Sobeys_Covid_Pool?,126,Lawtons Placentia - COVID - MODERNA,A0B 2Y0,Newfoundland and Labrador,29-34 Prince William Drive,Placentia
a2t5o00000001M3AAI,Sobeys_Covid_Pool?,320,Sobeys Torbay - COVID - MODERNA,A1A 4E1,Newfoundland and Labrador,360 Torbay Road,St. John's
a2t5o00000001M4AAI,Sobeys_Covid_Pool?,604,Sobeys Ropewalk Lane - COVID - MODERNA,A1E 4P1,Newfoundland and Labrador,65 Ropewalk Lane,St. John's
a2t5o00000001M5AAI,Sobeys_Covid_Pool?,658,Sobeys Grand Falls - COVID - MODERNA,A2A 1X3,Newfoundland and Labrador,21 Cromer Avenue,Grand Falls
a2t5o00000001M6AAI,Sobeys_Covid_Pool?,681,Sobeys Kenmount - COVID - MODERNA,A1B 5C8,Newfoundland and Labrador,45 Kelsey Drive,St. John's 
a2t5o00000001M7AAI,Sobeys_Covid_Pool?,744,Sobeys Howley Estates - COVID - MODERNA,A1A 1W4,Newfoundland and Labrador,10 Elizabeth Avenue East,St. John's
a2t5o00000001M8AAI,Sobeys_Covid_Pool?,792,Sobeys Marystown - COVID - MODERNA,A0E 2M0,Newfoundland and Labrador,1 - 23 Columbia Drive   PO BOX 397,Marystown
a2t5o0000003hhwAAA,Sobeys_Covid_Pool?,320,Sobeys Torbay - COVID - PFIZER 12+ YEARS OLD,A1A 4E1,Newfoundland and Labrador,360 Torbay Road,St. John's
a2t5o0000003hnaAAA,Sobeys_Covid_Pool?,792,Sobeys Marystown - COVID - PFIZER 12+ YEARS OLD,A0E 2M0,Newfoundland and Labrador,1 - 23 Columbia Drive   PO BOX 397,Marystown
a2t5o0000003hdpAAA,Sobeys_Covid_Pool?,106,Lawtons Centennial Square - COVID - PFIZER 12+ YEARS OLD,A1N 2C3,Newfoundland and Labrador,279 - 8 Centennial Square,Mount Pearl
a2t5o0000003hqoAAA,Sobeys_Covid_Pool?,2566,Lawtons Elizabeth Avenue - COVID - PFIZER 12+ YEARS OLD,A1A 1W6,Newfoundland and Labrador,11 Elizabeth Avenue,St. John's
a2t5o0000003hosAAA,Sobeys_Covid_Pool?,857,Sobeys Merrymeeting Road - COVID - PFIZER PEDIATRIC 5-11 YEARS OLD,A1C 2V5,Newfoundland and Labrador,8 Merrymeeting Road,St. John's
a2t5o0000003hgjAAA,Sobeys_Covid_Pool?,154,Lawtons Campbell Avenue - COVID - PFIZER 12+ YEARS OLD,A1E 2Z3,Newfoundland and Labrador,37 Campbell Avenue,St. John's
a2t5o0000003hf2AAA,Sobeys_Covid_Pool?,126,Lawtons Placentia - COVID - PFIZER 12+ YEARS OLD,A0B 2Y0,Newfoundland and Labrador,29-34 Prince William Drive,Placentia
a2t5o0000003hk7AAA,Sobeys_Covid_Pool?,590,Sobeys Conception Bay - COVID - PFIZER 12+ YEARS OLD,A1X 7A3,Newfoundland and Labrador,350 Conception Bay Hwy,Conception Bay South
a2t5o0000003hhJAAQ,Sobeys_Covid_Pool?,590,Sobeys Conception Bay - COVID - PFIZER PEDIATRIC 5-11 YEARS OLD,A1X 7A3,Newfoundland and Labrador,350 Conception Bay Hwy,Conception Bay South
a2t5o0000003hexAAA,Sobeys_Covid_Pool?,126,Lawtons Placentia - COVID - PFIZER PEDIATRIC 5-11 YEARS OLD,A0B 2Y0,Newfoundland and Labrador,29-34 Prince William Drive,Placentia
a2t5o0000003hg0AAA,Sobeys_Covid_Pool?,142,Lawtons Avalon Mall - COVID - PFIZER PEDIATRIC 5-11 YEARS OLD,A1B 1W3,Newfoundland and Labrador,48 Kenmount Road,St. John's
a2t5o0000003hhSAAQ,Sobeys_Covid_Pool?,173,Lawtons Wedgewood - COVID - PFIZER PEDIATRIC 5-11 YEARS OLD,A1A 2M7,Newfoundland and Labrador,12 Gleneyre Street,St. John's
a2t5o0000003hgeAAA,Sobeys_Covid_Pool?,154,Lawtons Campbell Avenue - COVID - PFIZER PEDIATRIC 5-11 YEARS OLD,A1E 2Z3,Newfoundland and Labrador,37 Campbell Avenue,St. John's
a2t5o0000003hifAAA,Sobeys_Covid_Pool?,340,Sobeys Topsail Road - COVID - PFIZER PEDIATRIC 5-11 YEARS OLD,A1E 2C3,Newfoundland and Labrador,470 Topsail Road,St. John's
a2t5o0000003hiuAAA,Sobeys_Covid_Pool?,369,Lawtons Deer Lake - COVID - PFIZER 12+ YEARS OLD,A8A 1J4,Newfoundland and Labrador,4 Farm Road,Deer Lake
a2t5o0000003hfJAAQ,Sobeys_Covid_Pool?,658,Sobeys Grand Falls - COVID - PFIZER PEDIATRIC 5-11 YEARS OLD,A2A 1X3,Newfoundland and Labrador,21 Cromer Avenue,Grand Falls
a2t5o0000003henAAA,Sobeys_Covid_Pool?,125,Lawtons Lewisporte - COVID - PFIZER PEDIATRIC 5-11 YEARS OLD,A0G 3A0,Newfoundland and Labrador,486 Main Street W.,Lewisporte
a2t5o0000003hjdAAA,Sobeys_Covid_Pool?,549,Lawtons Gander - COVID - PFIZER 12+ YEARS OLD,A1V 1H6,Newfoundland and Labrador,177 Elizabeth Drive,Gander
a2t5o0000003honAAA,Sobeys_Covid_Pool?,855,Sobeys Mt. Pearl - COVID - PFIZER 12+ YEARS OLD,A1N 4Y1,Newfoundland and Labrador,50 Old Placentia Road,Mount Pearl
a2t5o0000003hmhAAA,Sobeys_Covid_Pool?,744,Sobeys Howley Estates - COVID - PFIZER PEDIATRIC 5-11 YEARS OLD,A1A 1W4,Newfoundland and Labrador,10 Elizabeth Avenue East,St. John's
a2t5o0000003hlPAAQ,Sobeys_Covid_Pool?,658,Sobeys Grand Falls - COVID - PFIZER 12+ YEARS OLD,A2A 1X3,Newfoundland and Labrador,21 Cromer Avenue,Grand Falls
a2t5o0000003hmmAAA,Sobeys_Covid_Pool?,744,Sobeys Howley Estates - COVID - PFIZER 12+ YEARS OLD,A1A 1W4,Newfoundland and Labrador,10 Elizabeth Avenue East,St. John's
a2t5o0000003hrIAAQ,Sobeys_Covid_Pool?,2743,Lawtons Trepassey - COVID - PFIZER 12+ YEARS OLD,A0A 4B0,Newfoundland and Labrador,80 Nurse Abernethy Clinic,Trepassey
a2t5o0000003hoiAAA,Sobeys_Covid_Pool?,855,Sobeys Mt. Pearl - COVID - PFIZER PEDIATRIC 5-11 YEARS OLD,A1N 4Y1,Newfoundland and Labrador,50 Old Placentia Road,Mount Pearl
a2t5o0000003hkMAAQ,Sobeys_Covid_Pool?,604,Sobeys Ropewalk Lane - COVID - PFIZER PEDIATRIC 5-11 YEARS OLD,A1E 4P1,Newfoundland and Labrador,65 Ropewalk Lane,St. John's
a2t5o0000003hkRAAQ,Sobeys_Covid_Pool?,604,Sobeys Ropewalk Lane - COVID - PFIZER 12+ YEARS OLD,A1E 4P1,Newfoundland and Labrador,65 Ropewalk Lane,St. John's
a2t5o0000003hkSAAQ,Sobeys_Covid_Pool?,887,Lawtons Paradise - COVID - PFIZER 12+ YEARS OLD,A1L 1P6,Newfoundland and Labrador,1386 Topsail Road,Paradise
a2t5o0000003hmTAAQ,Sobeys_Covid_Pool?,9272,FoodLand Grand Bank - COVID - PFIZER PEDIATRIC 5-11 YEARS OLD,A0E 1W0,Newfoundland and Labrador,Highway Route 220,Grand Bank
a2t5o0000003hjAAAQ,Sobeys_Covid_Pool?,681,Sobeys Kenmount - COVID - PFIZER PEDIATRIC 5-11 YEARS OLD,A1B 5C8,Newfoundland and Labrador,45 Kelsey Drive,St. John's 
a2t5o0000003hipAAA,Sobeys_Covid_Pool?,369,Lawtons Deer Lake - COVID - PFIZER PEDIATRIC 5-11 YEARS OLD,A8A 1J4,Newfoundland and Labrador,4 Farm Road,Deer Lake
a2t5o0000003hjFAAQ,Sobeys_Covid_Pool?,857,Sobeys Merrymeeting Road - COVID - PFIZER 12+ YEARS OLD,A1C 2V5,Newfoundland and Labrador,8 Merrymeeting Road,St. John's
a2t5o0000003ho9AAA,Sobeys_Covid_Pool?,823,Lawtons Downtown Pharmacy - COVID - PFIZER PEDIATRIC 5-11 YEARS OLD,A2H 4B8,Newfoundland and Labrador,3 Herald Avenue,Corner Brook
a2t5o0000003hnuAAA,Sobeys_Covid_Pool?,810,Lawtons Topsail Road - COVID - PFIZER 12+ YEARS OLD,A1E 2C2,Newfoundland and Labrador,496 Topsail Road,St. John's
a2t5o0000003hikAAA,Sobeys_Covid_Pool?,340,Sobeys Topsail Road - COVID - PFIZER 12+ YEARS OLD,A1E 2C3,Newfoundland and Labrador,470 Topsail Road,St. John's
a2t5o0000003himAAA,Sobeys_Covid_Pool?,2743,Lawtons Trepassey - COVID - PFIZER PEDIATRIC 5-11 YEARS OLD,A0A 4B0,Newfoundland and Labrador,80 Nurse Abernethy Clinic,Trepassey
a2t5o0000003hnpAAA,Sobeys_Covid_Pool?,810,Lawtons Topsail Road - COVID - PFIZER PEDIATRIC 5-11 YEARS OLD,A1E 2C2,Newfoundland and Labrador,496 Topsail Road,St. John's
a2t5o0000003hhrAAA,Sobeys_Covid_Pool?,320,Sobeys Torbay - COVID - PFIZER PEDIATRIC 5-11 YEARS OLD,A1A 4E1,Newfoundland and Labrador,360 Torbay Road,St. John's
a2t5o0000003hjYAAQ,Sobeys_Covid_Pool?,549,Lawtons Gander - COVID - PFIZER PEDIATRIC 5-11 YEARS OLD,A1V 1H6,Newfoundland and Labrador,177 Elizabeth Drive,Gander
a2t5o0000003hhXAAQ,Sobeys_Covid_Pool?,173,Lawtons Wedgewood - COVID - PFIZER 12+ YEARS OLD,A1A 2M7,Newfoundland and Labrador,12 Gleneyre Street,St. John's
a2t5o0000003hk3AAA,Sobeys_Covid_Pool?,792,Sobeys Marystown - COVID - PFIZER PEDIATRIC 5-11 YEARS OLD,A0E 2M0,Newfoundland and Labrador,1 - 23 Columbia Drive   PO BOX 397,Marystown
a2t5o0000003hoxAAA,Sobeys_Covid_Pool?,861,Sobeys Mount Bernard Avenue - COVID - PFIZER 12+ YEARS OLD,A2H 6Y5,Newfoundland and Labrador,1 Mount Bernard Avenue,Corner Brook
a2t5o0000003i0aAAA,Sobeys_Covid_Pool?,9272,FoodLand Grand Bank - COVID - PFIZER 12+ YEARS OLD,A0E 1W0,Newfoundland and Labrador,Highway Route 220,Grand Bank
a2t5o0000003hfrAAA,Sobeys_Covid_Pool?,681,Sobeys Kenmount - COVID - PFIZER 12+ YEARS OLD,A1B 5C8,Newfoundland and Labrador,45 Kelsey Drive,St. John's 
a2t5o0000003hdkAAA,Sobeys_Covid_Pool?,106,Lawtons Centennial Square - COVID - PFIZER PEDIATRIC 5-11 YEARS OLD,A1N 2C3,Newfoundland and Labrador,279 - 8 Centennial Square,Mount Pearl
a2t5o0000003hdlAAA,Sobeys_Covid_Pool?,861,Sobeys Mount Bernard Avenue - COVID - PFIZER PEDIATRIC 5-11 YEARS OLD,A2H 6Y5,Newfoundland and Labrador,1 Mount Bernard Avenue,Corner Brook
a2t5o0000003hqjAAA,Sobeys_Covid_Pool?,2566,Lawtons Elizabeth Avenue - COVID - PFIZER PEDIATRIC 5-11 YEARS OLD,A1A 1W6,Newfoundland and Labrador,11 Elizabeth Avenue,St. John's
a2t5o0000003hg5AAA,Sobeys_Covid_Pool?,142,Lawtons Avalon Mall - COVID - PFIZER 12+ YEARS OLD,A1B 1W3,Newfoundland and Labrador,48 Kenmount Road,St. John's
a2t5o0000003hoEAAQ,Sobeys_Covid_Pool?,823,Lawtons Downtown Pharmacy - COVID - PFIZER 12+ YEARS OLD,A2H 4B8,Newfoundland and Labrador,3 Herald Avenue,Corner Brook
a2t5o0000003hesAAA,Sobeys_Covid_Pool?,125,Lawtons Lewisporte - COVID - PFIZER 12+ YEARS OLD,A0G 3A0,Newfoundland and Labrador,486 Main Street W.,Lewisporte
a2t5o0000003hpbAAA,Sobeys_Covid_Pool?,887,Lawtons Paradise - COVID - PFIZER PEDIATRIC 5-11 YEARS OLD,A1L 1P6,Newfoundland and Labrador,1386 Topsail Road,Paradise
a2t5o00000001KSAAY,Sobeys_Covid_Pool?,232,Sobeys Pictou - COVID - PFIZER,B0K 1H0,Nova Scotia,"239 West River Road, PO Box 879",Pictou
a2t5o00000001KeAAI,Sobeys_Covid_Pool?,672,Sobeys Windsor - COVID - PFIZER,B0N 2T0,Nova Scotia,"50 Empire Lane, PO Box 2229",Windsor
a2t5o00000001KgAAI,Sobeys_Covid_Pool?,719,Sobeys Digby - COVID - PFIZER,B0V 1A0,Nova Scotia,"110 Warwick Street, PO Box 937",Digby
a2t5o00000001KlAAI,Sobeys_Covid_Pool?,746,Sobeys Greenwood - COVID - PFIZER,B0P 1R0,Nova Scotia,"720 Central Avenue, PO Box 70",Kingston
a2t5o00000001KsAAI,Sobeys_Covid_Pool?,2553,Lawtons Mill Cove Nursing Home Services - COVID - PFIZER,B4A 1A9,Nova Scotia,"967 Bedford Highway, Suite 100",Bedford
a2t5o00000001KvAAI,Sobeys_Covid_Pool?,2562,Lawtons Amherst - COVID - PFIZER,B4H 3G5,Nova Scotia,"2 Lawrence Street, Suite 101",Amherst
a2t5o00000001L0AAI,Sobeys_Covid_Pool?,2576,Lawtons Porters Lake - COVID - PFIZER,B3E 1J8,Nova Scotia,"5228 7 Highway, Unit 17",Porters Lake
a2t5o00000001L1AAI,Sobeys_Covid_Pool?,2577,Lawtons East River Road LTC - COVID - PFIZER,B2H 3S3,Nova Scotia,"810 East River Road, Unit 200 ",New Glasgow
a2t5o00000001L3AAI,Sobeys_Covid_Pool?,2750,Lawtons Spryfield - COVID - PFIZER,B3R 2H9,Nova Scotia,"16 Dentith Road, Unit A10",Halifax
a2t5o00000001LHAAY,Sobeys_Covid_Pool?,834,Lawtons Lawtons Cape Breton NHS - COVID - PFIZER,B1P 1G7,Nova Scotia,"185 Bentinck Street, Suite 202",Sydney
a2t5o00000001LxAAI,Sobeys_Covid_Pool?,2551,Lawtons Tantallon - COVID - PFIZER,B3Z 1E2,Nova Scotia,"5110 St Margaret's Bay Rd, Suite 101",Upper Tantallon
a2t5o00000001LzAAI,Sobeys_Covid_Pool?,9070,FoodLand St. Peters - COVID - PFIZER,B0E 3B0,Nova Scotia,"10004 Grenville Street,  PO Box 39",St. Peters
a2t5o00000001KEAAY,Sobeys_Covid_Pool?,123,Lawtons Primrose Street - COVID - PFIZER,B3A 4C5,Nova Scotia,"6 Primrose Street, Suite 110",Dartmouth
a2t5o00000001KHAAY,Sobeys_Covid_Pool?,132,Lawtons Spring Garden Road - COVID - PFIZER,B3H 1Y6,Nova Scotia,"5991 Spring Garden Road, Suite 100",Halifax
a2t5o0000003hdRAAQ,Sobeys_Covid_Pool?,2553,Lawtons Mill Cove Nursing Home Services - COVID - MODERNA,B4A 1A9,Nova Scotia,"967 Bedford Highway, Suite 100",Bedford
a2t5o0000003hleAAA,Sobeys_Covid_Pool?,672,Sobeys Windsor - COVID - ASTRAZENECA,B0N 2T0,Nova Scotia,"50 Empire Lane, PO Box 2229",Windsor
a2t5o0000003hloAAA,Sobeys_Covid_Pool?,719,Sobeys Digby - COVID - ASTRAZENECA,B0V 1A0,Nova Scotia,"110 Warwick Street, PO Box 937",Digby
a2t5o0000003i2kAAA,Sobeys_Covid_Pool?,9070,FoodLand St. Peters - COVID - ASTRAZENECA,B0E 3B0,Nova Scotia,"10004 Grenville Street,  PO Box 39",St. Peters
a2t5o0000003hqPAAQ,Sobeys_Covid_Pool?,2562,Lawtons Amherst - COVID - ASTRAZENECA,B4H 3G5,Nova Scotia,"2 Lawrence Street, Suite 101",Amherst
a2t5o0000003hiCAAQ,Sobeys_Covid_Pool?,2577,Lawtons East River Road LTC - COVID - ASTRAZENECA,B2H 3S3,Nova Scotia,"810 East River Road, Unit 200 ",New Glasgow
a2t5o0000003heTAAQ,Sobeys_Covid_Pool?,123,Lawtons Primrose Street - COVID - ASTRAZENECA,B3A 4C5,Nova Scotia,"6 Primrose Street, Suite 110",Dartmouth
a2t5o0000003hfHAAQ,Sobeys_Covid_Pool?,132,Lawtons Spring Garden Road - COVID - ASTRAZENECA,B3H 1Y6,Nova Scotia,"5991 Spring Garden Road, Suite 100",Halifax
a2t5o0000003hfIAAQ,Sobeys_Covid_Pool?,132,Lawtons Spring Garden Road - COVID - MODERNA,B3H 1Y6,Nova Scotia,"5991 Spring Garden Road, Suite 100",Halifax
a2t5o0000003hjLAAQ,Sobeys_Covid_Pool?,2551,Lawtons Tantallon - COVID - ASTRAZENECA,B3Z 1E2,Nova Scotia,"5110 St Margaret's Bay Rd, Suite 101",Upper Tantallon
a2t5o0000003hoTAAQ,Sobeys_Covid_Pool?,834,Lawtons Lawtons Cape Breton NHS - COVID - ASTRAZENECA,B1P 1G7,Nova Scotia,"185 Bentinck Street, Suite 202",Sydney
a2t5o0000003hhhAAA,Sobeys_Covid_Pool?,232,Sobeys Pictou - COVID - MODERNA,B0K 1H0,Nova Scotia,"239 West River Road, PO Box 879",Pictou
a2t5o0000003hoYAAQ,Sobeys_Covid_Pool?,834,Lawtons Lawtons Cape Breton NHS - COVID - MODERNA,B1P 1G7,Nova Scotia,"185 Bentinck Street, Suite 202",Sydney
a2t5o0000003hmrAAA,Sobeys_Covid_Pool?,746,Sobeys Greenwood - COVID - ASTRAZENECA,B0P 1R0,Nova Scotia,"720 Central Avenue, PO Box 70",Kingston
a2t5o0000003hhcAAA,Sobeys_Covid_Pool?,232,Sobeys Pictou - COVID - ASTRAZENECA,B0K 1H0,Nova Scotia,"239 West River Road, PO Box 879",Pictou
a2t5o0000003hmwAAA,Sobeys_Covid_Pool?,746,Sobeys Greenwood - COVID - MODERNA,B0P 1R0,Nova Scotia,"720 Central Avenue, PO Box 70",Kingston
a2t5o0000003hqUAAQ,Sobeys_Covid_Pool?,2562,Lawtons Amherst - COVID - MODERNA,B4H 3G5,Nova Scotia,"2 Lawrence Street, Suite 101",Amherst
a2t5o0000003i2pAAA,Sobeys_Covid_Pool?,9070,FoodLand St. Peters - COVID - MODERNA,B0E 3B0,Nova Scotia,"10004 Grenville Street,  PO Box 39",St. Peters
a2t5o0000003hk4AAA,Sobeys_Covid_Pool?,2576,Lawtons Porters Lake - COVID - MODERNA,B3E 1J8,Nova Scotia,"5228 7 Highway, Unit 17",Porters Lake
a2t5o0000003hrcAAA,Sobeys_Covid_Pool?,2750,Lawtons Spryfield - COVID - ASTRAZENECA,B3R 2H9,Nova Scotia,"16 Dentith Road, Unit A10",Halifax
a2t5o0000003hdmAAA,Sobeys_Covid_Pool?,2553,Lawtons Mill Cove Nursing Home Services - COVID - ASTRAZENECA,B4A 1A9,Nova Scotia,"967 Bedford Highway, Suite 100",Bedford
a2t5o0000003hltAAA,Sobeys_Covid_Pool?,719,Sobeys Digby - COVID - MODERNA,B0V 1A0,Nova Scotia,"110 Warwick Street, PO Box 937",Digby
a2t5o0000003hrDAAQ,Sobeys_Covid_Pool?,2577,Lawtons East River Road LTC - COVID - MODERNA,B2H 3S3,Nova Scotia,"810 East River Road, Unit 200 ",New Glasgow
a2t5o0000003hrhAAA,Sobeys_Covid_Pool?,2750,Lawtons Spryfield - COVID - MODERNA,B3R 2H9,Nova Scotia,"16 Dentith Road, Unit A10",Halifax
a2t5o0000003hj5AAA,Sobeys_Covid_Pool?,672,Sobeys Windsor - COVID - MODERNA,B0N 2T0,Nova Scotia,"50 Empire Lane, PO Box 2229",Windsor
a2t5o0000003heYAAQ,Sobeys_Covid_Pool?,123,Lawtons Primrose Street - COVID - MODERNA,B3A 4C5,Nova Scotia,"6 Primrose Street, Suite 110",Dartmouth
a2t5o0000003hq0AAA,Sobeys_Covid_Pool?,2551,Lawtons Tantallon - COVID - MODERNA,B3Z 1E2,Nova Scotia,"5110 St Margaret's Bay Rd, Suite 101",Upper Tantallon
a2t5o0000003hr8AAA,Sobeys_Covid_Pool?,2576,Lawtons Porters Lake - COVID - ASTRAZENECA,B3E 1J8,Nova Scotia,"5228 7 Highway, Unit 17",Porters Lake
a2t5o00000001KJAAY,Sobeys_Covid_Pool?,136,Lawtons Glace Bay - COVID - PFIZER,B1A 3C6,Nova Scotia,290 Commercial Street,Glace Bay
a2t5o00000001KKAAY,Sobeys_Covid_Pool?,144,Lawtons Scotia Square - COVID - PFIZER,B3J 1N9,Nova Scotia,5201 Duke Street,Halifax
a2t5o00000001KLAAY,Sobeys_Covid_Pool?,145,Lawtons Musquodoboit - COVID - PFIZER,B0J 2L0,Nova Scotia,8003 7 Highway,Musquodoboit Harbour
a2t5o00000001KMAAY,Sobeys_Covid_Pool?,150,Lawtons Sydney - COVID - PFIZER,B1P 1K7,Nova Scotia,540 George Street,Sydney
a2t5o00000001KNAAY,Sobeys_Covid_Pool?,157,Lawtons Northwood Terrace NHS - COVID - PFIZER,B3K 3S5,Nova Scotia,2615 Northwood Terrace,Halifax
a2t5o00000001KOAAY,Sobeys_Covid_Pool?,162,Lawtons Sheet Harbour - COVID - PFIZER,B0J 3B0,Nova Scotia,22624 7 Highway,Sheet Harbour
a2t5o00000001KPAAY,Sobeys_Covid_Pool?,163,Lawtons Gladstone - COVID - PFIZER,B3K 5R3,Nova Scotia,6155 North Street,Halifax
a2t5o00000001KQAAY,Sobeys_Covid_Pool?,169,Lawtons Yarmouth - COVID - PFIZER,B5A 2T5,Nova Scotia,76 Starrs Road,Yarmouth
a2t5o00000001KRAAY,Sobeys_Covid_Pool?,172,Lawtons Duffus Street - COVID - PFIZER,B3K 2M5,Nova Scotia,5515 Duffus Street,Halifax
a2t5o00000001KTAAY,Sobeys_Covid_Pool?,321,Sobeys Spryfield - COVID - PFIZER,B3P 1M2,Nova Scotia,279 Herring Cove Road,Halifax
a2t5o00000001KUAAY,Sobeys_Covid_Pool?,323,Sobeys Barrington Passage - COVID - PFIZER,B0W 1G0,Nova Scotia,3552 Highway 3,Barrington Passage
a2t5o00000001KVAAY,Sobeys_Covid_Pool?,328,Sobeys Glace Bay - COVID - PFIZER,B1A 4W5,Nova Scotia,144 Reserve Street,Glace Bay
a2t5o00000001KWAAY,Sobeys_Covid_Pool?,329,Sobeys Timberlea - COVID - PFIZER,B3T 1L5,Nova Scotia,65 Marketway Lane,Timberlea
a2t5o00000001KXAAY,Sobeys_Covid_Pool?,370,Sobeys Aberdeen Mall - COVID - PFIZER,B2H 3S2,Nova Scotia,610 East River Road,New Glasgow
a2t5o00000001KYAAY,Sobeys_Covid_Pool?,510,Sobeys North Sydney - COVID - PFIZER,B2A 3R7,Nova Scotia,116 King Street,North Sydney
a2t5o00000001KZAAY,Sobeys_Covid_Pool?,554,Sobeys Windsor Street - COVID - PFIZER,B3K 5C7,Nova Scotia,2651 Windsor Street,Halifax
a2t5o00000001KaAAI,Sobeys_Covid_Pool?,574,Sobeys Queen Street - COVID - PFIZER,B3H 2R9,Nova Scotia,1120 Queen Street,Halifax
a2t5o00000001KbAAI,Sobeys_Covid_Pool?,580,Sobeys Bedford - COVID - PFIZER,B4A 1A9,Nova Scotia,955 Bedford Highway,Bedford
a2t5o00000001KcAAI,Sobeys_Covid_Pool?,594,Sobeys Truro - COVID - PFIZER,B2N 1L2,Nova Scotia,68 Robie Street,Truro
a2t5o00000001KdAAI,Sobeys_Covid_Pool?,670,Sobeys Downsview - COVID - PFIZER,B4E 1R7,Nova Scotia,752 Sackville Drive,Lower Sackville
a2t5o00000001KfAAI,Sobeys_Covid_Pool?,684,Sobeys Tantallon - COVID - PFIZER,B3Z 4R3,Nova Scotia,3650 Hammonds Plains Road,Upper Tantallon
a2t5o00000001KhAAI,Sobeys_Covid_Pool?,725,Sobeys Bedford South - COVID - PFIZER,B3M 0G2,Nova Scotia,55 Peakview Way,Bedford
a2t5o00000001KiAAI,Sobeys_Covid_Pool?,728,Sobeys Sydney - COVID - PFIZER,B1P 5K6,Nova Scotia,272B Prince Street,Sydney
a2t5o00000001KjAAI,Sobeys_Covid_Pool?,729,Sobeys Amherst Centre Mall - COVID - PFIZER,B4H 4H4,Nova Scotia,140 South Albion Street,Amherst
a2t5o00000001KkAAI,Sobeys_Covid_Pool?,739,Sobeys Fall River - COVID - PFIZER,B2T 1J5,Nova Scotia,3290 Highway 2 ,Fall River
a2t5o00000001KmAAI,Sobeys_Covid_Pool?,747,Sobeys New Minas - COVID - PFIZER,B4N 4A9,Nova Scotia,9256 Commercial Street,New Minas
a2t5o00000001KnAAI,Sobeys_Covid_Pool?,758,Sobeys Russell Lake - COVID - PFIZER,B2W 6L4,Nova Scotia,268 Baker Drive,Dartmouth
a2t5o00000001KoAAI,Sobeys_Covid_Pool?,772,Sobeys Tacoma - COVID - PFIZER,B2W 3E5,Nova Scotia,60 Tacoma Drive,Dartmouth
a2t5o00000001KpAAI,Sobeys_Covid_Pool?,776,Sobeys Penhorn - COVID - PFIZER,B2Y 4B1,Nova Scotia,551 Portland St,Dartmouth
a2t5o00000001KqAAI,Sobeys_Covid_Pool?,788,Sobeys First Lake Drive - COVID - PFIZER,B4C 3E4,Nova Scotia,80 First Lake Drive,Lower Sackville
a2t5o00000001KrAAI,Sobeys_Covid_Pool?,806,Sobeys Wyse Road - COVID - PFIZER,B3A 1M9,Nova Scotia,210 Wyse Road,Dartmouth
a2t5o00000001KtAAI,Sobeys_Covid_Pool?,2555,Lawtons Kentville - COVID - PFIZER,B4N 1K7,Nova Scotia,363 Main Street,Kentville
a2t5o00000001KuAAI,Sobeys_Covid_Pool?,2561,Lawtons New Minas - COVID - PFIZER,B4N 0E4,Nova Scotia,20 Silver Fox Avenue,New Minas
a2t5o00000001KwAAI,Sobeys_Covid_Pool?,2563,Lawtons East River Road - COVID - PFIZER,B2H 3S3,Nova Scotia,810 East River Road,New Glasgow
a2t5o00000001KxAAI,Sobeys_Covid_Pool?,2565,Lawtons Bridgewater - COVID - PFIZER,B4V 2V6,Nova Scotia,26 North Street,Bridgewater
a2t5o00000001KyAAI,Sobeys_Covid_Pool?,2568,Lawtons Bedford South - COVID - PFIZER,B3M 0G2,Nova Scotia,27 Peakview Way,Bedford
a2t5o00000001KzAAI,Sobeys_Covid_Pool?,2569,Lawtons Lower Sackville - COVID - PFIZER,B4C 2S4,Nova Scotia,665 Sackville Dr,Lower Sackville
a2t5o00000001L2AAI,Sobeys_Covid_Pool?,2749,Lawtons Russell Lake - COVID - PFIZER,B2W 6L4,Nova Scotia,240 Baker Drive,Dartmouth
a2t5o00000001L4AAI,Sobeys_Covid_Pool?,2753,Lawtons Kings Road - COVID - PFIZER,B1S 1A1,Nova Scotia,196 Kings Road,Sydney
a2t5o00000001L5AAI,Sobeys_Covid_Pool?,2754,Lawtons Halifax Shopping Centre - COVID - PFIZER,B3L 2H8,Nova Scotia,7001 Mumford Road,Halifax
a2t5o00000001L6AAI,Sobeys_Covid_Pool?,2755,Lawtons New Waterford - COVID - PFIZER,B1H 1Z2,Nova Scotia,3415 Plummer Avenue,New Waterford
a2t5o00000001LBAAY,Sobeys_Covid_Pool?,612,Sobeys Yarmouth - COVID - PFIZER,B5A 2T5,Nova Scotia,76 Starrs Road,Yarmouth
a2t5o00000001LCAAY,Sobeys_Covid_Pool?,622,Sobeys Panavista - COVID - PFIZER,B2W 5M5,Nova Scotia,612 Main Street  7 Highway,Dartmouth
a2t5o00000001LDAAY,Sobeys_Covid_Pool?,630,Sobeys Sydney River - COVID - PFIZER,B1S 1P4,Nova Scotia,95 Keltic Drive,Sydney River 
a2t5o00000001LEAAY,Sobeys_Covid_Pool?,644,Sobeys Clayton Park - COVID - PFIZER,B3M 3Y7,Nova Scotia,287 Lacewood Drive,Halifax
a2t5o00000001LFAAY,Sobeys_Covid_Pool?,652,Sobeys New Glasgow - COVID - PFIZER,B2H 2K1,Nova Scotia,38 George Street,New Glasgow
a2t5o00000001LGAAY,Sobeys_Covid_Pool?,829,Lawtons Sydney Rehab Equipment Centre - COVID - PFIZER,B1P 5X9,Nova Scotia,124 Pitt Street,Sydney
a2t5o00000001LIAAY,Sobeys_Covid_Pool?,845,Lawtons Mill Cove - COVID - PFIZER,B4A 1A9,Nova Scotia,965 Bedford Highway,Bedford
a2t5o00000001LJAAY,Sobeys_Covid_Pool?,871,Sobeys Truro Prince Street - COVID - PFIZER,B2N 1H7,Nova Scotia,985 Prince Street,Truro
a2t5o00000001LKAAY,Sobeys_Covid_Pool?,875,Lawtons Truro - COVID - PFIZER,B2N 5A4,Nova Scotia,316 Willow Street,Truro
a2t5o00000001LPAAY,Sobeys_Covid_Pool?,879,Lawtons Westville - COVID - PFIZER,B0K 2A0,Nova Scotia,1886 Main Street,Westville
a2t5o00000001LQAAY,Sobeys_Covid_Pool?,881,Sobeys Halifax Shop Annex - Travel Wellness Clinic - COVID - PFIZER,B3L 4P1,Nova Scotia,6960 Mumford Road,Halifax
a2t5o00000001LRAAY,Sobeys_Covid_Pool?,884,Lawtons Westphal - COVID - PFIZER,B2X 1R5,Nova Scotia,90 Main Street,Dartmouth
a2t5o00000001LSAAY,Sobeys_Covid_Pool?,895,Lawtons Cobequid Road - COVID - PFIZER,B4C 2N1,Nova Scotia,157-159 Cobequid Road,Lower Sackville
a2t5o00000001LyAAI,Sobeys_Covid_Pool?,2761,Sobeys Sobeys 2761 Central - Fill - COVID - PFIZER,B4B 1B4,Nova Scotia,2-1220 Hammonds Plains Rd,Hammonds Plains
a2t5o00000001McAAI,Sobeys_Covid_Pool?,97,Lawtons NS Wholesale Division - COVID - PFIZER,B3B 1R9,Nova Scotia,81 Thornhill Drive,Dartmouth
a2t5o00000001K9AAI,Sobeys_Covid_Pool?,104,Lawtons Portland Street - COVID - PFIZER,B2Y 1H4,Nova Scotia,46 Portland Street,Dartmouth
a2t5o00000001KAAAY,Sobeys_Covid_Pool?,111,Lawtons Antigonish - COVID - PFIZER,B2G 2E3,Nova Scotia,133 Church Street,Antigonish
a2t5o00000001KBAAY,Sobeys_Covid_Pool?,112,Lawtons Bayers Road - COVID - PFIZER,B3L 2C2,Nova Scotia,7071 Bayers Road,Halifax
a2t5o00000001KCAAY,Sobeys_Covid_Pool?,114,Lawtons Lord Nelson - COVID - PFIZER,B3J 1G9,Nova Scotia,5665 Spring Garden Road,Halifax
a2t5o00000001KDAAY,Sobeys_Covid_Pool?,119,Lawtons Windsor - COVID - PFIZER,B0N 2T0,Nova Scotia,25 Wentworth Road PO Box 790,Windsor
a2t5o00000001KFAAY,Sobeys_Covid_Pool?,124,Lawtons Cole Harbour Road - COVID - PFIZER,B2V 1E6,Nova Scotia,950 Cole Harbour Road,Dartmouth
a2t5o00000001KGAAY,Sobeys_Covid_Pool?,128,Lawtons Clayton Park - COVID - PFIZER,B3M 3Y7,Nova Scotia,287 Lacewood Drive,Halifax
a2t5o00000001KIAAY,Sobeys_Covid_Pool?,133,Lawtons Shelburne - COVID - PFIZER,B0T 1W0,Nova Scotia,115 King Street,Shelburne
a2t5o0000003hdHAAQ,Sobeys_Covid_Pool?,729,Sobeys Amherst Centre Mall - COVID - ASTRAZENECA,B4H 4H4,Nova Scotia,140 South Albion Street,Amherst
a2t5o0000003hPKAAY,Sobeys_Covid_Pool?,2755,Lawtons New Waterford - COVID - MODERNA,B1H 1Z2,Nova Scotia,3415 Plummer Avenue,New Waterford
a2t5o0000003hrXAAQ,Sobeys_Covid_Pool?,2749,Lawtons Russell Lake - COVID - MODERNA,B2W 6L4,Nova Scotia,240 Baker Drive,Dartmouth
a2t5o0000003hs6AAA,Sobeys_Covid_Pool?,2761,Sobeys Sobeys 2761 Central - Fill - COVID - MODERNA,B4B 1B4,Nova Scotia,2-1220 Hammonds Plains Rd,Hammonds Plains
a2t5o0000003hdQAAQ,Sobeys_Covid_Pool?,97,Lawtons NS Wholesale Division - COVID - ASTRAZENECA,B3B 1R9,Nova Scotia,81 Thornhill Drive,Dartmouth
a2t5o0000003hgKAAQ,Sobeys_Covid_Pool?,145,Lawtons Musquodoboit - COVID - MODERNA,B0J 2L0,Nova Scotia,8003 7 Highway,Musquodoboit Harbour
a2t5o0000003hrwAAA,Sobeys_Covid_Pool?,2754,Lawtons Halifax Shopping Centre - COVID - MODERNA,B3L 2H8,Nova Scotia,7001 Mumford Road,Halifax
a2t5o0000003heJAAQ,Sobeys_Covid_Pool?,119,Lawtons Windsor - COVID - ASTRAZENECA,B0N 2T0,Nova Scotia,25 Wentworth Road PO Box 790,Windsor
a2t5o0000003heKAAQ,Sobeys_Covid_Pool?,163,Lawtons Gladstone - COVID - MODERNA,B3K 5R3,Nova Scotia,6155 North Street,Halifax
a2t5o0000003hnQAAQ,Sobeys_Covid_Pool?,776,Sobeys Penhorn - COVID - MODERNA,B2Y 4B1,Nova Scotia,551 Portland St,Dartmouth
a2t5o0000003hm8AAA,Sobeys_Covid_Pool?,725,Sobeys Bedford South - COVID - MODERNA,B3M 0G2,Nova Scotia,55 Peakview Way,Bedford
a2t5o0000003hm9AAA,Sobeys_Covid_Pool?,871,Sobeys Truro Prince Street - COVID - ASTRAZENECA,B2N 1H7,Nova Scotia,985 Prince Street,Truro
a2t5o0000003hgFAAQ,Sobeys_Covid_Pool?,144,Lawtons Scotia Square - COVID - MODERNA,B3J 1N9,Nova Scotia,5201 Duke Street,Halifax
a2t5o0000003hklAAA,Sobeys_Covid_Pool?,622,Sobeys Panavista - COVID - MODERNA,B2W 5M5,Nova Scotia,612 Main Street  7 Highway,Dartmouth
a2t5o0000003hpCAAQ,Sobeys_Covid_Pool?,871,Sobeys Truro Prince Street - COVID - MODERNA,B2N 1H7,Nova Scotia,985 Prince Street,Truro
a2t5o0000003hh8AAA,Sobeys_Covid_Pool?,169,Lawtons Yarmouth - COVID - ASTRAZENECA,B5A 2T5,Nova Scotia,76 Starrs Road,Yarmouth
a2t5o0000003hh9AAA,Sobeys_Covid_Pool?,2568,Lawtons Bedford South - COVID - ASTRAZENECA,B3M 0G2,Nova Scotia,27 Peakview Way,Bedford
a2t5o0000003hiLAAQ,Sobeys_Covid_Pool?,328,Sobeys Glace Bay - COVID - ASTRAZENECA,B1A 4W5,Nova Scotia,144 Reserve Street,Glace Bay
a2t5o0000003hhDAAQ,Sobeys_Covid_Pool?,169,Lawtons Yarmouth - COVID - MODERNA,B5A 2T5,Nova Scotia,76 Starrs Road,Yarmouth
a2t5o0000003hrSAAQ,Sobeys_Covid_Pool?,2749,Lawtons Russell Lake - COVID - ASTRAZENECA,B2W 6L4,Nova Scotia,240 Baker Drive,Dartmouth
a2t5o0000003hmDAAQ,Sobeys_Covid_Pool?,728,Sobeys Sydney - COVID - ASTRAZENECA,B1P 5K6,Nova Scotia,272B Prince Street,Sydney
a2t5o0000003hfRAAQ,Sobeys_Covid_Pool?,133,Lawtons Shelburne - COVID - MODERNA,B0T 1W0,Nova Scotia,115 King Street,Shelburne
a2t5o0000003hgAAAQ,Sobeys_Covid_Pool?,144,Lawtons Scotia Square - COVID - ASTRAZENECA,B3J 1N9,Nova Scotia,5201 Duke Street,Halifax
a2t5o0000003heEAAQ,Sobeys_Covid_Pool?,114,Lawtons Lord Nelson - COVID - ASTRAZENECA,B3J 1G9,Nova Scotia,5665 Spring Garden Road,Halifax
a2t5o0000003hdfAAA,Sobeys_Covid_Pool?,104,Lawtons Portland Street - COVID - MODERNA,B2Y 1H4,Nova Scotia,46 Portland Street,Dartmouth
a2t5o0000003hhIAAQ,Sobeys_Covid_Pool?,172,Lawtons Duffus Street - COVID - ASTRAZENECA,B3K 2M5,Nova Scotia,5515 Duffus Street,Halifax
a2t5o0000003hdzAAA,Sobeys_Covid_Pool?,111,Lawtons Antigonish - COVID - MODERNA,B2G 2E3,Nova Scotia,133 Church Street,Antigonish
a2t5o0000003hjnAAA,Sobeys_Covid_Pool?,574,Sobeys Queen Street - COVID - ASTRAZENECA,B3H 2R9,Nova Scotia,1120 Queen Street,Halifax
a2t5o0000003hkrAAA,Sobeys_Covid_Pool?,788,Sobeys First Lake Drive - COVID - ASTRAZENECA,B4C 3E4,Nova Scotia,80 First Lake Drive,Lower Sackville
a2t5o0000003hkvAAA,Sobeys_Covid_Pool?,630,Sobeys Sydney River - COVID - ASTRAZENECA,B1S 1P4,Nova Scotia,95 Keltic Drive,Sydney River 
a2t5o0000003hqZAAQ,Sobeys_Covid_Pool?,2563,Lawtons East River Road - COVID - ASTRAZENECA,B2H 3S3,Nova Scotia,810 East River Road,New Glasgow
a2t5o0000003hiGAAQ,Sobeys_Covid_Pool?,323,Sobeys Barrington Passage - COVID - MODERNA,B0W 1G0,Nova Scotia,3552 Highway 3,Barrington Passage
a2t5o0000003hfMAAQ,Sobeys_Covid_Pool?,133,Lawtons Shelburne - COVID - ASTRAZENECA,B0T 1W0,Nova Scotia,115 King Street,Shelburne
a2t5o0000003hlUAAQ,Sobeys_Covid_Pool?,670,Sobeys Downsview - COVID - ASTRAZENECA,B4E 1R7,Nova Scotia,752 Sackville Drive,Lower Sackville
a2t5o0000003hgtAAA,Sobeys_Covid_Pool?,162,Lawtons Sheet Harbour - COVID - ASTRAZENECA,B0J 3B0,Nova Scotia,22624 7 Highway,Sheet Harbour
a2t5o0000003hjOAAQ,Sobeys_Covid_Pool?,510,Sobeys North Sydney - COVID - ASTRAZENECA,B2A 3R7,Nova Scotia,116 King Street,North Sydney
a2t5o0000003hkWAAQ,Sobeys_Covid_Pool?,612,Sobeys Yarmouth - COVID - ASTRAZENECA,B5A 2T5,Nova Scotia,76 Starrs Road,Yarmouth
a2t5o0000003hkbAAA,Sobeys_Covid_Pool?,612,Sobeys Yarmouth - COVID - MODERNA,B5A 2T5,Nova Scotia,76 Starrs Road,Yarmouth
a2t5o0000003hkXAAQ,Sobeys_Covid_Pool?,772,Sobeys Tacoma - COVID - ASTRAZENECA,B2W 3E5,Nova Scotia,60 Tacoma Drive,Dartmouth
a2t5o0000003hiBAAQ,Sobeys_Covid_Pool?,323,Sobeys Barrington Passage - COVID - ASTRAZENECA,B0W 1G0,Nova Scotia,3552 Highway 3,Barrington Passage
a2t5o0000003hnVAAQ,Sobeys_Covid_Pool?,788,Sobeys First Lake Drive - COVID - MODERNA,B4C 3E4,Nova Scotia,80 First Lake Drive,Lower Sackville
a2t5o0000003hgQAAQ,Sobeys_Covid_Pool?,2565,Lawtons Bridgewater - COVID - ASTRAZENECA,B4V 2V6,Nova Scotia,26 North Street,Bridgewater
a2t5o0000003heiAAA,Sobeys_Covid_Pool?,124,Lawtons Cole Harbour Road - COVID - MODERNA,B2V 1E6,Nova Scotia,950 Cole Harbour Road,Dartmouth
a2t5o0000003hiQAAQ,Sobeys_Covid_Pool?,328,Sobeys Glace Bay - COVID - MODERNA,B1A 4W5,Nova Scotia,144 Reserve Street,Glace Bay
a2t5o0000003hmXAAQ,Sobeys_Covid_Pool?,739,Sobeys Fall River - COVID - ASTRAZENECA,B2T 1J5,Nova Scotia,3290 Highway 2 ,Fall River
a2t5o0000003hn6AAA,Sobeys_Covid_Pool?,747,Sobeys New Minas - COVID - MODERNA,B4N 4A9,Nova Scotia,9256 Commercial Street,New Minas
a2t5o0000003hi1AAA,Sobeys_Covid_Pool?,321,Sobeys Spryfield - COVID - ASTRAZENECA,B3P 1M2,Nova Scotia,279 Herring Cove Road,Halifax
a2t5o0000003hgoAAA,Sobeys_Covid_Pool?,157,Lawtons Northwood Terrace NHS - COVID - MODERNA,B3K 3S5,Nova Scotia,2615 Northwood Terrace,Halifax
a2t5o0000003hqtAAA,Sobeys_Covid_Pool?,2569,Lawtons Lower Sackville - COVID - ASTRAZENECA,B4C 2S4,Nova Scotia,665 Sackville Dr,Lower Sackville
a2t5o0000003hrrAAA,Sobeys_Covid_Pool?,2754,Lawtons Halifax Shopping Centre - COVID - ASTRAZENECA,B3L 2H8,Nova Scotia,7001 Mumford Road,Halifax
a2t5o0000003hhiAAA,Sobeys_Covid_Pool?,772,Sobeys Tacoma - COVID - MODERNA,B2W 3E5,Nova Scotia,60 Tacoma Drive,Dartmouth
a2t5o0000003hl5AAA,Sobeys_Covid_Pool?,644,Sobeys Clayton Park - COVID - ASTRAZENECA,B3M 3Y7,Nova Scotia,287 Lacewood Drive,Halifax
a2t5o0000003hoOAAQ,Sobeys_Covid_Pool?,829,Lawtons Sydney Rehab Equipment Centre - COVID - MODERNA,B1P 5X9,Nova Scotia,124 Pitt Street,Sydney
a2t5o0000003hoPAAQ,Sobeys_Covid_Pool?,845,Lawtons Mill Cove - COVID - MODERNA,B4A 1A9,Nova Scotia,965 Bedford Highway,Bedford
a2t5o0000003hpMAAQ,Sobeys_Covid_Pool?,879,Lawtons Westville - COVID - ASTRAZENECA,B0K 2A0,Nova Scotia,1886 Main Street,Westville
a2t5o0000003hpNAAQ,Sobeys_Covid_Pool?,881,Sobeys Halifax Shop Annex - Travel Wellness Clinic - COVID - ASTRAZENECA,B3L 4P1,Nova Scotia,6960 Mumford Road,Halifax
a2t5o00000041iBAAQ,Sobeys_Covid_Pool?,2579,Lawtons Pharmacy Walk-In Clinic - COVID - ASTRAZENECA,B2H 3S3,Nova Scotia,810 East River Road-Suite 211,New Glasgow
a2t5o0000003he4AAA,Sobeys_Covid_Pool?,112,Lawtons Bayers Road - COVID - ASTRAZENECA,B3L 2C2,Nova Scotia,7071 Bayers Road,Halifax
a2t5o0000003hqeAAA,Sobeys_Covid_Pool?,2563,Lawtons East River Road - COVID - MODERNA,B2H 3S3,Nova Scotia,810 East River Road,New Glasgow
a2t5o0000003hjTAAQ,Sobeys_Covid_Pool?,510,Sobeys North Sydney - COVID - MODERNA,B2A 3R7,Nova Scotia,116 King Street,North Sydney
a2t5o0000003hkCAAQ,Sobeys_Covid_Pool?,594,Sobeys Truro - COVID - ASTRAZENECA,B2N 1L2,Nova Scotia,68 Robie Street,Truro
a2t5o0000003hkNAAQ,Sobeys_Covid_Pool?,2569,Lawtons Lower Sackville - COVID - MODERNA,B4C 2S4,Nova Scotia,665 Sackville Dr,Lower Sackville
a2t5o0000003hiaAAA,Sobeys_Covid_Pool?,329,Sobeys Timberlea - COVID - MODERNA,B3T 1L5,Nova Scotia,65 Marketway Lane,Timberlea
a2t5o0000003hjxAAA,Sobeys_Covid_Pool?,580,Sobeys Bedford - COVID - ASTRAZENECA,B4A 1A9,Nova Scotia,955 Bedford Highway,Bedford
a2t5o00000041iLAAQ,Sobeys_Covid_Pool?,2579,Lawtons Pharmacy Walk-In Clinic - COVID - MODERNA,B2H 3S3,Nova Scotia,810 East River Road-Suite 211,New Glasgow
a2t5o0000003hdVAAQ,Sobeys_Covid_Pool?,97,Lawtons NS Wholesale Division - COVID - MODERNA,B3B 1R9,Nova Scotia,81 Thornhill Drive,Dartmouth
a2t5o0000003hfCAAQ,Sobeys_Covid_Pool?,128,Lawtons Clayton Park - COVID - MODERNA,B3M 3Y7,Nova Scotia,287 Lacewood Drive,Halifax
a2t5o0000003hdWAAQ,Sobeys_Covid_Pool?,145,Lawtons Musquodoboit - COVID - ASTRAZENECA,B0J 2L0,Nova Scotia,8003 7 Highway,Musquodoboit Harbour
a2t5o0000003hlFAAQ,Sobeys_Covid_Pool?,652,Sobeys New Glasgow - COVID - ASTRAZENECA,B2H 2K1,Nova Scotia,38 George Street,New Glasgow
a2t5o0000003hmIAAQ,Sobeys_Covid_Pool?,728,Sobeys Sydney - COVID - MODERNA,B1P 5K6,Nova Scotia,272B Prince Street,Sydney
a2t5o0000003hnkAAA,Sobeys_Covid_Pool?,806,Sobeys Wyse Road - COVID - MODERNA,B3A 1M9,Nova Scotia,210 Wyse Road,Dartmouth
a2t5o0000003hoJAAQ,Sobeys_Covid_Pool?,829,Lawtons Sydney Rehab Equipment Centre - COVID - ASTRAZENECA,B1P 5X9,Nova Scotia,124 Pitt Street,Sydney
a2t5o0000003hpHAAQ,Sobeys_Covid_Pool?,875,Lawtons Truro - COVID - ASTRAZENECA,B2N 5A4,Nova Scotia,316 Willow Street,Truro
a2t5o0000003hpIAAQ,Sobeys_Covid_Pool?,884,Lawtons Westphal - COVID - ASTRAZENECA,B2X 1R5,Nova Scotia,90 Main Street,Dartmouth
a2t5o0000003hqFAAQ,Sobeys_Covid_Pool?,2561,Lawtons New Minas - COVID - ASTRAZENECA,B4N 0E4,Nova Scotia,20 Silver Fox Avenue,New Minas
a2t5o0000003hmyAAA,Sobeys_Covid_Pool?,2568,Lawtons Bedford South - COVID - MODERNA,B3M 0G2,Nova Scotia,27 Peakview Way,Bedford
a2t5o0000003hrmAAA,Sobeys_Covid_Pool?,2753,Lawtons Kings Road - COVID - MODERNA,B1S 1A1,Nova Scotia,196 Kings Road,Sydney
a2t5o0000003hjBAAQ,Sobeys_Covid_Pool?,2761,Sobeys Sobeys 2761 Central - Fill - COVID - ASTRAZENECA,B4B 1B4,Nova Scotia,2-1220 Hammonds Plains Rd,Hammonds Plains
a2t5o0000003hduAAA,Sobeys_Covid_Pool?,111,Lawtons Antigonish - COVID - ASTRAZENECA,B2G 2E3,Nova Scotia,133 Church Street,Antigonish
a2t5o0000003hdvAAA,Sobeys_Covid_Pool?,114,Lawtons Lord Nelson - COVID - MODERNA,B3J 1G9,Nova Scotia,5665 Spring Garden Road,Halifax
a2t5o0000003heOAAQ,Sobeys_Covid_Pool?,119,Lawtons Windsor - COVID - MODERNA,B0N 2T0,Nova Scotia,25 Wentworth Road PO Box 790,Windsor
a2t5o0000003hePAAQ,Sobeys_Covid_Pool?,157,Lawtons Northwood Terrace NHS - COVID - ASTRAZENECA,B3K 3S5,Nova Scotia,2615 Northwood Terrace,Halifax
a2t5o0000003hljAAA,Sobeys_Covid_Pool?,684,Sobeys Tantallon - COVID - ASTRAZENECA,B3Z 4R3,Nova Scotia,3650 Hammonds Plains Road,Upper Tantallon
a2t5o0000003hmNAAQ,Sobeys_Covid_Pool?,729,Sobeys Amherst Centre Mall - COVID - MODERNA,B4H 4H4,Nova Scotia,140 South Albion Street,Amherst
a2t5o0000003hnfAAA,Sobeys_Covid_Pool?,806,Sobeys Wyse Road - COVID - ASTRAZENECA,B3A 1M9,Nova Scotia,210 Wyse Road,Dartmouth
a2t5o0000003hq5AAA,Sobeys_Covid_Pool?,2555,Lawtons Kentville - COVID - ASTRAZENECA,B4N 1K7,Nova Scotia,363 Main Street,Kentville
a2t5o0000003hjiAAA,Sobeys_Covid_Pool?,554,Sobeys Windsor Street - COVID - MODERNA,B3K 5C7,Nova Scotia,2651 Windsor Street,Halifax
a2t5o0000003hf7AAA,Sobeys_Covid_Pool?,128,Lawtons Clayton Park - COVID - ASTRAZENECA,B3M 3Y7,Nova Scotia,287 Lacewood Drive,Halifax
a2t5o0000003hh3AAA,Sobeys_Covid_Pool?,163,Lawtons Gladstone - COVID - ASTRAZENECA,B3K 5R3,Nova Scotia,6155 North Street,Halifax
a2t5o0000003hdaAAA,Sobeys_Covid_Pool?,104,Lawtons Portland Street - COVID - ASTRAZENECA,B2Y 1H4,Nova Scotia,46 Portland Street,Dartmouth
a2t5o0000003hqKAAQ,Sobeys_Covid_Pool?,2561,Lawtons New Minas - COVID - MODERNA,B4N 0E4,Nova Scotia,20 Silver Fox Avenue,New Minas
a2t5o0000003hgZAAQ,Sobeys_Covid_Pool?,150,Lawtons Sydney - COVID - MODERNA,B1P 1K7,Nova Scotia,540 George Street,Sydney
a2t5o0000003hgaAAA,Sobeys_Covid_Pool?,2565,Lawtons Bridgewater - COVID - MODERNA,B4V 2V6,Nova Scotia,26 North Street,Bridgewater
a2t5o0000003hdMAAQ,Sobeys_Covid_Pool?,684,Sobeys Tantallon - COVID - MODERNA,B3Z 4R3,Nova Scotia,3650 Hammonds Plains Road,Upper Tantallon
a2t5o0000003hl0AAA,Sobeys_Covid_Pool?,630,Sobeys Sydney River - COVID - MODERNA,B1S 1P4,Nova Scotia,95 Keltic Drive,Sydney River 
a2t5o0000003hk2AAA,Sobeys_Covid_Pool?,580,Sobeys Bedford - COVID - MODERNA,B4A 1A9,Nova Scotia,955 Bedford Highway,Bedford
a2t5o0000003hkHAAQ,Sobeys_Covid_Pool?,594,Sobeys Truro - COVID - MODERNA,B2N 1L2,Nova Scotia,68 Robie Street,Truro
a2t5o0000003hnLAAQ,Sobeys_Covid_Pool?,758,Sobeys Russell Lake - COVID - MODERNA,B2W 6L4,Nova Scotia,268 Baker Drive,Dartmouth
a2t5o0000003ho5AAA,Sobeys_Covid_Pool?,875,Lawtons Truro - COVID - MODERNA,B2N 5A4,Nova Scotia,316 Willow Street,Truro
a2t5o0000003ho6AAA,Sobeys_Covid_Pool?,2555,Lawtons Kentville - COVID - MODERNA,B4N 1K7,Nova Scotia,363 Main Street,Kentville
a2t5o00000041iGAAQ,Sobeys_Covid_Pool?,2579,Lawtons Pharmacy Walk-In Clinic - COVID - PFIZER,B2H 3S3,Nova Scotia,810 East River Road-Suite 211,New Glasgow
a2t5o0000003hfWAAQ,Sobeys_Covid_Pool?,136,Lawtons Glace Bay - COVID - ASTRAZENECA,B1A 3C6,Nova Scotia,290 Commercial Street,Glace Bay
a2t5o0000003hn1AAA,Sobeys_Covid_Pool?,747,Sobeys New Minas - COVID - ASTRAZENECA,B4N 4A9,Nova Scotia,9256 Commercial Street,New Minas
a2t5o0000003hjsAAA,Sobeys_Covid_Pool?,574,Sobeys Queen Street - COVID - MODERNA,B3H 2R9,Nova Scotia,1120 Queen Street,Halifax
a2t5o0000003hjtAAA,Sobeys_Covid_Pool?,895,Lawtons Cobequid Road - COVID - MODERNA,B4C 2N1,Nova Scotia,157-159 Cobequid Road,Lower Sackville
a2t5o0000003hjuAAA,Sobeys_Covid_Pool?,2753,Lawtons Kings Road - COVID - ASTRAZENECA,B1S 1A1,Nova Scotia,196 Kings Road,Sydney
a2t5o0000003hs1AAA,Sobeys_Covid_Pool?,2755,Lawtons New Waterford - COVID - ASTRAZENECA,B1H 1Z2,Nova Scotia,3415 Plummer Avenue,New Waterford
a2t5o0000003hlKAAQ,Sobeys_Covid_Pool?,652,Sobeys New Glasgow - COVID - MODERNA,B2H 2K1,Nova Scotia,38 George Street,New Glasgow
a2t5o0000003hmcAAA,Sobeys_Covid_Pool?,739,Sobeys Fall River - COVID - MODERNA,B2T 1J5,Nova Scotia,3290 Highway 2 ,Fall River
a2t5o0000003hgyAAA,Sobeys_Covid_Pool?,162,Lawtons Sheet Harbour - COVID - MODERNA,B0J 3B0,Nova Scotia,22624 7 Highway,Sheet Harbour
a2t5o0000003hm3AAA,Sobeys_Covid_Pool?,725,Sobeys Bedford South - COVID - ASTRAZENECA,B3M 0G2,Nova Scotia,55 Peakview Way,Bedford
a2t5o0000003hiVAAQ,Sobeys_Covid_Pool?,329,Sobeys Timberlea - COVID - ASTRAZENECA,B3T 1L5,Nova Scotia,65 Marketway Lane,Timberlea
a2t5o0000003hedAAA,Sobeys_Covid_Pool?,124,Lawtons Cole Harbour Road - COVID - ASTRAZENECA,B2V 1E6,Nova Scotia,950 Cole Harbour Road,Dartmouth
a2t5o0000003hpWAAQ,Sobeys_Covid_Pool?,884,Lawtons Westphal - COVID - MODERNA,B2X 1R5,Nova Scotia,90 Main Street,Dartmouth
a2t5o0000003hlZAAQ,Sobeys_Covid_Pool?,670,Sobeys Downsview - COVID - MODERNA,B4E 1R7,Nova Scotia,752 Sackville Drive,Lower Sackville
a2t5o0000003he9AAA,Sobeys_Covid_Pool?,112,Lawtons Bayers Road - COVID - MODERNA,B3L 2C2,Nova Scotia,7071 Bayers Road,Halifax
a2t5o0000003heAAAQ,Sobeys_Covid_Pool?,554,Sobeys Windsor Street - COVID - ASTRAZENECA,B3K 5C7,Nova Scotia,2651 Windsor Street,Halifax
a2t5o0000003hgUAAQ,Sobeys_Covid_Pool?,150,Lawtons Sydney - COVID - ASTRAZENECA,B1P 1K7,Nova Scotia,540 George Street,Sydney
a2t5o0000003hg6AAA,Sobeys_Covid_Pool?,879,Lawtons Westville - COVID - MODERNA,B0K 2A0,Nova Scotia,1886 Main Street,Westville
a2t5o0000003hpRAAQ,Sobeys_Covid_Pool?,881,Sobeys Halifax Shop Annex - Travel Wellness Clinic - COVID - MODERNA,B3L 4P1,Nova Scotia,6960 Mumford Road,Halifax
a2t5o0000003hpgAAA,Sobeys_Covid_Pool?,895,Lawtons Cobequid Road - COVID - ASTRAZENECA,B4C 2N1,Nova Scotia,157-159 Cobequid Road,Lower Sackville
a2t5o0000003hnGAAQ,Sobeys_Covid_Pool?,758,Sobeys Russell Lake - COVID - ASTRAZENECA,B2W 6L4,Nova Scotia,268 Baker Drive,Dartmouth
a2t5o0000003hhNAAQ,Sobeys_Covid_Pool?,172,Lawtons Duffus Street - COVID - MODERNA,B3K 2M5,Nova Scotia,5515 Duffus Street,Halifax
a2t5o0000003hj4AAA,Sobeys_Covid_Pool?,370,Sobeys Aberdeen Mall - COVID - MODERNA,B2H 3S2,Nova Scotia,610 East River Road,New Glasgow
a2t5o0000003hizAAA,Sobeys_Covid_Pool?,370,Sobeys Aberdeen Mall - COVID - ASTRAZENECA,B2H 3S2,Nova Scotia,610 East River Road,New Glasgow
a2t5o0000003hetAAA,Sobeys_Covid_Pool?,776,Sobeys Penhorn - COVID - ASTRAZENECA,B2Y 4B1,Nova Scotia,551 Portland St,Dartmouth
a2t5o0000003hfbAAA,Sobeys_Covid_Pool?,136,Lawtons Glace Bay - COVID - MODERNA,B1A 3C6,Nova Scotia,290 Commercial Street,Glace Bay
a2t5o0000003hi6AAA,Sobeys_Covid_Pool?,321,Sobeys Spryfield - COVID - MODERNA,B3P 1M2,Nova Scotia,279 Herring Cove Road,Halifax
a2t5o0000003hkgAAA,Sobeys_Covid_Pool?,622,Sobeys Panavista - COVID - ASTRAZENECA,B2W 5M5,Nova Scotia,612 Main Street  7 Highway,Dartmouth
a2t5o0000003hlAAAQ,Sobeys_Covid_Pool?,644,Sobeys Clayton Park - COVID - MODERNA,B3M 3Y7,Nova Scotia,287 Lacewood Drive,Halifax
a2t5o00000001GEAAY,Sobeys_Covid_Pool?,7505,Sobeys Shellard Lane - COVID - MODERNA,N3T 1M2,Ontario,"310 Colborne Street, West",Brantford
a2t5o00000001GfAAI,Sobeys_Covid_Pool?,7207,Sobeys Oshawa - COVID - MODERNA,L1K 2Z5,Ontario,"1377 Wilson Road, North",Oshawa
a2t5o00000001GiAAI,Sobeys_Covid_Pool?,7233,FreshCo Leslie & Major MacKenzie - COVID - PFIZER 12+ YEARS OLD,L4S 1P5,Ontario,"1430 Major MacKenzie Drive East, Unit A",Richmond Hill
a2t5o00000001K7AAI,Sobeys_Covid_Pool?,7270,Sobeys Stratford Ontario - COVID - MODERNA,N5A 5T8,Ontario,"581 Huron St, Unit #1",Stratford
a2t5o00000002BJAAY,Sobeys_Covid_Pool?,7207,Sobeys Oshawa - COVID - PFIZER PEDIATRIC 5-11 YEARS OLD,L1K 2Z5,Ontario,"1377 Wilson Road, North",Oshawa
a2t5o00000002BLAAY,Sobeys_Covid_Pool?,7233,FreshCo Leslie & Major MacKenzie - COVID - PFIZER PEDIATRIC 5-11 YEARS OLD,L4S 1P5,Ontario,"1430 Major MacKenzie Drive East, Unit A",Richmond Hill
a2t5o0000000XMYAA2,Sobeys_Covid_Pool?,7233,FreshCo Leslie & Major MacKenzie - COVID - MODERNA,L4S 1P5,Ontario,"1430 Major MacKenzie Drive East, Unit A",Richmond Hill
a2t5o0000001c4WAAQ,Sobeys_Covid_Pool?,7207,Sobeys Oshawa - COVID - PFIZER 12+ YEARS OLD,L1K 2Z5,Ontario,"1377 Wilson Road, North",Oshawa
a2t5o0000001c2pAAA,Sobeys_Covid_Pool?,7505,Sobeys Shellard Lane - COVID - PFIZER 12+ YEARS OLD,N3T 1M2,Ontario,"310 Colborne Street, West",Brantford
a2t5o0000003hytAAA,Sobeys_Covid_Pool?,7270,Sobeys Stratford Ontario - COVID - PFIZER PEDIATRIC 5-11 YEARS OLD,N5A 5T8,Ontario,"581 Huron St, Unit #1",Stratford
a2t5o0000001c5tAAA,Sobeys_Covid_Pool?,7270,Sobeys Stratford Ontario - COVID - PFIZER 12+ YEARS OLD,N5A 5T8,Ontario,"581 Huron St, Unit #1",Stratford
a2t5o0000003hn3AAA,Sobeys_Covid_Pool?,7505,Sobeys Shellard Lane - COVID - PFIZER PEDIATRIC 5-11 YEARS OLD,N3T 1M2,Ontario,"310 Colborne Street, West",Brantford
a2t5o00000001G5AAI,Sobeys_Covid_Pool?,7211,Sobeys Acton - COVID - MODERNA,L7J 2Y5,Ontario,372 Queen Street East,Acton
a2t5o00000001G6AAI,Sobeys_Covid_Pool?,7203,Sobeys Ajax - COVID - MODERNA,L1T 4E4,Ontario,260 Kingston Road W,Ajax
a2t5o00000001G7AAI,Sobeys_Covid_Pool?,7213,Sobeys Ancaster - COVID - MODERNA,L9K 1K1,Ontario,977 Golf Links Road,Ancaster
a2t5o00000001G8AAI,Sobeys_Covid_Pool?,7214,Sobeys Aurora - COVID - MODERNA,L4G 7J1,Ontario,15500 Bayview Avenue,Aurora
a2t5o00000001G9AAI,Sobeys_Covid_Pool?,7237,Sobeys Barrie(Molson Park) - COVID - MODERNA,L4N 9H5,Ontario,37 Mapleview Drive West,Barrie
a2t5o00000001H8AAI,Sobeys_Covid_Pool?,12345678,Skedulo Test Location (Skedulo Use only) - COVID - PFIZER 12+ YEARS OLD, USA,Ontario,1 Centre St, New York
a2t5o00000001GAAAY,Sobeys_Covid_Pool?,7246,Sobeys Bradford - COVID - MODERNA,L3Z 3B8,Ontario,40 Melbourne Drive,Bradford
a2t5o00000001GBAAY,Sobeys_Covid_Pool?,7221,Sobeys Brampton - COVID - MODERNA,L6Y 0J2,Ontario,8975 Chinguacousy Road,Brampton
a2t5o00000001GCAAY,Sobeys_Covid_Pool?,7276,FreshCo Mississauga & Financial - COVID - MODERNA,L6Y 0E3,Ontario,Unit 11 - 8405 Financial Drive,Brampton
a2t5o00000001GDAAY,Sobeys_Covid_Pool?,7511,FreshCo 50 - Cottrelle - COVID - PFIZER 12+ YEARS OLD,L6P 2R1,Ontario,3998 Cottrelle Boulevard,Brampton
a2t5o00000001GFAAY,Sobeys_Covid_Pool?,7847,FreshCo Brantford - COVID - MODERNA,N3S 2E3,Ontario,50 Market Street  South,Brantford
a2t5o00000001GGAAY,Sobeys_Covid_Pool?,7269,Sobeys Burlington - COVID - MODERNA,L7P 1X8,Ontario,1250 Brant St,Burlington
a2t5o00000001GHAAY,Sobeys_Covid_Pool?,7804,FreshCo Cambridge - COVID - MODERNA,N1R 8L4,Ontario,1 Hespeler Road,Cambridge
a2t5o00000001GIAAY,Sobeys_Covid_Pool?,7506,Sobeys Chatham - COVID - MODERNA,N7M 1W3,Ontario,215 Park Ave,Chatham
a2t5o00000001GJAAY,Sobeys_Covid_Pool?,7268,FreshCo Ninth and Marlborough - COVID - MODERNA,K6H 0A3,Ontario,525 Ninth St. East,Cornwall
a2t5o00000001GKAAY,Sobeys_Covid_Pool?,7222,Sobeys Etobicoke - COVID - MODERNA,M8Y 1H6,Ontario,125 The Queensway,Etobicoke
a2t5o00000001GLAAY,Sobeys_Covid_Pool?,4809,Safeway Fort Frances - COVID - MODERNA,P9A 1H3,Ontario,417 Scott Street,Fort Frances
a2t5o00000001GMAAY,Sobeys_Covid_Pool?,7240,FreshCo Georgetown - COVID - MODERNA,L7G 4B3,Ontario,325 Guelph Street,Georgetown
a2t5o00000001GNAAY,Sobeys_Covid_Pool?,7249,Sobeys Gravenhurst - COVID - MODERNA,P1P 1K8,Ontario,225 Edward Street,Gravenhurst
a2t5o00000001GOAAY,Sobeys_Covid_Pool?,7258,Sobeys Alcona Beach - COVID - MODERNA,L9S 4Y8,Ontario,2080 Jans Boulevard,Innisfil
a2t5o00000001GPAAY,Sobeys_Covid_Pool?,7217,Sobeys Kanata - COVID - PFIZER 12+ YEARS OLD,K2L 4H4,Ontario,700 Terry Fox Drive,Kanata
a2t5o00000001GQAAY,Sobeys_Covid_Pool?,7263,Sobeys March Road - COVID - MODERNA,K2K 1X7,Ontario,840 March Road,Kanata
a2t5o00000001GRAAY,Sobeys_Covid_Pool?,7507,FreshCo Princess - COVID - PFIZER PEDIATRIC 5-11 YEARS OLD,K7M 3G1,Ontario,2327 Princess Street,Kingston
a2t5o00000001GSAAY,Sobeys_Covid_Pool?,7212,Sobeys Highland - COVID - MODERNA,N2M 3C5,Ontario,274 Highland Road West,Kitchener
a2t5o00000001GTAAY,Sobeys_Covid_Pool?,7224,Sobeys Kitchener - COVID - MODERNA,N2E 4H9,Ontario,1187 Fischer Hallman Road,Kitchener
a2t5o00000001GUAAY,Sobeys_Covid_Pool?,7259,Sobeys Ira Needles - COVID - MODERNA,N2N 0B2,Ontario,235 Ira Needles Blvd,Kitchener
a2t5o00000001GVAAY,Sobeys_Covid_Pool?,7216,Sobeys Lakeshore - COVID - PFIZER PEDIATRIC 5-11 YEARS OLD,N9K 1C7,Ontario,19 Amy Croft Drive,Lakeshore
a2t5o00000001GWAAY,Sobeys_Covid_Pool?,7274,Sobeys Wonderland - COVID - MODERNA,N6H 0H9,Ontario,661 Wonderland Rd. N,London
a2t5o00000001GXAAY,Sobeys_Covid_Pool?,7208,FreshCo Markham - COVID - MODERNA,L3P 8M1,Ontario,9580 McCowan Road,Markham
a2t5o00000001GYAAY,Sobeys_Covid_Pool?,7272,Sobeys Milton - COVID - MODERNA,L9T 8X3,Ontario,1035 Bronte St South,Milton
a2t5o00000001GZAAY,Sobeys_Covid_Pool?,7204,Sobeys Mississauga - COVID - MODERNA,L5M 7L9,Ontario,5602 Tenth Line West,Mississauga
a2t5o00000001GaAAI,Sobeys_Covid_Pool?,7267,FreshCo Lundy's Lane - COVID - MODERNA,L2H 1T6,Ontario,5931 Kalar Road,Niagara Falls
a2t5o00000001GbAAI,Sobeys_Covid_Pool?,7225,Sobeys Oakville - COVID - MODERNA,L6J 4W3,Ontario,511 Maple Grove Drive,Oakville
a2t5o00000001GcAAI,Sobeys_Covid_Pool?,7230,Sobeys Glen Abbey - COVID - MODERNA,L6M 3G3,Ontario,1500 Upper Middle Road,Oakville
a2t5o00000001GdAAI,Sobeys_Covid_Pool?,7234,Sobeys Orangeville - COVID - MODERNA,L9W 5L1,Ontario,500 Riddell Road,Orangeville
a2t5o00000001GeAAI,Sobeys_Covid_Pool?,7508,Sobeys Trim/Innes - COVID - MODERNA,K4A 0G4,Ontario,5150 Innes Road,Orleans
a2t5o00000001GgAAI,Sobeys_Covid_Pool?,7220,Sobeys Paris - COVID - PFIZER 12+ YEARS OLD,N3L 2N9,Ontario,307 Grand River Street N,Paris
a2t5o00000001GhAAI,Sobeys_Covid_Pool?,7223,Sobeys Peterborough - COVID - MODERNA,K9J 2A1,Ontario,1200 Lansdowne Street W,Peterborough
a2t5o00000001GjAAI,Sobeys_Covid_Pool?,7244,Sobeys Jefferson Square - COVID - MODERNA,L4E 3N6,Ontario,11700 Yonge Street,Richmond Hill
a2t5o00000001GkAAI,Sobeys_Covid_Pool?,7243,FreshCo Lawrence/Midland - COVID - PFIZER PEDIATRIC 5-11 YEARS OLD,M1P 2S1,Ontario,2650 Lawrence Avenue E,Scarborough
a2t5o00000001GlAAI,Sobeys_Covid_Pool?,7245,FreshCo Gerrard & Victoria - COVID - PFIZER 12+ YEARS OLD,M1N 1W8,Ontario,2490 Gerrard St. East,Scarborough
a2t5o00000001GmAAI,Sobeys_Covid_Pool?,7248,Sobeys Simcoe - COVID - MODERNA,N3Y 2X3,Ontario,438 Norfolk St,Simcoe
a2t5o00000001GnAAI,Sobeys_Covid_Pool?,7250,Sobeys Glendale & Merritt - COVID - MODERNA,L2T 0A1,Ontario,343 Glendale Ave,St. Catherines
a2t5o00000001GpAAI,Sobeys_Covid_Pool?,7215,Sobeys Vaughan - COVID - MODERNA,L4J 8W1,Ontario,9200 Bathurst Street,Thornhill
a2t5o00000001GqAAI,Sobeys_Covid_Pool?,7265,FreshCo 800 Steeles - COVID - MODERNA,L4J 1A2,Ontario,800 Steeles Ave W,Thornhill
a2t5o00000001GrAAI,Sobeys_Covid_Pool?,4293,Freshco Court Street - COVID - MODERNA,P7A 4T8,Ontario,70 North Court Street,Thunder Bay
a2t5o00000001GsAAI,Sobeys_Covid_Pool?,4811,Safeway Arthur Street - COVID - MODERNA,P7E 5P7,Ontario,115 West Arthur Street,Thunder Bay
a2t5o00000001GtAAI,Sobeys_Covid_Pool?,4812,Safeway Dawson Road - COVID - PFIZER 12+ YEARS OLD,P7B 6S7,Ontario,1015 Dawson Road,Thunder Bay
a2t5o00000001GuAAI,Sobeys_Covid_Pool?,7247,Sobeys Rosebury - COVID - MODERNA,M6B 3H3,Ontario,145 Marlee Avenue,Toronto
a2t5o00000001GvAAI,Sobeys_Covid_Pool?,7271,Sobeys Belfield Long Term Care - COVID - PFIZER 12+ YEARS OLD,M9W 1G1,Ontario,124 Belfield Rd. Unit 2,Toronto
a2t5o00000001GwAAI,Sobeys_Covid_Pool?,7275,FreshCo Bathurst & Nassau - COVID - MODERNA,M5T 2S6,Ontario,410 Bathurst St,Toronto
a2t5o00000001GxAAI,Sobeys_Covid_Pool?,7235,Foodland Tottenham - COVID - MODERNA,L0G 1W0,Ontario,260 Queen Street North,Tottenham
a2t5o00000001DyAAI,Sobeys_Covid_Pool?,7264,FreshCo Woodbridge - COVID - MODERNA,L4H 0A2,Ontario,3737 Major MacKenzie Dr,Vaughan
a2t5o00000001DzAAI,Sobeys_Covid_Pool?,7218,Sobeys Waterloo - COVID - MODERNA,N2T 2W1,Ontario,450 Columbia Street W ,Waterloo
a2t5o00000001E0AAI,Sobeys_Covid_Pool?,7239,Sobeys Bridgeport - COVID - MODERNA,N2J 2J9,Ontario,94 Bridgeport Road E,Waterloo
a2t5o00000001E1AAI,Sobeys_Covid_Pool?,7273,Sobeys Northfield - COVID - MODERNA,N2L 0C7,Ontario,640 Parkside Dr,Waterloo
a2t5o00000001E2AAI,Sobeys_Covid_Pool?,7226,Sobeys Whitby - COVID - MODERNA,L1N 2L1,Ontario,1615 Dundas Street E.,Whitby
a2t5o000000023PAAQ,Sobeys_Covid_Pool?,7245,FreshCo Gerrard & Victoria - COVID - PFIZER PEDIATRIC 5-11 YEARS OLD,M1N 1W8,Ontario,2490 Gerrard St. East,Scarborough
a2t5o000000023UAAQ,Sobeys_Covid_Pool?,7247,Sobeys Rosebury - COVID - PFIZER PEDIATRIC 5-11 YEARS OLD,M6B 3H3,Ontario,145 Marlee Avenue,Toronto
a2t5o00000002B2AAI,Sobeys_Covid_Pool?,7203,Sobeys Ajax - COVID - PFIZER PEDIATRIC 5-11 YEARS OLD,L1T 4E4,Ontario,260 Kingston Road W,Ajax
a2t5o00000002B3AAI,Sobeys_Covid_Pool?,7213,Sobeys Ancaster - COVID - PFIZER PEDIATRIC 5-11 YEARS OLD,L9K 1K1,Ontario,977 Golf Links Road,Ancaster
a2t5o00000002B4AAI,Sobeys_Covid_Pool?,7214,Sobeys Aurora - COVID - PFIZER PEDIATRIC 5-11 YEARS OLD,L4G 7J1,Ontario,15500 Bayview Avenue,Aurora
a2t5o00000002B5AAI,Sobeys_Covid_Pool?,7246,Sobeys Bradford - COVID - PFIZER PEDIATRIC 5-11 YEARS OLD,L3Z 3B8,Ontario,40 Melbourne Drive,Bradford
a2t5o00000002B6AAI,Sobeys_Covid_Pool?,7221,Sobeys Brampton - COVID - PFIZER PEDIATRIC 5-11 YEARS OLD,L6Y 0J2,Ontario,8975 Chinguacousy Road,Brampton
a2t5o00000002B7AAI,Sobeys_Covid_Pool?,7511,FreshCo 50 - Cottrelle - COVID - PFIZER PEDIATRIC 5-11 YEARS OLD,L6P 2R1,Ontario,3998 Cottrelle Boulevard,Brampton
a2t5o00000002B8AAI,Sobeys_Covid_Pool?,7269,Sobeys Burlington - COVID - PFIZER PEDIATRIC 5-11 YEARS OLD,L7P 1X8,Ontario,1250 Brant St,Burlington
a2t5o00000002B9AAI,Sobeys_Covid_Pool?,7268,FreshCo Ninth and Marlborough - COVID - PFIZER PEDIATRIC 5-11 YEARS OLD,K6H 0A3,Ontario,525 Ninth St. East,Cornwall
a2t5o00000002BAAAY,Sobeys_Covid_Pool?,7217,Sobeys Kanata - COVID - PFIZER PEDIATRIC 5-11 YEARS OLD,K2L 4H4,Ontario,700 Terry Fox Drive,Kanata
a2t5o00000002BBAAY,Sobeys_Covid_Pool?,7263,Sobeys March Road - COVID - PFIZER PEDIATRIC 5-11 YEARS OLD,K2K 1X7,Ontario,840 March Road,Kanata
a2t5o00000002BCAAY,Sobeys_Covid_Pool?,7224,Sobeys Kitchener - COVID - PFIZER PEDIATRIC 5-11 YEARS OLD,N2E 4H9,Ontario,1187 Fischer Hallman Road,Kitchener
a2t5o00000002BDAAY,Sobeys_Covid_Pool?,7208,FreshCo Markham - COVID - PFIZER PEDIATRIC 5-11 YEARS OLD,L3P 8M1,Ontario,9580 McCowan Road,Markham
a2t5o00000002BEAAY,Sobeys_Covid_Pool?,7272,Sobeys Milton - COVID - PFIZER PEDIATRIC 5-11 YEARS OLD,L9T 8X3,Ontario,1035 Bronte St South,Milton
a2t5o00000002BFAAY,Sobeys_Covid_Pool?,7204,Sobeys Mississauga - COVID - PFIZER PEDIATRIC 5-11 YEARS OLD,L5M 7L9,Ontario,5602 Tenth Line West,Mississauga
a2t5o00000002BGAAY,Sobeys_Covid_Pool?,7225,Sobeys Oakville - COVID - PFIZER PEDIATRIC 5-11 YEARS OLD,L6J 4W3,Ontario,511 Maple Grove Drive,Oakville
a2t5o00000002BHAAY,Sobeys_Covid_Pool?,7230,Sobeys Glen Abbey - COVID - PFIZER PEDIATRIC 5-11 YEARS OLD,L6M 3G3,Ontario,1500 Upper Middle Road,Oakville
a2t5o00000002BIAAY,Sobeys_Covid_Pool?,7508,Sobeys Trim/Innes - COVID - PFIZER PEDIATRIC 5-11 YEARS OLD,K4A 0G4,Ontario,5150 Innes Road,Orleans
a2t5o00000002BKAAY,Sobeys_Covid_Pool?,7220,Sobeys Paris - COVID - PFIZER PEDIATRIC 5-11 YEARS OLD,N3L 2N9,Ontario,307 Grand River Street N,Paris
a2t5o00000002BMAAY,Sobeys_Covid_Pool?,7244,Sobeys Jefferson Square - COVID - PFIZER PEDIATRIC 5-11 YEARS OLD,L4E 3N6,Ontario,11700 Yonge Street,Richmond Hill
a2t5o00000002BNAAY,Sobeys_Covid_Pool?,7250,Sobeys Glendale & Merritt - COVID - PFIZER PEDIATRIC 5-11 YEARS OLD,L2T 0A1,Ontario,343 Glendale Ave,St. Catherines
a2t5o00000002BOAAY,Sobeys_Covid_Pool?,7215,Sobeys Vaughan - COVID - PFIZER PEDIATRIC 5-11 YEARS OLD,L4J 8W1,Ontario,9200 Bathurst Street,Thornhill
a2t5o00000002BPAAY,Sobeys_Covid_Pool?,7265,FreshCo 800 Steeles - COVID - PFIZER PEDIATRIC 5-11 YEARS OLD,L4J 1A2,Ontario,800 Steeles Ave W,Thornhill
a2t5o00000002BQAAY,Sobeys_Covid_Pool?,4293,Freshco Court Street - COVID - PFIZER PEDIATRIC 5-11 YEARS OLD,P7A 4T8,Ontario,70 North Court Street,Thunder Bay
a2t5o00000002BRAAY,Sobeys_Covid_Pool?,7264,FreshCo Woodbridge - COVID - PFIZER PEDIATRIC 5-11 YEARS OLD,L4H 0A2,Ontario,3737 Major MacKenzie Dr,Vaughan
a2t5o00000002BSAAY,Sobeys_Covid_Pool?,7218,Sobeys Waterloo - COVID - PFIZER PEDIATRIC 5-11 YEARS OLD,N2T 2W1,Ontario,450 Columbia Street W ,Waterloo
a2t5o00000002BTAAY,Sobeys_Covid_Pool?,7273,Sobeys Northfield - COVID - PFIZER PEDIATRIC 5-11 YEARS OLD,N2L 0C7,Ontario,640 Parkside Dr,Waterloo
a2t5o0000000XMJAA2,Sobeys_Covid_Pool?,7511,FreshCo 50 - Cottrelle - COVID - MODERNA,L6P 2R1,Ontario,3998 Cottrelle Boulevard,Brampton
a2t5o0000000XMdAAM,Sobeys_Covid_Pool?,7245,FreshCo Gerrard & Victoria - COVID - MODERNA,M1N 1W8,Ontario,2490 Gerrard St. East,Scarborough
a2t5o0000001c2QAAQ,Sobeys_Covid_Pool?,7214,Sobeys Aurora - COVID - PFIZER 12+ YEARS OLD,L4G 7J1,Ontario,15500 Bayview Avenue,Aurora
a2t5o0000000XMsAAM,Sobeys_Covid_Pool?,7243,FreshCo Lawrence/Midland - COVID - MODERNA,M1P 2S1,Ontario,2650 Lawrence Avenue E,Scarborough
a2t5o0000001c5oAAA,Sobeys_Covid_Pool?,7226,Sobeys Whitby - COVID - PFIZER 12+ YEARS OLD,L1N 2L1,Ontario,1615 Dundas Street E.,Whitby
a2t5o0000001c3xAAA,Sobeys_Covid_Pool?,7274,Sobeys Wonderland - COVID - PFIZER 12+ YEARS OLD,N6H 0H9,Ontario,661 Wonderland Rd. N,London
a2t5o0000001c3nAAA,Sobeys_Covid_Pool?,7224,Sobeys Kitchener - COVID - PFIZER 12+ YEARS OLD,N2E 4H9,Ontario,1187 Fischer Hallman Road,Kitchener
a2t5o0000001c47AAA,Sobeys_Covid_Pool?,7272,Sobeys Milton - COVID - PFIZER 12+ YEARS OLD,L9T 8X3,Ontario,1035 Bronte St South,Milton
a2t5o0000001c2uAAA,Sobeys_Covid_Pool?,7847,FreshCo Brantford - COVID - PFIZER 12+ YEARS OLD,N3S 2E3,Ontario,50 Market Street  South,Brantford
a2t5o0000001c5UAAQ,Sobeys_Covid_Pool?,7264,FreshCo Woodbridge - COVID - PFIZER 12+ YEARS OLD,L4H 0A2,Ontario,3737 Major MacKenzie Dr,Vaughan
a2t5o0000001c55AAA,Sobeys_Covid_Pool?,4293,Freshco Court Street - COVID - PFIZER 12+ YEARS OLD,P7A 4T8,Ontario,70 North Court Street,Thunder Bay
a2t5o0000001c2BAAQ,Sobeys_Covid_Pool?,7211,Sobeys Acton - COVID - PFIZER 12+ YEARS OLD,L7J 2Y5,Ontario,372 Queen Street East,Acton
a2t5o0000001c5PAAQ,Sobeys_Covid_Pool?,7235,Foodland Tottenham - COVID - PFIZER 12+ YEARS OLD,L0G 1W0,Ontario,260 Queen Street North,Tottenham
a2t5o0000001c2VAAQ,Sobeys_Covid_Pool?,7237,Sobeys Barrie(Molson Park) - COVID - PFIZER 12+ YEARS OLD,L4N 9H5,Ontario,37 Mapleview Drive West,Barrie
a2t5o0000001c5eAAA,Sobeys_Covid_Pool?,7239,Sobeys Bridgeport - COVID - PFIZER 12+ YEARS OLD,N2J 2J9,Ontario,94 Bridgeport Road E,Waterloo
a2t5o0000001c2aAAA,Sobeys_Covid_Pool?,7246,Sobeys Bradford - COVID - PFIZER 12+ YEARS OLD,L3Z 3B8,Ontario,40 Melbourne Drive,Bradford
a2t5o0000001c5AAAQ,Sobeys_Covid_Pool?,4811,Safeway Arthur Street - COVID - PFIZER 12+ YEARS OLD,P7E 5P7,Ontario,115 West Arthur Street,Thunder Bay
a2t5o0000001c1nAAA,Sobeys_Covid_Pool?,7230,Sobeys Glen Abbey - COVID - PFIZER 12+ YEARS OLD,L6M 3G3,Ontario,1500 Upper Middle Road,Oakville
a2t5o0000001c2GAAQ,Sobeys_Covid_Pool?,7203,Sobeys Ajax - COVID - PFIZER 12+ YEARS OLD,L1T 4E4,Ontario,260 Kingston Road W,Ajax
a2t5o0000001c5jAAA,Sobeys_Covid_Pool?,7273,Sobeys Northfield - COVID - PFIZER 12+ YEARS OLD,N2L 0C7,Ontario,640 Parkside Dr,Waterloo
a2t5o0000001c3dAAA,Sobeys_Covid_Pool?,7263,Sobeys March Road - COVID - PFIZER 12+ YEARS OLD,K2K 1X7,Ontario,840 March Road,Kanata
a2t5o0000001c3TAAQ,Sobeys_Covid_Pool?,7249,Sobeys Gravenhurst - COVID - PFIZER 12+ YEARS OLD,P1P 1K8,Ontario,225 Edward Street,Gravenhurst
a2t5o0000001c3sAAA,Sobeys_Covid_Pool?,7259,Sobeys Ira Needles - COVID - PFIZER 12+ YEARS OLD,N2N 0B2,Ontario,235 Ira Needles Blvd,Kitchener
a2t5o0000001c4RAAQ,Sobeys_Covid_Pool?,7508,Sobeys Trim/Innes - COVID - PFIZER 12+ YEARS OLD,K4A 0G4,Ontario,5150 Innes Road,Orleans
a2t5o0000001c4bAAA,Sobeys_Covid_Pool?,7223,Sobeys Peterborough - COVID - PFIZER 12+ YEARS OLD,K9J 2A1,Ontario,1200 Lansdowne Street W,Peterborough
a2t5o0000001c4qAAA,Sobeys_Covid_Pool?,7250,Sobeys Glendale & Merritt - COVID - PFIZER 12+ YEARS OLD,L2T 0A1,Ontario,343 Glendale Ave,St. Catherines
a2t5o0000001c3iAAA,Sobeys_Covid_Pool?,7212,Sobeys Highland - COVID - PFIZER 12+ YEARS OLD,N2M 3C5,Ontario,274 Highland Road West,Kitchener
a2t5o0000001c39AAA,Sobeys_Covid_Pool?,7506,Sobeys Chatham - COVID - PFIZER 12+ YEARS OLD,N7M 1W3,Ontario,215 Park Ave,Chatham
a2t5o0000001c5FAAQ,Sobeys_Covid_Pool?,7247,Sobeys Rosebury - COVID - PFIZER 12+ YEARS OLD,M6B 3H3,Ontario,145 Marlee Avenue,Toronto
a2t5o0000001c5yAAA,Sobeys_Covid_Pool?,7507,FreshCo Princess - COVID - PFIZER 12+ YEARS OLD,K7M 3G1,Ontario,2327 Princess Street,Kingston
a2t5o0000003hrYAAQ,Sobeys_Covid_Pool?,7235,Foodland Tottenham - COVID - PFIZER PEDIATRIC 5-11 YEARS OLD,L0G 1W0,Ontario,260 Queen Street North,Tottenham
a2t5o0000003hsWAAQ,Sobeys_Covid_Pool?,4809,Safeway Fort Frances - COVID - PFIZER PEDIATRIC 5-11 YEARS OLD,P9A 1H3,Ontario,417 Scott Street,Fort Frances
a2t5o0000003hzqAAA,Sobeys_Covid_Pool?,7271,Sobeys Belfield Long Term Care - COVID - PFIZER PEDIATRIC 5-11 YEARS OLD,M9W 1G1,Ontario,124 Belfield Rd. Unit 2,Toronto
a2t5o0000003hxRAAQ,Sobeys_Covid_Pool?,7240,FreshCo Georgetown - COVID - PFIZER PEDIATRIC 5-11 YEARS OLD,L7G 4B3,Ontario,325 Guelph Street,Georgetown
a2t5o0000003hrTAAQ,Sobeys_Covid_Pool?,7222,Sobeys Etobicoke - COVID - PFIZER PEDIATRIC 5-11 YEARS OLD,M8Y 1H6,Ontario,125 The Queensway,Etobicoke
a2t5o0000003hyeAAA,Sobeys_Covid_Pool?,7211,Sobeys Acton - COVID - PFIZER PEDIATRIC 5-11 YEARS OLD,L7J 2Y5,Ontario,372 Queen Street East,Acton
a2t5o0000003huRAAQ,Sobeys_Covid_Pool?,4812,Safeway Dawson Road - COVID - PFIZER PEDIATRIC 5-11 YEARS OLD,P7B 6S7,Ontario,1015 Dawson Road,Thunder Bay
a2t5o0000003hzgAAA,Sobeys_Covid_Pool?,7239,Sobeys Bridgeport - COVID - PFIZER PEDIATRIC 5-11 YEARS OLD,N2J 2J9,Ontario,94 Bridgeport Road E,Waterloo
a2t5o0000003huMAAQ,Sobeys_Covid_Pool?,4811,Safeway Arthur Street - COVID - PFIZER PEDIATRIC 5-11 YEARS OLD,P7E 5P7,Ontario,115 West Arthur Street,Thunder Bay
a2t5o0000003hzIAAQ,Sobeys_Covid_Pool?,7248,Sobeys Simcoe - COVID - PFIZER PEDIATRIC 5-11 YEARS OLD,N3Y 2X3,Ontario,438 Norfolk St,Simcoe
a2t5o0000003huhAAA,Sobeys_Covid_Pool?,7237,Sobeys Barrie(Molson Park) - COVID - PFIZER PEDIATRIC 5-11 YEARS OLD,L4N 9H5,Ontario,37 Mapleview Drive West,Barrie
a2t5o0000003hzbAAA,Sobeys_Covid_Pool?,7226,Sobeys Whitby - COVID - PFIZER PEDIATRIC 5-11 YEARS OLD,L1N 2L1,Ontario,1615 Dundas Street E.,Whitby
a2t5o0000003i00AAA,Sobeys_Covid_Pool?,7274,Sobeys Wonderland - COVID - PFIZER PEDIATRIC 5-11 YEARS OLD,N6H 0H9,Ontario,661 Wonderland Rd. N,London
a2t5o0000003hoRAAQ,Sobeys_Covid_Pool?,7249,Sobeys Gravenhurst - COVID - PFIZER PEDIATRIC 5-11 YEARS OLD,P1P 1K8,Ontario,225 Edward Street,Gravenhurst
a2t5o0000000XMTAA2,Sobeys_Covid_Pool?,7220,Sobeys Paris - COVID - MODERNA,N3L 2N9,Ontario,307 Grand River Street N,Paris
a2t5o0000000XMnAAM,Sobeys_Covid_Pool?,7216,Sobeys Lakeshore - COVID - MODERNA,N9K 1C7,Ontario,19 Amy Croft Drive,Lakeshore
a2t5o0000000XMiAAM,Sobeys_Covid_Pool?,4812,Safeway Dawson Road - COVID - MODERNA,P7B 6S7,Ontario,1015 Dawson Road,Thunder Bay
a2t5o0000000XMOAA2,Sobeys_Covid_Pool?,7217,Sobeys Kanata - COVID - MODERNA,K2L 4H4,Ontario,700 Terry Fox Drive,Kanata
a2t5o0000001c2fAAA,Sobeys_Covid_Pool?,7221,Sobeys Brampton - COVID - PFIZER 12+ YEARS OLD,L6Y 0J2,Ontario,8975 Chinguacousy Road,Brampton
a2t5o0000001c2gAAA,Sobeys_Covid_Pool?,7268,FreshCo Ninth and Marlborough - COVID - PFIZER 12+ YEARS OLD,K6H 0A3,Ontario,525 Ninth St. East,Cornwall
a2t5o0000001c3JAAQ,Sobeys_Covid_Pool?,4809,Safeway Fort Frances - COVID - PFIZER 12+ YEARS OLD,P9A 1H3,Ontario,417 Scott Street,Fort Frances
a2t5o0000001c3YAAQ,Sobeys_Covid_Pool?,7258,Sobeys Alcona Beach - COVID - PFIZER 12+ YEARS OLD,L9S 4Y8,Ontario,2080 Jans Boulevard,Innisfil
a2t5o0000001c50AAA,Sobeys_Covid_Pool?,7265,FreshCo 800 Steeles - COVID - PFIZER 12+ YEARS OLD,L4J 1A2,Ontario,800 Steeles Ave W,Thornhill
a2t5o0000001c4CAAQ,Sobeys_Covid_Pool?,7204,Sobeys Mississauga - COVID - PFIZER 12+ YEARS OLD,L5M 7L9,Ontario,5602 Tenth Line West,Mississauga
a2t5o0000001c2LAAQ,Sobeys_Covid_Pool?,7213,Sobeys Ancaster - COVID - PFIZER 12+ YEARS OLD,L9K 1K1,Ontario,977 Golf Links Road,Ancaster
a2t5o0000001c4HAAQ,Sobeys_Covid_Pool?,7225,Sobeys Oakville - COVID - PFIZER 12+ YEARS OLD,L6J 4W3,Ontario,511 Maple Grove Drive,Oakville
a2t5o0000001c3OAAQ,Sobeys_Covid_Pool?,7240,FreshCo Georgetown - COVID - PFIZER 12+ YEARS OLD,L7G 4B3,Ontario,325 Guelph Street,Georgetown
a2t5o0000001c4gAAA,Sobeys_Covid_Pool?,7244,Sobeys Jefferson Square - COVID - PFIZER 12+ YEARS OLD,L4E 3N6,Ontario,11700 Yonge Street,Richmond Hill
a2t5o0000001c4lAAA,Sobeys_Covid_Pool?,7248,Sobeys Simcoe - COVID - PFIZER 12+ YEARS OLD,N3Y 2X3,Ontario,438 Norfolk St,Simcoe
a2t5o0000001c4vAAA,Sobeys_Covid_Pool?,7215,Sobeys Vaughan - COVID - PFIZER 12+ YEARS OLD,L4J 8W1,Ontario,9200 Bathurst Street,Thornhill
a2t5o0000001c4MAAQ,Sobeys_Covid_Pool?,7234,Sobeys Orangeville - COVID - PFIZER 12+ YEARS OLD,L9W 5L1,Ontario,500 Riddell Road,Orangeville
a2t5o0000001c5KAAQ,Sobeys_Covid_Pool?,7275,FreshCo Bathurst & Nassau - COVID - PFIZER 12+ YEARS OLD,M5T 2S6,Ontario,410 Bathurst St,Toronto
a2t5o0000001c5ZAAQ,Sobeys_Covid_Pool?,7218,Sobeys Waterloo - COVID - PFIZER 12+ YEARS OLD,N2T 2W1,Ontario,450 Columbia Street W ,Waterloo
a2t5o0000001c2kAAA,Sobeys_Covid_Pool?,7276,FreshCo Mississauga & Financial - COVID - PFIZER 12+ YEARS OLD,L6Y 0E3,Ontario,Unit 11 - 8405 Financial Drive,Brampton
a2t5o0000001c34AAA,Sobeys_Covid_Pool?,7804,FreshCo Cambridge - COVID - PFIZER 12+ YEARS OLD,N1R 8L4,Ontario,1 Hespeler Road,Cambridge
a2t5o0000001c3EAAQ,Sobeys_Covid_Pool?,7222,Sobeys Etobicoke - COVID - PFIZER 12+ YEARS OLD,M8Y 1H6,Ontario,125 The Queensway,Etobicoke
a2t5o0000001c42AAA,Sobeys_Covid_Pool?,7208,FreshCo Markham - COVID - PFIZER 12+ YEARS OLD,L3P 8M1,Ontario,9580 McCowan Road,Markham
a2t5o0000001c43AAA,Sobeys_Covid_Pool?,7267,FreshCo Lundy's Lane - COVID - PFIZER 12+ YEARS OLD,L2H 1T6,Ontario,5931 Kalar Road,Niagara Falls
a2t5o0000001c2zAAA,Sobeys_Covid_Pool?,7269,Sobeys Burlington - COVID - PFIZER 12+ YEARS OLD,L7P 1X8,Ontario,1250 Brant St,Burlington
a2t5o0000003hpKAAQ,Sobeys_Covid_Pool?,7267,FreshCo Lundy's Lane - COVID - PFIZER PEDIATRIC 5-11 YEARS OLD,L2H 1T6,Ontario,5931 Kalar Road,Niagara Falls
a2t5o0000003hzvAAA,Sobeys_Covid_Pool?,7271,Sobeys Belfield Long Term Care - COVID - MODERNA,M9W 1G1,Ontario,124 Belfield Rd. Unit 2,Toronto
a2t5o0000003hnqAAA,Sobeys_Covid_Pool?,7847,FreshCo Brantford - COVID - PFIZER PEDIATRIC 5-11 YEARS OLD,N3S 2E3,Ontario,50 Market Street  South,Brantford
a2t5o0000003hjcAAA,Sobeys_Covid_Pool?,7258,Sobeys Alcona Beach - COVID - PFIZER PEDIATRIC 5-11 YEARS OLD,L9S 4Y8,Ontario,2080 Jans Boulevard,Innisfil
a2t5o0000003hhaAAA,Sobeys_Covid_Pool?,7212,Sobeys Highland - COVID - PFIZER PEDIATRIC 5-11 YEARS OLD,N2M 3C5,Ontario,274 Highland Road West,Kitchener
a2t5o0000003hgbAAA,Sobeys_Covid_Pool?,7275,FreshCo Bathurst & Nassau - COVID - PFIZER PEDIATRIC 5-11 YEARS OLD,M5T 2S6,Ontario,410 Bathurst St,Toronto
a2t5o0000003hvIAAQ,Sobeys_Covid_Pool?,7223,Sobeys Peterborough - COVID - PFIZER PEDIATRIC 5-11 YEARS OLD,K9J 2A1,Ontario,1200 Lansdowne Street W,Peterborough
a2t5o0000003hucAAA,Sobeys_Covid_Pool?,7234,Sobeys Orangeville - COVID - PFIZER PEDIATRIC 5-11 YEARS OLD,L9W 5L1,Ontario,500 Riddell Road,Orangeville
a2t5o0000003hzlAAA,Sobeys_Covid_Pool?,7259,Sobeys Ira Needles - COVID - PFIZER PEDIATRIC 5-11 YEARS OLD,N2N 0B2,Ontario,235 Ira Needles Blvd,Kitchener
a2t5o0000003i0AAAQ,Sobeys_Covid_Pool?,7506,Sobeys Chatham - COVID - PFIZER PEDIATRIC 5-11 YEARS OLD,N7M 1W3,Ontario,215 Park Ave,Chatham
a2t5o0000003i0FAAQ,Sobeys_Covid_Pool?,7804,FreshCo Cambridge - COVID - PFIZER PEDIATRIC 5-11 YEARS OLD,N1R 8L4,Ontario,1 Hespeler Road,Cambridge
a2t5o0000003i3xAAA,Sobeys_Covid_Pool?,12345678,Skedulo Test Location (Skedulo Use only) - COVID - MODERNA, USA,Ontario,1 Centre St, New York
a2t5o0000003i3sAAA,Sobeys_Covid_Pool?,12345678,Skedulo Test Location (Skedulo Use only) - COVID - PFIZER PEDIATRIC 5-11 YEARS O, USA,Ontario,1 Centre St, New York
a2t5o0000003i05AAA,Sobeys_Covid_Pool?,7276,FreshCo Mississauga & Financial - COVID - PFIZER PEDIATRIC 5-11 YEARS OLD,L6Y 0E3,Ontario,Unit 11 - 8405 Financial Drive,Brampton
a2t5o00000001wTAAQ,Sobeys_Covid_Pool?,7216,Sobeys Lakeshore - COVID - PFIZER 12+ YEARS OLD,N9K 1C7,Ontario,19 Amy Croft Drive,Lakeshore
a2t5o00000001wYAAQ,Sobeys_Covid_Pool?,7243,FreshCo Lawrence/Midland - COVID - PFIZER 12+ YEARS OLD,M1P 2S1,Ontario,2650 Lawrence Avenue E,Scarborough
a2t5o00000001wiAAA,Sobeys_Covid_Pool?,7507,FreshCo Princess - COVID - MODERNA,K7M 3G1,Ontario,2327 Princess Street,Kingston
a2t5o00000001LnAAI,Sobeys_Covid_Pool?,2557,Lawtons Montague - COVID - MODERNA,C0A 1R0,Prince Edward Island,"407 MacIntyre Ave, PO Box 670",Montague
a2t5o0000002kOlAAI,Sobeys_Covid_Pool?,2557,Lawtons Montague - COVID - PFIZER,C0A 1R0,Prince Edward Island,"407 MacIntyre Ave, PO Box 670",Montague
a2t5o0000003hqAAAQ,Sobeys_Covid_Pool?,2557,Lawtons Montague - COVID - ASTRAZENECA,C0A 1R0,Prince Edward Island,"407 MacIntyre Ave, PO Box 670",Montague
a2t5o00000001GoAAI,Sobeys_Covid_Pool?,621,Sobeys Stratford - COVID - ASTRAZENECA,C1B 1L8,Prince Edward Island,9 Kinlock Road ,Stratford
a2t5o00000001LLAAY,Sobeys_Covid_Pool?,721,Sobeys Montague - COVID - MODERNA,C0A 1R0,Prince Edward Island,76-87 Main St,Montague
a2t5o00000001LMAAY,Sobeys_Covid_Pool?,826,Lawtons Friendly's Charlottetown - COVID - MODERNA,C1A 9M5,Prince Edward Island,220 Water Street,Charlottetown
a2t5o00000001LNAAY,Sobeys_Covid_Pool?,868,Sobeys Summerside - COVID - MODERNA,C1N 4P7,Prince Edward Island,475 Granville Street,Summerside
a2t5o00000001LOAAY,Sobeys_Covid_Pool?,870,Sobeys University Avenue - COVID - MODERNA,C1A 4N6,Prince Edward Island,400 University Avenue,Charlottetown
a2t5o00000001LfAAI,Sobeys_Covid_Pool?,372,Lawtons Charlottetown - COVID - MODERNA,C1A 1L2,Prince Edward Island,199 Grafton Street,Charlottetown
a2t5o00000001LgAAI,Sobeys_Covid_Pool?,628,Sobeys West Royalty - COVID - MODERNA,C1A 0C9,Prince Edward Island,39 Babineau Avenue,Charlottetown
a2t5o00000001LmAAI,Sobeys_Covid_Pool?,882,Lawtons Sherwood Centre - COVID - MODERNA,C1A 5P7,Prince Edward Island,161 St. Peter's Road,Charlottetown
a2t5o00000001M9AAI,Sobeys_Covid_Pool?,880,Lawtons Summerside - COVID - MODERNA,C1N 4P7,Prince Edward Island,475 Granville Street,Summerside
a2t5o00000001oKAAQ,Sobeys_Covid_Pool?,621,Sobeys Stratford - COVID - MODERNA,C1B 1L8,Prince Edward Island,9 Kinlock Road ,Stratford
a2t5o0000002kP0AAI,Sobeys_Covid_Pool?,880,Lawtons Summerside - COVID - PFIZER,C1N 4P7,Prince Edward Island,475 Granville Street,Summerside
a2t5o0000002kOCAAY,Sobeys_Covid_Pool?,721,Sobeys Montague - COVID - PFIZER,C0A 1R0,Prince Edward Island,76-87 Main St,Montague
a2t5o0000002kObAAI,Sobeys_Covid_Pool?,628,Sobeys West Royalty - COVID - PFIZER,C1A 0C9,Prince Edward Island,39 Babineau Avenue,Charlottetown
a2t5o0000002kP5AAI,Sobeys_Covid_Pool?,621,Sobeys Stratford - COVID - PFIZER,C1B 1L8,Prince Edward Island,9 Kinlock Road ,Stratford
a2t5o0000002kOgAAI,Sobeys_Covid_Pool?,882,Lawtons Sherwood Centre - COVID - PFIZER,C1A 5P7,Prince Edward Island,161 St. Peter's Road,Charlottetown
a2t5o0000002kOWAAY,Sobeys_Covid_Pool?,372,Lawtons Charlottetown - COVID - PFIZER,C1A 1L2,Prince Edward Island,199 Grafton Street,Charlottetown
a2t5o0000003hlfAAA,Sobeys_Covid_Pool?,826,Lawtons Friendly's Charlottetown - COVID - ASTRAZENECA,C1A 9M5,Prince Edward Island,220 Water Street,Charlottetown
a2t5o0000003hkqAAA,Sobeys_Covid_Pool?,628,Sobeys West Royalty - COVID - ASTRAZENECA,C1A 0C9,Prince Edward Island,39 Babineau Avenue,Charlottetown
a2t5o0000003hp2AAA,Sobeys_Covid_Pool?,868,Sobeys Summerside - COVID - ASTRAZENECA,C1N 4P7,Prince Edward Island,475 Granville Street,Summerside
a2t5o0000003hp7AAA,Sobeys_Covid_Pool?,870,Sobeys University Avenue - COVID - ASTRAZENECA,C1A 4N6,Prince Edward Island,400 University Avenue,Charlottetown
a2t5o0000002kORAAY,Sobeys_Covid_Pool?,870,Sobeys University Avenue - COVID - PFIZER,C1A 4N6,Prince Edward Island,400 University Avenue,Charlottetown
a2t5o0000002kOHAAY,Sobeys_Covid_Pool?,826,Lawtons Friendly's Charlottetown - COVID - PFIZER,C1A 9M5,Prince Edward Island,220 Water Street,Charlottetown
a2t5o0000002kOMAAY,Sobeys_Covid_Pool?,868,Sobeys Summerside - COVID - PFIZER,C1N 4P7,Prince Edward Island,475 Granville Street,Summerside
a2t5o0000003hmxAAA,Sobeys_Covid_Pool?,882,Lawtons Sherwood Centre - COVID - ASTRAZENECA,C1A 5P7,Prince Edward Island,161 St. Peter's Road,Charlottetown
a2t5o0000003hj9AAA,Sobeys_Covid_Pool?,372,Lawtons Charlottetown - COVID - ASTRAZENECA,C1A 1L2,Prince Edward Island,199 Grafton Street,Charlottetown
a2t5o0000003hlyAAA,Sobeys_Covid_Pool?,721,Sobeys Montague - COVID - ASTRAZENECA,C0A 1R0,Prince Edward Island,76-87 Main St,Montague
a2t5o0000003heZAAQ,Sobeys_Covid_Pool?,880,Lawtons Summerside - COVID - ASTRAZENECA,C1N 4P7,Prince Edward Island,475 Granville Street,Summerside
a2t5o00000001E6AAI,Sobeys_Covid_Pool?,1234,Sobeys Test Location (No longer vaccinating) - COVID - PFIZER 12+ YEARS OLD,S4P 4W7,Saskatchewan,2445 Albert St,Regina
a2t5o00000001MCAAY,Sobeys_Covid_Pool?,5162,Sobeys Rochdale - COVID - PFIZER 12+ YEARS OLD,S4X 4P7,Saskatchewan,4101 Rochdale Boulevard,Regina
a2t5o00000001MdAAI,Sobeys_Covid_Pool?,3154,Sobeys Preston Crossing - COVID - MODERNA,S7N 4V2,Saskatchewan,1739 Preston Avenue North,Saskatoon
a2t5o00000001MeAAI,Sobeys_Covid_Pool?,4282,FreshCo Regent Park - COVID - PFIZER 12+ YEARS OLD,S4R 4A8,Saskatchewan,3859 Sherwood Drive,Regina
a2t5o00000001MfAAI,Sobeys_Covid_Pool?,4283,FreshCo Confederation - COVID - PFIZER 12+ YEARS OLD,S7L 4R6,Saskatchewan,300 Confederation Drive,Saskatoon
a2t5o00000001MgAAI,Sobeys_Covid_Pool?,4284,FreshCo 33rd Street - COVID - PFIZER 12+ YEARS OLD,S7L 0V4,Saskatchewan,302 - 33 Street West,Saskatoon
a2t5o00000001MhAAI,Sobeys_Covid_Pool?,4285,FreshCo Market Mall - COVID - PFIZER 12+ YEARS OLD,S7J 2G1,Saskatchewan,2325 Preston Avenue,Saskatoon
a2t5o00000001MmAAI,Sobeys_Covid_Pool?,3140,Sobeys Varsity - COVID - PFIZER 12+ YEARS OLD,S7H 0T3,Saskatchewan,1550 8th Street East,Saskatoon
a2t5o00000001MnAAI,Sobeys_Covid_Pool?,4891,Safeway 13th Avenue - COVID - PFIZER 12+ YEARS OLD,S4T 1N8,Saskatchewan,2931 - 13 Avenue,Regina
a2t5o00000001MoAAI,Sobeys_Covid_Pool?,4893,Safeway Moose Jaw - COVID - PFIZER 12+ YEARS OLD,S6H 1K9,Saskatchewan,200 - 1 Avenue North West,Moose Jaw
a2t5o00000001MpAAI,Sobeys_Covid_Pool?,4895,Safeway Victoria Square - COVID - PFIZER 12+ YEARS OLD,S4N 6E4,Saskatchewan,2223 Victoria Avenue East,Regina
a2t5o00000001MqAAI,Sobeys_Covid_Pool?,5038,Sobeys Stonebridge Sobeys - COVID - PFIZER 12+ YEARS OLD,S7T 0V1,Saskatchewan,3100 Preston Ave. S.,Saskatoon
a2t5o00000001MrAAI,Sobeys_Covid_Pool?,5148,Sobeys Estevan - COVID - MODERNA,S4A 2B4,Saskatchewan,440 King Street,Estevan
a2t5o00000001NqAAI,Sobeys_Covid_Pool?,4878,Safeway Lawson Heights - COVID - PFIZER 12+ YEARS OLD,S7K 5S6,Saskatchewan,1-134 Primrose Drive ,Saskatoon
a2t5o00000001NrAAI,Sobeys_Covid_Pool?,4880,Safeway University Heights - COVID - PFIZER 12+ YEARS OLD,S7S 0A5,Saskatchewan,1860 McOrmond Drive,Saskatoon
a2t5o00000001NsAAI,Sobeys_Covid_Pool?,4887,Safeway Southland Mall - COVID - PFIZER 12+ YEARS OLD,S4S 6H7,Saskatchewan,3015 Gordon Road,Regina
a2t5o00000001NtAAI,Sobeys_Covid_Pool?,4889,Safeway South Hill Mall - COVID - PFIZER 12+ YEARS OLD,S6V 5V5,Saskatchewan,2995 - 2 Avenue West,Prince Albert
a2t5o00000001NuAAI,Sobeys_Covid_Pool?,4890,Safeway Northgate Mall - COVID - PFIZER 12+ YEARS OLD,S4R 3C3,Saskatchewan,353 Albert Street North,Regina
a2t5o0000000eAUAAY,Sobeys_Covid_Pool?,4887,Safeway Southland Mall - COVID - MODERNA,S4S 6H7,Saskatchewan,3015 Gordon Road,Regina
a2t5o0000000eAKAAY,Sobeys_Covid_Pool?,4878,Safeway Lawson Heights - COVID - MODERNA,S7K 5S6,Saskatchewan,1-134 Primrose Drive ,Saskatoon
a2t5o0000000eAZAAY,Sobeys_Covid_Pool?,4889,Safeway South Hill Mall - COVID - MODERNA,S6V 5V5,Saskatchewan,2995 - 2 Avenue West,Prince Albert
a2t5o0000000e9gAAA,Sobeys_Covid_Pool?,4283,FreshCo Confederation - COVID - MODERNA,S7L 4R6,Saskatchewan,300 Confederation Drive,Saskatoon
a2t5o0000000e9lAAA,Sobeys_Covid_Pool?,4284,FreshCo 33rd Street - COVID - MODERNA,S7L 0V4,Saskatchewan,302 - 33 Street West,Saskatoon
a2t5o0000000eA0AAI,Sobeys_Covid_Pool?,4891,Safeway 13th Avenue - COVID - MODERNA,S4T 1N8,Saskatchewan,2931 - 13 Avenue,Regina
a2t5o0000000eAFAAY,Sobeys_Covid_Pool?,5038,Sobeys Stonebridge Sobeys - COVID - MODERNA,S7T 0V1,Saskatchewan,3100 Preston Ave. S.,Saskatoon
a2t5o0000000e9bAAA,Sobeys_Covid_Pool?,4282,FreshCo Regent Park - COVID - MODERNA,S4R 4A8,Saskatchewan,3859 Sherwood Drive,Regina
a2t5o0000000e9vAAA,Sobeys_Covid_Pool?,3140,Sobeys Varsity - COVID - MODERNA,S7H 0T3,Saskatchewan,1550 8th Street East,Saskatoon
a2t5o0000000e9qAAA,Sobeys_Covid_Pool?,4285,FreshCo Market Mall - COVID - MODERNA,S7J 2G1,Saskatchewan,2325 Preston Avenue,Saskatoon
a2t5o0000000eAPAAY,Sobeys_Covid_Pool?,4880,Safeway University Heights - COVID - MODERNA,S7S 0A5,Saskatchewan,1860 McOrmond Drive,Saskatoon
a2t5o0000000e9WAAQ,Sobeys_Covid_Pool?,5162,Sobeys Rochdale - COVID - MODERNA,S4X 4P7,Saskatchewan,4101 Rochdale Boulevard,Regina
a2t5o0000002hbrAAA,Sobeys_Covid_Pool?,3154,Sobeys Preston Crossing - COVID - PFIZER 12+ YEARS OLD,S7N 4V2,Saskatchewan,1739 Preston Avenue North,Saskatoon
a2t5o0000003hs9AAA,Sobeys_Covid_Pool?,4887,Safeway Southland Mall - COVID - PFIZER PEDIATRIC 5-11 YEARS OLD,S4S 6H7,Saskatchewan,3015 Gordon Road,Regina
a2t5o0000003hsVAAQ,Sobeys_Covid_Pool?,3140,Sobeys Varsity - COVID - PFIZER PEDIATRIC 5-11 YEARS OLD,S7H 0T3,Saskatchewan,1550 8th Street East,Saskatoon
a2t5o0000003hiMAAQ,Sobeys_Covid_Pool?,5162,Sobeys Rochdale - COVID - PFIZER PEDIATRIC 5-11 YEARS OLD,S4X 4P7,Saskatchewan,4101 Rochdale Boulevard,Regina
a2t5o0000003hsbAAA,Sobeys_Covid_Pool?,4282,FreshCo Regent Park - COVID - PFIZER PEDIATRIC 5-11 YEARS OLD,S4R 4A8,Saskatchewan,3859 Sherwood Drive,Regina
a2t5o0000003hu2AAA,Sobeys_Covid_Pool?,4284,FreshCo 33rd Street - COVID - PFIZER PEDIATRIC 5-11 YEARS OLD,S7L 0V4,Saskatchewan,302 - 33 Street West,Saskatoon
a2t5o0000003hvjAAA,Sobeys_Covid_Pool?,4895,Safeway Victoria Square - COVID - PFIZER PEDIATRIC 5-11 YEARS OLD,S4N 6E4,Saskatchewan,2223 Victoria Avenue East,Regina
a2t5o0000003htxAAA,Sobeys_Covid_Pool?,4283,FreshCo Confederation - COVID - PFIZER PEDIATRIC 5-11 YEARS OLD,S7L 4R6,Saskatchewan,300 Confederation Drive,Saskatoon
a2t5o0000003hepAAA,Sobeys_Covid_Pool?,5148,Sobeys Estevan - COVID - PFIZER 12+ YEARS OLD,S4A 2B4,Saskatchewan,440 King Street,Estevan
a2t5o0000003hvZAAQ,Sobeys_Covid_Pool?,4891,Safeway 13th Avenue - COVID - PFIZER PEDIATRIC 5-11 YEARS OLD,S4T 1N8,Saskatchewan,2931 - 13 Avenue,Regina
a2t5o0000000eAeAAI,Sobeys_Covid_Pool?,4890,Safeway Northgate Mall - COVID - MODERNA,S4R 3C3,Saskatchewan,353 Albert Street North,Regina
a2t5o0000000eAAAAY,Sobeys_Covid_Pool?,4895,Safeway Victoria Square - COVID - MODERNA,S4N 6E4,Saskatchewan,2223 Victoria Avenue East,Regina
a2t5o0000000eA5AAI,Sobeys_Covid_Pool?,4893,Safeway Moose Jaw - COVID - MODERNA,S6H 1K9,Saskatchewan,200 - 1 Avenue North West,Moose Jaw
a2t5o0000003hk5AAA,Sobeys_Covid_Pool?,4285,FreshCo Market Mall - COVID - PFIZER PEDIATRIC 5-11 YEARS OLD,S7J 2G1,Saskatchewan,2325 Preston Avenue,Saskatoon
a2t5o0000003hveAAA,Sobeys_Covid_Pool?,4893,Safeway Moose Jaw - COVID - PFIZER PEDIATRIC 5-11 YEARS OLD,S6H 1K9,Saskatchewan,200 - 1 Avenue North West,Moose Jaw
a2t5o0000003hvKAAQ,Sobeys_Covid_Pool?,4878,Safeway Lawson Heights - COVID - PFIZER PEDIATRIC 5-11 YEARS OLD,S7K 5S6,Saskatchewan,1-134 Primrose Drive ,Saskatoon
a2t5o0000003hpvAAA,Sobeys_Covid_Pool?,1234,Sobeys Test Location (No longer vaccinating) - COVID - MODERNA,S4P 4W7,Saskatchewan,2445 Albert St,Regina
a2t5o0000003hsfAAA,Sobeys_Covid_Pool?,3154,Sobeys Preston Crossing - COVID - PFIZER PEDIATRIC 5-11 YEARS OLD,S7N 4V2,Saskatchewan,1739 Preston Avenue North,Saskatoon
a2t5o0000003hvUAAQ,Sobeys_Covid_Pool?,4889,Safeway South Hill Mall - COVID - PFIZER PEDIATRIC 5-11 YEARS OLD,S6V 5V5,Saskatchewan,2995 - 2 Avenue West,Prince Albert
a2t5o0000003hvVAAQ,Sobeys_Covid_Pool?,4890,Safeway Northgate Mall - COVID - PFIZER PEDIATRIC 5-11 YEARS OLD,S4R 3C3,Saskatchewan,353 Albert Street North,Regina
a2t5o0000003hz2AAA,Sobeys_Covid_Pool?,5038,Sobeys Stonebridge Sobeys - COVID - PFIZER PEDIATRIC 5-11 YEARS OLD,S7T 0V1,Saskatchewan,3100 Preston Ave. S.,Saskatoon
a2t5o0000003hreAAA,Sobeys_Covid_Pool?,5148,Sobeys Estevan - COVID - ASTRTAZENECA,S4A 2B4,Saskatchewan,440 King Street,Estevan
a2t5o0000003hfhAAA,Sobeys_Covid_Pool?,1234,Sobeys Test Location (No longer vaccinating) - COVID - PFIZER PEDIATRIC 5-11 YEA,S4P 4W7,Saskatchewan,2445 Albert St,Regina
a2t5o0000003hvPAAQ,Sobeys_Covid_Pool?,4880,Safeway University Heights - COVID - PFIZER PEDIATRIC 5-11 YEARS OLD,S7S 0A5,Saskatchewan,1860 McOrmond Drive,Saskatoon
